{
  "type": "FeatureCollection",
  "features": [
    {
      "type": "Feature",
      "properties": {
        "name": "Grand Tour de Calp",
        "description": "Ermita \u2192 Magenta\u2199 \u2192 Red \u2192 Olta \u2192 La Mola \u2192 Lima(partial)\u2197 \u2192 Yellow\u2197 \u2192 Magenta\u2197 \u2192 Ermita",
        "length_km": 23.0,
        "color": "#1a1a1a"
      },
      "geometry": {
        "type": "LineString",
        "coordinates": [
          [
            0.063185,
            38.668217
          ],
          [
            0.063133,
            38.668105
          ],
          [
            0.063225,
            38.667942
          ],
          [
            0.063147,
            38.667837
          ],
          [
            0.063042,
            38.667781
          ],
          [
            0.063042,
            38.667781
          ],
          [
            0.062912,
            38.667743
          ],
          [
            0.062836,
            38.667774
          ],
          [
            0.062608,
            38.667869
          ],
          [
            0.062453,
            38.667919
          ],
          [
            0.062312,
            38.667927
          ],
          [
            0.061409,
            38.667937
          ],
          [
            0.061265,
            38.66795
          ],
          [
            0.060783,
            38.668036
          ],
          [
            0.059966,
            38.668044
          ],
          [
            0.059922,
            38.668058
          ],
          [
            0.059674,
            38.667873
          ],
          [
            0.059602,
            38.667905
          ],
          [
            0.059221,
            38.66794
          ],
          [
            0.058671,
            38.667976
          ],
          [
            0.058393,
            38.66799
          ],
          [
            0.058046,
            38.668088
          ],
          [
            0.057831,
            38.668165
          ],
          [
            0.057447,
            38.668285
          ],
          [
            0.05696,
            38.668445
          ],
          [
            0.056622,
            38.668568
          ],
          [
            0.056552,
            38.668608
          ],
          [
            0.056501,
            38.668668
          ],
          [
            0.056467,
            38.668727
          ],
          [
            0.05643,
            38.668748
          ],
          [
            0.056418,
            38.668727
          ],
          [
            0.056336,
            38.66866
          ],
          [
            0.056209,
            38.668611
          ],
          [
            0.056072,
            38.668579
          ],
          [
            0.055973,
            38.668562
          ],
          [
            0.055832,
            38.668499
          ],
          [
            0.055622,
            38.66841
          ],
          [
            0.055408,
            38.668343
          ],
          [
            0.055254,
            38.668313
          ],
          [
            0.055168,
            38.668328
          ],
          [
            0.055103,
            38.668361
          ],
          [
            0.055046,
            38.668397
          ],
          [
            0.054963,
            38.668464
          ],
          [
            0.054801,
            38.668576
          ],
          [
            0.054721,
            38.66862
          ],
          [
            0.054423,
            38.668771
          ],
          [
            0.054297,
            38.668833
          ],
          [
            0.054173,
            38.668895
          ],
          [
            0.054068,
            38.668967
          ],
          [
            0.054002,
            38.669028
          ],
          [
            0.053938,
            38.669055
          ],
          [
            0.053888,
            38.669079
          ],
          [
            0.053933,
            38.669108
          ],
          [
            0.054003,
            38.669188
          ],
          [
            0.054054,
            38.669316
          ],
          [
            0.054081,
            38.669421
          ],
          [
            0.054059,
            38.669491
          ],
          [
            0.053966,
            38.66956
          ],
          [
            0.053733,
            38.66968
          ],
          [
            0.053409,
            38.669809
          ],
          [
            0.053302,
            38.669881
          ],
          [
            0.053245,
            38.669958
          ],
          [
            0.053143,
            38.670152
          ],
          [
            0.052977,
            38.670524
          ],
          [
            0.052914,
            38.670698
          ],
          [
            0.052878,
            38.670857
          ],
          [
            0.052822,
            38.670982
          ],
          [
            0.052778,
            38.671057
          ],
          [
            0.052752,
            38.671171
          ],
          [
            0.052725,
            38.671418
          ],
          [
            0.052743,
            38.671499
          ],
          [
            0.052802,
            38.671605
          ],
          [
            0.052878,
            38.671777
          ],
          [
            0.052919,
            38.671913
          ],
          [
            0.052895,
            38.671968
          ],
          [
            0.052677,
            38.672297
          ],
          [
            0.052628,
            38.672381
          ],
          [
            0.051599,
            38.672445
          ],
          [
            0.050907,
            38.671753
          ],
          [
            0.050768,
            38.671643
          ],
          [
            0.050387,
            38.671568
          ],
          [
            0.050222,
            38.671621
          ],
          [
            0.050005,
            38.671708
          ],
          [
            0.049589,
            38.671777
          ],
          [
            0.04884,
            38.671889
          ],
          [
            0.049025,
            38.671472
          ],
          [
            0.049276,
            38.670915
          ],
          [
            0.049356,
            38.670735
          ],
          [
            0.049494,
            38.670453
          ],
          [
            0.049474,
            38.670343
          ],
          [
            0.049502,
            38.670222
          ],
          [
            0.049537,
            38.670097
          ],
          [
            0.04958,
            38.669971
          ],
          [
            0.049629,
            38.669845
          ],
          [
            0.049684,
            38.669721
          ],
          [
            0.049746,
            38.6696
          ],
          [
            0.049814,
            38.669484
          ],
          [
            0.049887,
            38.669375
          ],
          [
            0.050183,
            38.669094
          ],
          [
            0.050547,
            38.668738
          ],
          [
            0.050409,
            38.668552
          ],
          [
            0.050367,
            38.668492
          ],
          [
            0.050288,
            38.668409
          ],
          [
            0.050219,
            38.66837
          ],
          [
            0.05018,
            38.668315
          ],
          [
            0.050144,
            38.668009
          ],
          [
            0.050123,
            38.667873
          ],
          [
            0.050077,
            38.667736
          ],
          [
            0.050025,
            38.667527
          ],
          [
            0.050036,
            38.667359
          ],
          [
            0.050419,
            38.667153
          ],
          [
            0.050572,
            38.667086
          ],
          [
            0.050925,
            38.667026
          ],
          [
            0.050736,
            38.666938
          ],
          [
            0.050618,
            38.666862
          ],
          [
            0.050555,
            38.666729
          ],
          [
            0.050401,
            38.66668
          ],
          [
            0.050305,
            38.666587
          ],
          [
            0.050329,
            38.666413
          ],
          [
            0.050605,
            38.666341
          ],
          [
            0.050559,
            38.666212
          ],
          [
            0.050474,
            38.666012
          ],
          [
            0.050324,
            38.665832
          ],
          [
            0.050192,
            38.665548
          ],
          [
            0.050246,
            38.665336
          ],
          [
            0.050424,
            38.665035
          ],
          [
            0.050699,
            38.664534
          ],
          [
            0.050683,
            38.664387
          ],
          [
            0.05062,
            38.664202
          ],
          [
            0.050604,
            38.664177
          ],
          [
            0.050566,
            38.664094
          ],
          [
            0.050532,
            38.66386
          ],
          [
            0.05046,
            38.663654
          ],
          [
            0.050383,
            38.663504
          ],
          [
            0.049771,
            38.663374
          ],
          [
            0.048531,
            38.662359
          ],
          [
            0.048305,
            38.66216
          ],
          [
            0.047968,
            38.661906
          ],
          [
            0.047844,
            38.66183
          ],
          [
            0.047714,
            38.661751
          ],
          [
            0.047639,
            38.661728
          ],
          [
            0.047548,
            38.661752
          ],
          [
            0.047286,
            38.661822
          ],
          [
            0.046798,
            38.661852
          ],
          [
            0.046514,
            38.661908
          ],
          [
            0.046313,
            38.661754
          ],
          [
            0.0462,
            38.661669
          ],
          [
            0.04584,
            38.661672
          ],
          [
            0.045728,
            38.661684
          ],
          [
            0.045575,
            38.661738
          ],
          [
            0.045422,
            38.661745
          ],
          [
            0.045168,
            38.661772
          ],
          [
            0.045043,
            38.661856
          ],
          [
            0.044592,
            38.661948
          ],
          [
            0.044231,
            38.661639
          ],
          [
            0.044083,
            38.661589
          ],
          [
            0.043928,
            38.661396
          ],
          [
            0.043587,
            38.661134
          ],
          [
            0.043436,
            38.660974
          ],
          [
            0.04328,
            38.660898
          ],
          [
            0.043168,
            38.660803
          ],
          [
            0.043067,
            38.660784
          ],
          [
            0.042973,
            38.66071
          ],
          [
            0.042839,
            38.660648
          ],
          [
            0.042736,
            38.6606
          ],
          [
            0.042689,
            38.660578
          ],
          [
            0.042604,
            38.660539
          ],
          [
            0.042504,
            38.660493
          ],
          [
            0.042435,
            38.66046
          ],
          [
            0.042175,
            38.660335
          ],
          [
            0.042033,
            38.660017
          ],
          [
            0.041858,
            38.65988
          ],
          [
            0.041494,
            38.659999
          ],
          [
            0.041285,
            38.659982
          ],
          [
            0.040988,
            38.659788
          ],
          [
            0.040852,
            38.659564
          ],
          [
            0.040913,
            38.659426
          ],
          [
            0.041092,
            38.658297
          ],
          [
            0.041121,
            38.65824
          ],
          [
            0.041201,
            38.65795
          ],
          [
            0.041232,
            38.657848
          ],
          [
            0.041304,
            38.657739
          ],
          [
            0.041342,
            38.657631
          ],
          [
            0.041481,
            38.657505
          ],
          [
            0.041546,
            38.657405
          ],
          [
            0.041666,
            38.657273
          ],
          [
            0.041729,
            38.65716
          ],
          [
            0.041901,
            38.656914
          ],
          [
            0.041938,
            38.656848
          ],
          [
            0.041921,
            38.656793
          ],
          [
            0.041792,
            38.656667
          ],
          [
            0.041756,
            38.656603
          ],
          [
            0.041769,
            38.656512
          ],
          [
            0.041832,
            38.656331
          ],
          [
            0.041867,
            38.656263
          ],
          [
            0.041927,
            38.656205
          ],
          [
            0.041991,
            38.656136
          ],
          [
            0.042034,
            38.656036
          ],
          [
            0.042204,
            38.655729
          ],
          [
            0.042364,
            38.655433
          ],
          [
            0.04247,
            38.655213
          ],
          [
            0.04249,
            38.655084
          ],
          [
            0.042522,
            38.654905
          ],
          [
            0.042584,
            38.654998
          ],
          [
            0.042696,
            38.655112
          ],
          [
            0.042797,
            38.65519
          ],
          [
            0.042912,
            38.655245
          ],
          [
            0.043034,
            38.655276
          ],
          [
            0.043496,
            38.65533
          ],
          [
            0.043592,
            38.655315
          ],
          [
            0.043791,
            38.655207
          ],
          [
            0.044209,
            38.654962
          ],
          [
            0.044279,
            38.65492
          ],
          [
            0.044347,
            38.654912
          ],
          [
            0.044407,
            38.654921
          ],
          [
            0.044574,
            38.655024
          ],
          [
            0.044752,
            38.655107
          ],
          [
            0.044836,
            38.655195
          ],
          [
            0.044947,
            38.655347
          ],
          [
            0.045043,
            38.655374
          ],
          [
            0.045195,
            38.655351
          ],
          [
            0.045281,
            38.655321
          ],
          [
            0.045396,
            38.655247
          ],
          [
            0.04552,
            38.65513
          ],
          [
            0.045642,
            38.654988
          ],
          [
            0.045769,
            38.654796
          ],
          [
            0.045849,
            38.654611
          ],
          [
            0.045811,
            38.654427
          ],
          [
            0.045887,
            38.654277
          ],
          [
            0.045939,
            38.654127
          ],
          [
            0.046024,
            38.654011
          ],
          [
            0.046135,
            38.65392
          ],
          [
            0.046221,
            38.653886
          ],
          [
            0.046295,
            38.653873
          ],
          [
            0.046413,
            38.653891
          ],
          [
            0.04657,
            38.653971
          ],
          [
            0.046701,
            38.654035
          ],
          [
            0.046804,
            38.654087
          ],
          [
            0.046889,
            38.654217
          ],
          [
            0.046923,
            38.654325
          ],
          [
            0.046963,
            38.654857
          ],
          [
            0.047052,
            38.655168
          ],
          [
            0.047137,
            38.655346
          ],
          [
            0.0471076,
            38.6551804
          ],
          [
            0.0470517,
            38.6550347
          ],
          [
            0.047016,
            38.6548899
          ],
          [
            0.0469972,
            38.6547726
          ],
          [
            0.0469905,
            38.6546636
          ],
          [
            0.0469811,
            38.6545045
          ],
          [
            0.046977,
            38.6543845
          ],
          [
            0.0469689,
            38.6542882
          ],
          [
            0.0469485,
            38.6542054
          ],
          [
            0.0469235,
            38.6541437
          ],
          [
            0.0468632,
            38.6540855
          ],
          [
            0.046791,
            38.6540406
          ],
          [
            0.046707,
            38.653992
          ],
          [
            0.0465747,
            38.6539271
          ],
          [
            0.0465007,
            38.653888
          ],
          [
            0.0464621,
            38.6538425
          ],
          [
            0.0464256,
            38.6538403
          ],
          [
            0.0463552,
            38.6538357
          ],
          [
            0.0462898,
            38.6538468
          ],
          [
            0.0462395,
            38.6538666
          ],
          [
            0.0461604,
            38.6539045
          ],
          [
            0.0460899,
            38.6539548
          ],
          [
            0.0460222,
            38.6540253
          ],
          [
            0.0459969,
            38.6540633
          ],
          [
            0.045967,
            38.6541333
          ],
          [
            0.0459514,
            38.6541888
          ],
          [
            0.0459315,
            38.6542576
          ],
          [
            0.0459137,
            38.6542965
          ],
          [
            0.0458871,
            38.6543433
          ],
          [
            0.045875,
            38.654397
          ],
          [
            0.0458722,
            38.6544621
          ],
          [
            0.0458793,
            38.6545162
          ],
          [
            0.0458864,
            38.6545677
          ],
          [
            0.0458767,
            38.6546276
          ],
          [
            0.0458496,
            38.6546944
          ],
          [
            0.045795,
            38.6547984
          ],
          [
            0.045758,
            38.6548584
          ],
          [
            0.0457083,
            38.6549327
          ],
          [
            0.0456471,
            38.6550049
          ],
          [
            0.0455569,
            38.6551046
          ],
          [
            0.0454885,
            38.6551705
          ],
          [
            0.0454247,
            38.6552282
          ],
          [
            0.0453544,
            38.6552795
          ],
          [
            0.0452827,
            38.6553138
          ],
          [
            0.0452137,
            38.655334
          ],
          [
            0.0451484,
            38.6553439
          ],
          [
            0.04508,
            38.655352
          ],
          [
            0.0450228,
            38.6553395
          ],
          [
            0.0449689,
            38.6553114
          ],
          [
            0.0449433,
            38.6552692
          ],
          [
            0.0448964,
            38.6551959
          ],
          [
            0.0448345,
            38.655112
          ],
          [
            0.0447899,
            38.655086
          ],
          [
            0.0447425,
            38.6550638
          ],
          [
            0.0446941,
            38.655038
          ],
          [
            0.0446419,
            38.6550151
          ],
          [
            0.044555,
            38.6549616
          ],
          [
            0.0444639,
            38.6549091
          ],
          [
            0.044407,
            38.6548875
          ],
          [
            0.0443599,
            38.654883
          ],
          [
            0.0443238,
            38.6548963
          ],
          [
            0.0442804,
            38.6549173
          ],
          [
            0.0440063,
            38.6550782
          ],
          [
            0.0437126,
            38.6552498
          ],
          [
            0.0436551,
            38.6552803
          ],
          [
            0.0436013,
            38.6552958
          ],
          [
            0.0435382,
            38.6553053
          ],
          [
            0.0434536,
            38.6552966
          ],
          [
            0.04329,
            38.6552791
          ],
          [
            0.0431666,
            38.6552635
          ],
          [
            0.0430736,
            38.6552503
          ],
          [
            0.042984,
            38.6552286
          ],
          [
            0.0428926,
            38.6551953
          ],
          [
            0.0424696,
            38.6553182
          ],
          [
            0.0421871,
            38.6558183
          ],
          [
            0.0421156,
            38.6559675
          ],
          [
            0.0420673,
            38.656023
          ],
          [
            0.0420405,
            38.6560503
          ],
          [
            0.0420322,
            38.6560676
          ],
          [
            0.0417788,
            38.6562642
          ],
          [
            0.0417204,
            38.6563216
          ],
          [
            0.0412387,
            38.6567213
          ],
          [
            0.0410124,
            38.6568963
          ],
          [
            0.0407953,
            38.6570701
          ],
          [
            0.0407373,
            38.6571058
          ],
          [
            0.0406823,
            38.6571339
          ],
          [
            0.0405915,
            38.6571803
          ],
          [
            0.0404539,
            38.6572542
          ],
          [
            0.0401634,
            38.6573993
          ],
          [
            0.0400711,
            38.6574418
          ],
          [
            0.0399747,
            38.6574742
          ],
          [
            0.0398821,
            38.6575159
          ],
          [
            0.0398255,
            38.6575435
          ],
          [
            0.039751,
            38.6575826
          ],
          [
            0.0396902,
            38.6576092
          ],
          [
            0.0396254,
            38.6576332
          ],
          [
            0.0395691,
            38.6576521
          ],
          [
            0.0395137,
            38.6576625
          ],
          [
            0.0394115,
            38.657689
          ],
          [
            0.039355,
            38.6577082
          ],
          [
            0.0392763,
            38.6577196
          ],
          [
            0.0392118,
            38.6577291
          ],
          [
            0.0391565,
            38.657728
          ],
          [
            0.0390928,
            38.6577099
          ],
          [
            0.0390184,
            38.6576932
          ],
          [
            0.0389189,
            38.6576775
          ],
          [
            0.0388836,
            38.6576769
          ],
          [
            0.038854,
            38.6576775
          ],
          [
            0.0387478,
            38.657702
          ],
          [
            0.0386814,
            38.6577452
          ],
          [
            0.0386012,
            38.6577893
          ],
          [
            0.0385772,
            38.6578156
          ],
          [
            0.0385926,
            38.6578528
          ],
          [
            0.0386358,
            38.6579084
          ],
          [
            0.0387788,
            38.6581329
          ],
          [
            0.0388056,
            38.6581673
          ],
          [
            0.0388117,
            38.6581968
          ],
          [
            0.0387927,
            38.6582184
          ],
          [
            0.0387766,
            38.6582319
          ],
          [
            0.0387328,
            38.6582368
          ],
          [
            0.0386383,
            38.6582302
          ],
          [
            0.0385289,
            38.6582352
          ],
          [
            0.0382598,
            38.6582665
          ],
          [
            0.0382025,
            38.6582749
          ],
          [
            0.0380684,
            38.6583084
          ],
          [
            0.0379236,
            38.658455
          ],
          [
            0.0378163,
            38.6586058
          ],
          [
            0.0377519,
            38.6588362
          ],
          [
            0.0377305,
            38.6590917
          ],
          [
            0.0376917,
            38.6593999
          ],
          [
            0.0376296,
            38.6595584
          ],
          [
            0.03749,
            38.6597817
          ],
          [
            0.0373147,
            38.6600144
          ],
          [
            0.0371103,
            38.660375
          ],
          [
            0.0370152,
            38.6604668
          ],
          [
            0.0368644,
            38.6604911
          ],
          [
            0.0367273,
            38.6604741
          ],
          [
            0.0365694,
            38.6604565
          ],
          [
            0.036283,
            38.660433
          ],
          [
            0.0359143,
            38.6604071
          ],
          [
            0.0351663,
            38.6601728
          ],
          [
            0.0349571,
            38.6602667
          ],
          [
            0.034808,
            38.6603762
          ],
          [
            0.0347224,
            38.6604742
          ],
          [
            0.0346725,
            38.6605519
          ],
          [
            0.0341451,
            38.6605618
          ],
          [
            0.034082,
            38.6605673
          ],
          [
            0.034044,
            38.6606126
          ],
          [
            0.03402,
            38.66067
          ],
          [
            0.033997,
            38.660749
          ],
          [
            0.033986,
            38.661585
          ],
          [
            0.0339643,
            38.6616577
          ],
          [
            0.0338406,
            38.6617665
          ],
          [
            0.033807,
            38.661782
          ],
          [
            0.0332889,
            38.6619243
          ],
          [
            0.033082,
            38.662007
          ],
          [
            0.032778,
            38.662197
          ],
          [
            0.032677,
            38.662238
          ],
          [
            0.032535,
            38.66227
          ],
          [
            0.0323888,
            38.6622758
          ],
          [
            0.0322316,
            38.6622541
          ],
          [
            0.032134,
            38.662334
          ],
          [
            0.032113,
            38.662403
          ],
          [
            0.032132,
            38.662548
          ],
          [
            0.032197,
            38.662766
          ],
          [
            0.032171,
            38.662873
          ],
          [
            0.032108,
            38.662917
          ],
          [
            0.032003,
            38.662919
          ],
          [
            0.031923,
            38.662885
          ],
          [
            0.03167,
            38.662716
          ],
          [
            0.031539,
            38.66267
          ],
          [
            0.031324,
            38.662641
          ],
          [
            0.0311189,
            38.6626109
          ],
          [
            0.0311241,
            38.6626954
          ],
          [
            0.0311391,
            38.6627608
          ],
          [
            0.0310742,
            38.6628176
          ],
          [
            0.0311307,
            38.6628875
          ],
          [
            0.0311179,
            38.6629433
          ],
          [
            0.0308447,
            38.6630074
          ],
          [
            0.0307013,
            38.6629466
          ],
          [
            0.0306039,
            38.6629319
          ],
          [
            0.0305912,
            38.6629418
          ],
          [
            0.0306058,
            38.6630144
          ],
          [
            0.0305288,
            38.6630245
          ],
          [
            0.0303906,
            38.6629859
          ],
          [
            0.0303441,
            38.6630262
          ],
          [
            0.0302799,
            38.6630119
          ],
          [
            0.0297993,
            38.6629203
          ],
          [
            0.0297302,
            38.6629342
          ],
          [
            0.0296866,
            38.6629661
          ],
          [
            0.0296185,
            38.6629519
          ],
          [
            0.0295299,
            38.6628086
          ],
          [
            0.0294949,
            38.662704
          ],
          [
            0.0292655,
            38.6624161
          ],
          [
            0.0291921,
            38.6623755
          ],
          [
            0.0291187,
            38.6623373
          ],
          [
            0.0289923,
            38.6622744
          ],
          [
            0.0288241,
            38.6621279
          ],
          [
            0.0290816,
            38.6618539
          ],
          [
            0.0293722,
            38.661824
          ],
          [
            0.0296005,
            38.6618005
          ],
          [
            0.0296877,
            38.6617413
          ],
          [
            0.0299216,
            38.6615556
          ],
          [
            0.0299777,
            38.6614921
          ],
          [
            0.030128,
            38.661368
          ],
          [
            0.0300393,
            38.6613471
          ],
          [
            0.0297934,
            38.6614142
          ],
          [
            0.0297505,
            38.661341
          ],
          [
            0.0296451,
            38.6613228
          ],
          [
            0.0296802,
            38.6612252
          ],
          [
            0.0296646,
            38.6611186
          ],
          [
            0.0296906,
            38.661042
          ],
          [
            0.0297317,
            38.6609048
          ],
          [
            0.029688,
            38.6608565
          ],
          [
            0.0296373,
            38.6608047
          ],
          [
            0.0295046,
            38.6608352
          ],
          [
            0.029368,
            38.6607955
          ],
          [
            0.0292392,
            38.6608291
          ],
          [
            0.0291338,
            38.6607255
          ],
          [
            0.029012,
            38.6607128
          ],
          [
            0.0289483,
            38.6605462
          ],
          [
            0.0288951,
            38.6605282
          ],
          [
            0.0288671,
            38.660609
          ],
          [
            0.0287325,
            38.6605869
          ],
          [
            0.0286011,
            38.660552
          ],
          [
            0.028383,
            38.6605424
          ],
          [
            0.0280578,
            38.6605284
          ],
          [
            0.0277026,
            38.6604052
          ],
          [
            0.0274891,
            38.6603442
          ],
          [
            0.0272332,
            38.660155
          ],
          [
            0.0270499,
            38.6597713
          ],
          [
            0.0270768,
            38.6596717
          ],
          [
            0.0269333,
            38.6596397
          ],
          [
            0.0268722,
            38.6595425
          ],
          [
            0.0265781,
            38.6594543
          ],
          [
            0.0263999,
            38.659432
          ],
          [
            0.026339,
            38.6593908
          ],
          [
            0.0263217,
            38.6593127
          ],
          [
            0.026308,
            38.6590854
          ],
          [
            0.0256529,
            38.6591151
          ],
          [
            0.0256054,
            38.6591083
          ],
          [
            0.0255557,
            38.6590982
          ],
          [
            0.0255147,
            38.6590796
          ],
          [
            0.0254697,
            38.659059
          ],
          [
            0.0254455,
            38.6590307
          ],
          [
            0.0254395,
            38.6589816
          ],
          [
            0.0253851,
            38.6587017
          ],
          [
            0.0254696,
            38.658196
          ],
          [
            0.0254049,
            38.6577977
          ],
          [
            0.0253562,
            38.6577127
          ],
          [
            0.0255239,
            38.6576162
          ],
          [
            0.0256902,
            38.6575408
          ],
          [
            0.0258726,
            38.6575073
          ],
          [
            0.026055,
            38.6574906
          ],
          [
            0.0261784,
            38.6574403
          ],
          [
            0.0262695,
            38.6573439
          ],
          [
            0.0262803,
            38.6572183
          ],
          [
            0.026232,
            38.6570507
          ],
          [
            0.0262427,
            38.6569083
          ],
          [
            0.0261891,
            38.6567407
          ],
          [
            0.0261784,
            38.6565731
          ],
          [
            0.0261891,
            38.6564642
          ],
          [
            0.0261802,
            38.6563598
          ],
          [
            0.0261437,
            38.6562134
          ],
          [
            0.0262159,
            38.656083
          ],
          [
            0.0262481,
            38.6559071
          ],
          [
            0.0263232,
            38.6557605
          ],
          [
            0.0264795,
            38.6556676
          ],
          [
            0.026542,
            38.6555495
          ],
          [
            0.0266548,
            38.655424
          ],
          [
            0.0266451,
            38.6552578
          ],
          [
            0.0267363,
            38.6551363
          ],
          [
            0.0267784,
            38.6550533
          ],
          [
            0.0267132,
            38.6549249
          ],
          [
            0.0265909,
            38.6550404
          ],
          [
            0.0265376,
            38.6549089
          ],
          [
            0.026421,
            38.655013
          ],
          [
            0.026342,
            38.654939
          ],
          [
            0.026155,
            38.65463
          ],
          [
            0.026158,
            38.654552
          ],
          [
            0.026211,
            38.654424
          ],
          [
            0.026351,
            38.654228
          ],
          [
            0.026377,
            38.654157
          ],
          [
            0.0263224,
            38.6541018
          ],
          [
            0.0261684,
            38.6539965
          ],
          [
            0.0261839,
            38.6538592
          ],
          [
            0.0259691,
            38.6537111
          ],
          [
            0.0258378,
            38.6535861
          ],
          [
            0.0257804,
            38.6534971
          ],
          [
            0.0257285,
            38.653444
          ],
          [
            0.0257802,
            38.6533921
          ],
          [
            0.0258004,
            38.6533727
          ],
          [
            0.025791,
            38.653322
          ],
          [
            0.025751,
            38.65326
          ],
          [
            0.025664,
            38.653179
          ],
          [
            0.025583,
            38.653136
          ],
          [
            0.025354,
            38.6531
          ],
          [
            0.0251756,
            38.6530174
          ],
          [
            0.0251721,
            38.6530158
          ],
          [
            0.0249529,
            38.6529819
          ],
          [
            0.0247963,
            38.6530075
          ],
          [
            0.0247107,
            38.6530588
          ],
          [
            0.024431,
            38.65299
          ],
          [
            0.024259,
            38.652972
          ],
          [
            0.0240388,
            38.6530603
          ],
          [
            0.023805,
            38.653031
          ],
          [
            0.0237415,
            38.6530829
          ],
          [
            0.023564,
            38.653067
          ],
          [
            0.023339,
            38.6530766
          ],
          [
            0.022958,
            38.652943
          ],
          [
            0.0229972,
            38.6530041
          ],
          [
            0.0231569,
            38.653205
          ],
          [
            0.022835,
            38.6535046
          ],
          [
            0.0227652,
            38.6536805
          ],
          [
            0.0228457,
            38.6538837
          ],
          [
            0.0227572,
            38.6539528
          ],
          [
            0.0228457,
            38.6538837
          ],
          [
            0.0227652,
            38.6536805
          ],
          [
            0.022835,
            38.6535046
          ],
          [
            0.0231569,
            38.653205
          ],
          [
            0.0229972,
            38.6530041
          ],
          [
            0.022958,
            38.652943
          ],
          [
            0.0227397,
            38.6526019
          ],
          [
            0.02267,
            38.6522751
          ],
          [
            0.0226938,
            38.6520479
          ],
          [
            0.0227055,
            38.6519369
          ],
          [
            0.0227108,
            38.651807
          ],
          [
            0.0227,
            38.6516727
          ],
          [
            0.022582,
            38.651392
          ],
          [
            0.0224211,
            38.6510862
          ],
          [
            0.0223353,
            38.6508767
          ],
          [
            0.0222978,
            38.6506549
          ],
          [
            0.0222602,
            38.6505732
          ],
          [
            0.0221932,
            38.6505041
          ],
          [
            0.0221154,
            38.6504454
          ],
          [
            0.0220188,
            38.6503949
          ],
          [
            0.0219437,
            38.6503574
          ],
          [
            0.0218472,
            38.6503281
          ],
          [
            0.021758,
            38.6503019
          ],
          [
            0.0214555,
            38.6502506
          ],
          [
            0.0213053,
            38.6502339
          ],
          [
            0.0212176,
            38.6502041
          ],
          [
            0.0211769,
            38.6502628
          ],
          [
            0.0211072,
            38.6503089
          ],
          [
            0.0210213,
            38.6503278
          ],
          [
            0.0209221,
            38.6503508
          ],
          [
            0.0208121,
            38.6503843
          ],
          [
            0.0207156,
            38.6504199
          ],
          [
            0.0206706,
            38.6504359
          ],
          [
            0.0205922,
            38.6504639
          ],
          [
            0.0204822,
            38.6505268
          ],
          [
            0.0204795,
            38.6505854
          ],
          [
            0.0204232,
            38.6506147
          ],
          [
            0.0203052,
            38.6506629
          ],
          [
            0.0201791,
            38.6507425
          ],
          [
            0.0201309,
            38.650776
          ],
          [
            0.020104,
            38.6508305
          ],
          [
            0.0200665,
            38.6508284
          ],
          [
            0.0200289,
            38.6508661
          ],
          [
            0.0199646,
            38.6508577
          ],
          [
            0.0198787,
            38.6508745
          ],
          [
            0.019809,
            38.6509143
          ],
          [
            0.01975,
            38.6509394
          ],
          [
            0.0196722,
            38.6509604
          ],
          [
            0.019581,
            38.6510253
          ],
          [
            0.0194818,
            38.6510756
          ],
          [
            0.0194147,
            38.6511489
          ],
          [
            0.0193772,
            38.6512683
          ],
          [
            0.0193423,
            38.6513353
          ],
          [
            0.0193235,
            38.6514212
          ],
          [
            0.0193188,
            38.6514704
          ],
          [
            0.0191132,
            38.6514051
          ],
          [
            0.018912,
            38.6513589
          ],
          [
            0.0187818,
            38.6512018
          ],
          [
            0.0184919,
            38.6510308
          ],
          [
            0.0184682,
            38.650772
          ],
          [
            0.0185096,
            38.650139
          ],
          [
            0.0184623,
            38.6497231
          ],
          [
            0.0187522,
            38.6489837
          ],
          [
            0.0190007,
            38.6487203
          ],
          [
            0.0189652,
            38.6484246
          ],
          [
            0.0188469,
            38.6482952
          ],
          [
            0.0184978,
            38.6481611
          ],
          [
            0.0181395,
            38.6479501
          ],
          [
            0.0181475,
            38.6478935
          ],
          [
            0.018118,
            38.6478433
          ],
          [
            0.0181475,
            38.6478935
          ],
          [
            0.0181395,
            38.6479501
          ],
          [
            0.0181019,
            38.6480255
          ],
          [
            0.0180751,
            38.6480988
          ],
          [
            0.018118,
            38.6481784
          ],
          [
            0.0181663,
            38.6483104
          ],
          [
            0.018118,
            38.6483628
          ],
          [
            0.0180054,
            38.6484403
          ],
          [
            0.0180698,
            38.6486288
          ],
          [
            0.0180349,
            38.6487273
          ],
          [
            0.017992,
            38.6488509
          ],
          [
            0.0179383,
            38.648943
          ],
          [
            0.0179249,
            38.6491043
          ],
          [
            0.0178793,
            38.6492698
          ],
          [
            0.0178552,
            38.6494039
          ],
          [
            0.0177962,
            38.6495128
          ],
          [
            0.0177425,
            38.6497348
          ],
          [
            0.0177693,
            38.6498794
          ],
          [
            0.0178069,
            38.6499736
          ],
          [
            0.0178579,
            38.6500868
          ],
          [
            0.017933,
            38.6501936
          ],
          [
            0.0180242,
            38.65029
          ],
          [
            0.0180429,
            38.6503779
          ],
          [
            0.0180724,
            38.6505455
          ],
          [
            0.0180659,
            38.650815
          ],
          [
            0.0180684,
            38.6508849
          ],
          [
            0.0180961,
            38.6509651
          ],
          [
            0.0181604,
            38.6511068
          ],
          [
            0.0181449,
            38.6511988
          ],
          [
            0.0178221,
            38.651556
          ],
          [
            0.0179207,
            38.6516681
          ],
          [
            0.0181001,
            38.6524876
          ],
          [
            0.0179925,
            38.6526346
          ],
          [
            0.0176786,
            38.6525086
          ],
          [
            0.0174454,
            38.6527957
          ],
          [
            0.0172302,
            38.6527537
          ],
          [
            0.0169701,
            38.6527957
          ],
          [
            0.0168535,
            38.6524385
          ],
          [
            0.0166113,
            38.6521024
          ],
          [
            0.0164051,
            38.6516751
          ],
          [
            0.0162616,
            38.6511708
          ],
          [
            0.0163243,
            38.6507996
          ],
          [
            0.0162191,
            38.6505438
          ],
          [
            0.016211,
            38.6505029
          ],
          [
            0.0161789,
            38.6504506
          ],
          [
            0.0161467,
            38.6504254
          ],
          [
            0.0161172,
            38.6503762
          ],
          [
            0.0160877,
            38.6503238
          ],
          [
            0.0160622,
            38.6502945
          ],
          [
            0.0160313,
            38.6502673
          ],
          [
            0.0159884,
            38.6502484
          ],
          [
            0.015971,
            38.650216
          ],
          [
            0.01592,
            38.6501667
          ],
          [
            0.0158771,
            38.650128
          ],
          [
            0.0158181,
            38.6500913
          ],
          [
            0.0157752,
            38.6500526
          ],
          [
            0.015739,
            38.6500411
          ],
          [
            0.0157108,
            38.6499876
          ],
          [
            0.0156934,
            38.6499311
          ],
          [
            0.0156786,
            38.6498515
          ],
          [
            0.0156639,
            38.6497645
          ],
          [
            0.0156572,
            38.6497122
          ],
          [
            0.0156531,
            38.649642
          ],
          [
            0.0156384,
            38.6495991
          ],
          [
            0.0156143,
            38.6495593
          ],
          [
            0.0156129,
            38.6495163
          ],
          [
            0.0155888,
            38.6494692
          ],
          [
            0.0155794,
            38.649421
          ],
          [
            0.0155512,
            38.6493969
          ],
          [
            0.0155056,
            38.6493707
          ],
          [
            0.015448,
            38.6493487
          ],
          [
            0.0153997,
            38.6493257
          ],
          [
            0.0153635,
            38.6492943
          ],
          [
            0.0152535,
            38.6492231
          ],
          [
            0.0151744,
            38.6491843
          ],
          [
            0.0151261,
            38.6491571
          ],
          [
            0.0150497,
            38.6491571
          ],
          [
            0.0149973,
            38.6491256
          ],
          [
            0.0149222,
            38.6490754
          ],
          [
            0.0148404,
            38.6490628
          ],
          [
            0.0147814,
            38.6490932
          ],
          [
            0.0147278,
            38.6491152
          ],
          [
            0.0146916,
            38.6491005
          ],
          [
            0.014642,
            38.6490618
          ],
          [
            0.0146165,
            38.6490366
          ],
          [
            0.0145695,
            38.6490314
          ],
          [
            0.0145414,
            38.6490586
          ],
          [
            0.0145119,
            38.6490534
          ],
          [
            0.0144555,
            38.6490125
          ],
          [
            0.0143952,
            38.6489769
          ],
          [
            0.0143456,
            38.6489623
          ],
          [
            0.0142705,
            38.648957
          ],
          [
            0.0141605,
            38.648957
          ],
          [
            0.0141002,
            38.648957
          ],
          [
            0.0140559,
            38.6489633
          ],
          [
            0.0139593,
            38.6489654
          ],
          [
            0.0139204,
            38.6489602
          ],
          [
            0.0138681,
            38.648956
          ],
          [
            0.0138145,
            38.6489685
          ],
          [
            0.0137917,
            38.6490167
          ],
          [
            0.013781,
            38.6490722
          ],
          [
            0.0137984,
            38.6491047
          ],
          [
            0.0137582,
            38.6491162
          ],
          [
            0.0137005,
            38.6491288
          ],
          [
            0.0136562,
            38.6491602
          ],
          [
            0.0136294,
            38.6491885
          ],
          [
            0.0136147,
            38.6492168
          ],
          [
            0.0135838,
            38.6492293
          ],
          [
            0.013547,
            38.6492202
          ],
          [
            0.0134484,
            38.6491895
          ],
          [
            0.0134484,
            38.6492597
          ],
          [
            0.0134122,
            38.6495582
          ],
          [
            0.0133867,
            38.6497059
          ],
          [
            0.0133585,
            38.649818
          ],
          [
            0.0132995,
            38.6498661
          ],
          [
            0.0131748,
            38.6498829
          ],
          [
            0.0131104,
            38.6498965
          ],
          [
            0.013057,
            38.6499165
          ],
          [
            0.0129991,
            38.6499594
          ],
          [
            0.0129604,
            38.6500254
          ],
          [
            0.0129468,
            38.6501248
          ],
          [
            0.0129213,
            38.6501961
          ],
          [
            0.0127617,
            38.6502662
          ],
          [
            0.0126142,
            38.6503605
          ],
          [
            0.0124493,
            38.6505249
          ],
          [
            0.0123259,
            38.6506591
          ],
          [
            0.0121824,
            38.6508014
          ],
          [
            0.0121126,
            38.6508643
          ],
          [
            0.0120255,
            38.6508905
          ],
          [
            0.0119168,
            38.6508978
          ],
          [
            0.0118176,
            38.65088
          ],
          [
            0.0116969,
            38.6508287
          ],
          [
            0.0116137,
            38.6508119
          ],
          [
            0.0115225,
            38.6508297
          ],
          [
            0.0114648,
            38.6508527
          ],
          [
            0.0114461,
            38.6508601
          ],
          [
            0.0113643,
            38.6508915
          ],
          [
            0.0112516,
            38.6509334
          ],
          [
            0.0111558,
            38.6509396
          ],
          [
            0.0110591,
            38.6509321
          ],
          [
            0.010952,
            38.6509019
          ],
          [
            0.0108339,
            38.6508606
          ],
          [
            0.0108516,
            38.65082
          ],
          [
            0.0106623,
            38.6505043
          ],
          [
            0.0107188,
            38.6504819
          ],
          [
            0.0106637,
            38.650258
          ],
          [
            0.0104883,
            38.6501133
          ],
          [
            0.0106052,
            38.6498925
          ],
          [
            0.0107125,
            38.6499058
          ],
          [
            0.0107695,
            38.6498903
          ],
          [
            0.01081,
            38.649527
          ],
          [
            0.0111025,
            38.6491996
          ],
          [
            0.011044,
            38.6489788
          ],
          [
            0.011161,
            38.6488494
          ],
          [
            0.0111303,
            38.6487728
          ],
          [
            0.0109094,
            38.6487215
          ],
          [
            0.010693,
            38.6484839
          ],
          [
            0.010615,
            38.6483024
          ],
          [
            0.0104364,
            38.6482106
          ],
          [
            0.0104224,
            38.6481478
          ],
          [
            0.0104681,
            38.6480106
          ],
          [
            0.0104158,
            38.6479237
          ],
          [
            0.0104883,
            38.6476768
          ],
          [
            0.0104477,
            38.6476713
          ],
          [
            0.0102427,
            38.6480702
          ],
          [
            0.0101556,
            38.6480731
          ],
          [
            0.0102169,
            38.647948
          ],
          [
            0.010276,
            38.6477531
          ],
          [
            0.0102974,
            38.6476002
          ],
          [
            0.0103135,
            38.6474913
          ],
          [
            0.0103296,
            38.6474368
          ],
          [
            0.0103591,
            38.6473782
          ],
          [
            0.010406,
            38.6473206
          ],
          [
            0.0104423,
            38.6472619
          ],
          [
            0.0104691,
            38.6472001
          ],
          [
            0.0104798,
            38.6471425
          ],
          [
            0.0105053,
            38.6470514
          ],
          [
            0.0105388,
            38.6469948
          ],
          [
            0.0106032,
            38.6469487
          ],
          [
            0.0107306,
            38.6468943
          ],
          [
            0.0107883,
            38.6468241
          ],
          [
            0.0108151,
            38.6467612
          ],
          [
            0.0108231,
            38.6466932
          ],
          [
            0.0108204,
            38.6466209
          ],
          [
            0.0108003,
            38.6465528
          ],
          [
            0.010748,
            38.6464481
          ],
          [
            0.01074,
            38.6464219
          ],
          [
            0.0107413,
            38.6463915
          ],
          [
            0.0107534,
            38.6463622
          ],
          [
            0.0107708,
            38.6463423
          ],
          [
            0.0110319,
            38.6461714
          ],
          [
            0.0111204,
            38.6461054
          ],
          [
            0.0111499,
            38.6460844
          ],
          [
            0.0111915,
            38.6460708
          ],
          [
            0.0112438,
            38.6460541
          ],
          [
            0.0113095,
            38.6460488
          ],
          [
            0.0113471,
            38.6460321
          ],
          [
            0.0113766,
            38.6460059
          ],
          [
            0.0114208,
            38.6459462
          ],
          [
            0.0114373,
            38.6458863
          ],
          [
            0.0114248,
            38.6455995
          ],
          [
            0.0114302,
            38.6455335
          ],
          [
            0.011461,
            38.6454885
          ],
          [
            0.0115093,
            38.6454612
          ],
          [
            0.0115737,
            38.6454518
          ],
          [
            0.0116877,
            38.6454623
          ],
          [
            0.011744,
            38.6454549
          ],
          [
            0.0118138,
            38.6454319
          ],
          [
            0.0118714,
            38.6453869
          ],
          [
            0.0119237,
            38.6453156
          ],
          [
            0.0119787,
            38.6452685
          ],
          [
            0.011649,
            38.644657
          ],
          [
            0.011439,
            38.64451
          ],
          [
            0.01136,
            38.644001
          ],
          [
            0.011076,
            38.643677
          ],
          [
            0.011076,
            38.643677
          ],
          [
            0.011183,
            38.6435
          ],
          [
            0.011257,
            38.64341
          ],
          [
            0.011374,
            38.643352
          ],
          [
            0.011608,
            38.643337
          ],
          [
            0.011684,
            38.643425
          ],
          [
            0.011875,
            38.643567
          ],
          [
            0.011999,
            38.643633
          ],
          [
            0.012161,
            38.643669
          ],
          [
            0.01225,
            38.64362
          ],
          [
            0.01236,
            38.643548
          ],
          [
            0.012518,
            38.64348
          ],
          [
            0.012673,
            38.643024
          ],
          [
            0.012817,
            38.642934
          ],
          [
            0.013067,
            38.642818
          ],
          [
            0.013292,
            38.642741
          ],
          [
            0.013586,
            38.642632
          ],
          [
            0.014199,
            38.642071
          ],
          [
            0.014491,
            38.641998
          ],
          [
            0.014695,
            38.641761
          ],
          [
            0.014831,
            38.641655
          ],
          [
            0.014989,
            38.641404
          ],
          [
            0.0152,
            38.640985
          ],
          [
            0.015494,
            38.640868
          ],
          [
            0.016734,
            38.640754
          ],
          [
            0.017251,
            38.640898
          ],
          [
            0.01804,
            38.641086
          ],
          [
            0.018346,
            38.64091
          ],
          [
            0.018631,
            38.640778
          ],
          [
            0.019181,
            38.640712
          ],
          [
            0.019492,
            38.640582
          ],
          [
            0.019996,
            38.640512
          ],
          [
            0.020206,
            38.640561
          ],
          [
            0.020452,
            38.640527
          ],
          [
            0.020726,
            38.640496
          ],
          [
            0.020665,
            38.640569
          ],
          [
            0.02046,
            38.640753
          ],
          [
            0.020406,
            38.640948
          ],
          [
            0.020468,
            38.640991
          ],
          [
            0.020566,
            38.641024
          ],
          [
            0.020639,
            38.641036
          ],
          [
            0.020788,
            38.641017
          ],
          [
            0.020905,
            38.641008
          ],
          [
            0.021023,
            38.641032
          ],
          [
            0.02128,
            38.641096
          ],
          [
            0.021446,
            38.641146
          ],
          [
            0.021599,
            38.641205
          ],
          [
            0.021668,
            38.641256
          ],
          [
            0.021774,
            38.641348
          ],
          [
            0.021834,
            38.641468
          ],
          [
            0.021841,
            38.6416
          ],
          [
            0.021894,
            38.64163
          ],
          [
            0.022158,
            38.641644
          ],
          [
            0.022335,
            38.641725
          ],
          [
            0.022541,
            38.641799
          ],
          [
            0.022614,
            38.641957
          ],
          [
            0.022577,
            38.642156
          ],
          [
            0.0227,
            38.642253
          ],
          [
            0.023038,
            38.642486
          ],
          [
            0.023163,
            38.642585
          ],
          [
            0.023438,
            38.64276
          ],
          [
            0.023548,
            38.642871
          ],
          [
            0.023746,
            38.64295
          ],
          [
            0.023876,
            38.642998
          ],
          [
            0.024126,
            38.64313
          ],
          [
            0.024167,
            38.643207
          ],
          [
            0.024218,
            38.643255
          ],
          [
            0.024275,
            38.643283
          ],
          [
            0.024337,
            38.6433
          ],
          [
            0.024402,
            38.643314
          ],
          [
            0.024469,
            38.643335
          ],
          [
            0.024534,
            38.643372
          ],
          [
            0.024597,
            38.643433
          ],
          [
            0.024616,
            38.643499
          ],
          [
            0.024662,
            38.643574
          ],
          [
            0.024754,
            38.643895
          ],
          [
            0.024814,
            38.644149
          ],
          [
            0.025,
            38.64429
          ],
          [
            0.025724,
            38.644242
          ],
          [
            0.026207,
            38.644208
          ],
          [
            0.026289,
            38.644294
          ],
          [
            0.026384,
            38.644464
          ],
          [
            0.026564,
            38.644568
          ],
          [
            0.02671,
            38.644812
          ],
          [
            0.026829,
            38.644885
          ],
          [
            0.027148,
            38.644756
          ],
          [
            0.027082,
            38.644636
          ],
          [
            0.027135,
            38.644534
          ],
          [
            0.027302,
            38.64442
          ],
          [
            0.0276,
            38.644336
          ],
          [
            0.027777,
            38.644159
          ],
          [
            0.027945,
            38.644085
          ],
          [
            0.02833,
            38.644007
          ],
          [
            0.028586,
            38.644156
          ],
          [
            0.028835,
            38.644306
          ],
          [
            0.029081,
            38.644454
          ],
          [
            0.029326,
            38.6446
          ],
          [
            0.029573,
            38.644744
          ],
          [
            0.029827,
            38.644884
          ],
          [
            0.030089,
            38.645019
          ],
          [
            0.030363,
            38.645148
          ],
          [
            0.030856,
            38.645756
          ],
          [
            0.031136,
            38.64598
          ],
          [
            0.031395,
            38.646136
          ],
          [
            0.031657,
            38.646201
          ],
          [
            0.031777,
            38.646306
          ],
          [
            0.031917,
            38.646462
          ],
          [
            0.032256,
            38.646674
          ],
          [
            0.032564,
            38.646819
          ],
          [
            0.033209,
            38.647163
          ],
          [
            0.033795,
            38.647502
          ],
          [
            0.034299,
            38.647742
          ],
          [
            0.034587,
            38.648012
          ],
          [
            0.034906,
            38.648423
          ],
          [
            0.035061,
            38.648673
          ],
          [
            0.035109,
            38.648819
          ],
          [
            0.035075,
            38.648996
          ],
          [
            0.035027,
            38.649101
          ],
          [
            0.034965,
            38.649258
          ],
          [
            0.035178,
            38.649386
          ],
          [
            0.035211,
            38.649308
          ],
          [
            0.035334,
            38.649267
          ],
          [
            0.035495,
            38.649237
          ],
          [
            0.035663,
            38.64918
          ],
          [
            0.035829,
            38.649114
          ],
          [
            0.035961,
            38.649081
          ],
          [
            0.036058,
            38.649024
          ],
          [
            0.036161,
            38.649006
          ],
          [
            0.036253,
            38.649019
          ],
          [
            0.036617,
            38.649084
          ],
          [
            0.036727,
            38.649018
          ],
          [
            0.03686,
            38.648903
          ],
          [
            0.03694,
            38.648786
          ],
          [
            0.037031,
            38.648642
          ],
          [
            0.037002,
            38.648526
          ],
          [
            0.037253,
            38.648159
          ],
          [
            0.037645,
            38.648065
          ],
          [
            0.037845,
            38.647992
          ],
          [
            0.038002,
            38.648019
          ],
          [
            0.038106,
            38.648218
          ],
          [
            0.038247,
            38.648156
          ],
          [
            0.038533,
            38.648122
          ],
          [
            0.038996,
            38.648017
          ],
          [
            0.039481,
            38.648
          ],
          [
            0.040176,
            38.647929
          ],
          [
            0.040407,
            38.647884
          ],
          [
            0.040647,
            38.647829
          ],
          [
            0.040875,
            38.647722
          ],
          [
            0.041105,
            38.647575
          ],
          [
            0.041583,
            38.647285
          ],
          [
            0.041836,
            38.647161
          ],
          [
            0.041978,
            38.647131
          ],
          [
            0.042287,
            38.647079
          ],
          [
            0.042545,
            38.647181
          ],
          [
            0.042639,
            38.647332
          ],
          [
            0.042684,
            38.647528
          ],
          [
            0.042725,
            38.647718
          ],
          [
            0.042459,
            38.647808
          ],
          [
            0.042385,
            38.647906
          ],
          [
            0.043329,
            38.648307
          ],
          [
            0.043544,
            38.648583
          ],
          [
            0.043621,
            38.649135
          ],
          [
            0.04372,
            38.649288
          ],
          [
            0.04372,
            38.650187
          ],
          [
            0.043666,
            38.650443
          ],
          [
            0.043572,
            38.650737
          ],
          [
            0.04353,
            38.650976
          ],
          [
            0.043566,
            38.651651
          ],
          [
            0.043511,
            38.651993
          ],
          [
            0.043427,
            38.652395
          ],
          [
            0.043274,
            38.652685
          ],
          [
            0.043104,
            38.653065
          ],
          [
            0.043005,
            38.65335
          ],
          [
            0.042799,
            38.653799
          ],
          [
            0.042697,
            38.654051
          ],
          [
            0.042615,
            38.654573
          ],
          [
            0.042577,
            38.654689
          ],
          [
            0.042524,
            38.654911
          ],
          [
            0.042632,
            38.655059
          ],
          [
            0.04279,
            38.655185
          ],
          [
            0.042928,
            38.655253
          ],
          [
            0.043162,
            38.655295
          ],
          [
            0.043599,
            38.655317
          ],
          [
            0.044221,
            38.654951
          ],
          [
            0.044403,
            38.654917
          ],
          [
            0.044519,
            38.654993
          ],
          [
            0.044659,
            38.655065
          ],
          [
            0.044776,
            38.655127
          ],
          [
            0.044839,
            38.655191
          ],
          [
            0.044888,
            38.655296
          ],
          [
            0.045133,
            38.655365
          ],
          [
            0.045258,
            38.655339
          ],
          [
            0.045421,
            38.655229
          ],
          [
            0.045525,
            38.655122
          ],
          [
            0.045693,
            38.654934
          ],
          [
            0.045843,
            38.654535
          ],
          [
            0.045808,
            38.654416
          ],
          [
            0.045846,
            38.654338
          ],
          [
            0.045901,
            38.654224
          ],
          [
            0.045971,
            38.654069
          ],
          [
            0.04607,
            38.653966
          ],
          [
            0.046145,
            38.653917
          ],
          [
            0.046406,
            38.653891
          ],
          [
            0.046544,
            38.653963
          ],
          [
            0.046682,
            38.654031
          ],
          [
            0.046803,
            38.654097
          ],
          [
            0.046927,
            38.654398
          ],
          [
            0.046973,
            38.654903
          ],
          [
            0.047045,
            38.655152
          ],
          [
            0.047114,
            38.655326
          ],
          [
            0.047228,
            38.655384
          ],
          [
            0.047322,
            38.655459
          ],
          [
            0.047541,
            38.655411
          ],
          [
            0.047673,
            38.655317
          ],
          [
            0.04772,
            38.655234
          ],
          [
            0.047766,
            38.65514
          ],
          [
            0.047807,
            38.655082
          ],
          [
            0.047953,
            38.655064
          ],
          [
            0.048298,
            38.655124
          ],
          [
            0.048626,
            38.655188
          ],
          [
            0.048941,
            38.655256
          ],
          [
            0.049243,
            38.655329
          ],
          [
            0.049535,
            38.655406
          ],
          [
            0.049819,
            38.655487
          ],
          [
            0.050098,
            38.655571
          ],
          [
            0.050373,
            38.655659
          ],
          [
            0.050681,
            38.655723
          ],
          [
            0.05139,
            38.655626
          ],
          [
            0.051694,
            38.655558
          ],
          [
            0.051953,
            38.655474
          ],
          [
            0.05207,
            38.655405
          ],
          [
            0.052363,
            38.655257
          ],
          [
            0.052565,
            38.655121
          ],
          [
            0.052893,
            38.654956
          ],
          [
            0.053144,
            38.65504
          ],
          [
            0.053683,
            38.654891
          ],
          [
            0.053948,
            38.654814
          ],
          [
            0.055144,
            38.654791
          ],
          [
            0.055646,
            38.654625
          ],
          [
            0.056786,
            38.6548
          ],
          [
            0.056968,
            38.654925
          ],
          [
            0.057262,
            38.655779
          ],
          [
            0.057517,
            38.656144
          ],
          [
            0.057781,
            38.656527
          ],
          [
            0.057905,
            38.657257
          ],
          [
            0.058134,
            38.657429
          ],
          [
            0.058222,
            38.657534
          ],
          [
            0.058651,
            38.65781
          ],
          [
            0.058795,
            38.657909
          ],
          [
            0.05905,
            38.657992
          ],
          [
            0.059164,
            38.65805
          ],
          [
            0.059327,
            38.658119
          ],
          [
            0.059437,
            38.658209
          ],
          [
            0.059629,
            38.658344
          ],
          [
            0.059746,
            38.658392
          ],
          [
            0.05981,
            38.658438
          ],
          [
            0.059863,
            38.658494
          ],
          [
            0.059987,
            38.658629
          ],
          [
            0.060027,
            38.658724
          ],
          [
            0.060088,
            38.658889
          ],
          [
            0.060162,
            38.659416
          ],
          [
            0.060304,
            38.659515
          ],
          [
            0.060618,
            38.659685
          ],
          [
            0.060897,
            38.659764
          ],
          [
            0.061101,
            38.659825
          ],
          [
            0.061221,
            38.659975
          ],
          [
            0.061262,
            38.660161
          ],
          [
            0.061345,
            38.660531
          ],
          [
            0.061559,
            38.660651
          ],
          [
            0.061712,
            38.660775
          ],
          [
            0.061875,
            38.660939
          ],
          [
            0.061798,
            38.661235
          ],
          [
            0.061528,
            38.661287
          ],
          [
            0.061437,
            38.661323
          ],
          [
            0.061249,
            38.661269
          ],
          [
            0.061107,
            38.661306
          ],
          [
            0.060988,
            38.661369
          ],
          [
            0.060562,
            38.661628
          ],
          [
            0.060206,
            38.661837
          ],
          [
            0.059993,
            38.661934
          ],
          [
            0.05986,
            38.662023
          ],
          [
            0.059776,
            38.662063
          ],
          [
            0.05969,
            38.662087
          ],
          [
            0.05957,
            38.662109
          ],
          [
            0.059427,
            38.662151
          ],
          [
            0.059367,
            38.662207
          ],
          [
            0.059146,
            38.662303
          ],
          [
            0.058967,
            38.662398
          ],
          [
            0.058681,
            38.662566
          ],
          [
            0.058435,
            38.662764
          ],
          [
            0.058255,
            38.662886
          ],
          [
            0.058125,
            38.662987
          ],
          [
            0.057975,
            38.663268
          ],
          [
            0.057832,
            38.663484
          ],
          [
            0.057703,
            38.663548
          ],
          [
            0.057301,
            38.663812
          ],
          [
            0.057051,
            38.66386
          ],
          [
            0.056934,
            38.663885
          ],
          [
            0.056748,
            38.663978
          ],
          [
            0.056524,
            38.664097
          ],
          [
            0.056325,
            38.664225
          ],
          [
            0.056178,
            38.664367
          ],
          [
            0.056124,
            38.664485
          ],
          [
            0.056019,
            38.664689
          ],
          [
            0.055908,
            38.664856
          ],
          [
            0.055793,
            38.664981
          ],
          [
            0.055683,
            38.665181
          ],
          [
            0.055573,
            38.665321
          ],
          [
            0.055454,
            38.665457
          ],
          [
            0.055331,
            38.665591
          ],
          [
            0.055206,
            38.665725
          ],
          [
            0.055083,
            38.665859
          ],
          [
            0.054966,
            38.665996
          ],
          [
            0.054856,
            38.666137
          ],
          [
            0.054759,
            38.666284
          ],
          [
            0.054722,
            38.666436
          ],
          [
            0.054683,
            38.666587
          ],
          [
            0.054643,
            38.666739
          ],
          [
            0.054604,
            38.666892
          ],
          [
            0.05457,
            38.667044
          ],
          [
            0.054542,
            38.667198
          ],
          [
            0.054523,
            38.667352
          ],
          [
            0.054515,
            38.667507
          ],
          [
            0.054341,
            38.667741
          ],
          [
            0.054192,
            38.667926
          ],
          [
            0.053888,
            38.668287
          ],
          [
            0.053732,
            38.668554
          ],
          [
            0.053626,
            38.668715
          ],
          [
            0.053656,
            38.668917
          ],
          [
            0.053714,
            38.668987
          ],
          [
            0.053859,
            38.669068
          ],
          [
            0.053938,
            38.669055
          ],
          [
            0.054002,
            38.669028
          ],
          [
            0.054068,
            38.668967
          ],
          [
            0.054173,
            38.668895
          ],
          [
            0.054297,
            38.668833
          ],
          [
            0.054423,
            38.668771
          ],
          [
            0.054721,
            38.66862
          ],
          [
            0.054801,
            38.668576
          ],
          [
            0.054963,
            38.668464
          ],
          [
            0.055046,
            38.668397
          ],
          [
            0.055103,
            38.668361
          ],
          [
            0.055168,
            38.668328
          ],
          [
            0.055254,
            38.668313
          ],
          [
            0.055408,
            38.668343
          ],
          [
            0.055622,
            38.66841
          ],
          [
            0.055832,
            38.668499
          ],
          [
            0.055973,
            38.668562
          ],
          [
            0.056072,
            38.668579
          ],
          [
            0.056209,
            38.668611
          ],
          [
            0.056336,
            38.66866
          ],
          [
            0.056418,
            38.668727
          ],
          [
            0.05643,
            38.668748
          ],
          [
            0.056467,
            38.668727
          ],
          [
            0.056501,
            38.668668
          ],
          [
            0.056552,
            38.668608
          ],
          [
            0.056622,
            38.668568
          ],
          [
            0.05696,
            38.668445
          ],
          [
            0.057447,
            38.668285
          ],
          [
            0.057831,
            38.668165
          ],
          [
            0.058046,
            38.668088
          ],
          [
            0.058393,
            38.66799
          ],
          [
            0.058671,
            38.667976
          ],
          [
            0.059221,
            38.66794
          ],
          [
            0.059602,
            38.667905
          ],
          [
            0.059674,
            38.667873
          ],
          [
            0.059922,
            38.668058
          ],
          [
            0.059966,
            38.668044
          ],
          [
            0.060783,
            38.668036
          ],
          [
            0.061265,
            38.66795
          ],
          [
            0.061409,
            38.667937
          ],
          [
            0.062312,
            38.667927
          ],
          [
            0.062453,
            38.667919
          ],
          [
            0.062608,
            38.667869
          ],
          [
            0.062836,
            38.667774
          ],
          [
            0.062912,
            38.667743
          ],
          [
            0.063042,
            38.667781
          ],
          [
            0.063042,
            38.667781
          ],
          [
            0.063147,
            38.667837
          ],
          [
            0.063225,
            38.667942
          ],
          [
            0.063133,
            38.668105
          ],
          [
            0.063185,
            38.668217
          ]
        ]
      }
    }
  ]
}