<?xml version="1.0" encoding="UTF-8"?>
<gpx version="1.1" creator="sendas-calp-extract" xmlns="http://www.topografix.com/GPX/1/1">
  <metadata><name>Sendas Tradicionales de Calp</name></metadata>
  <trk><name>SV-01 - Senda Roja - La Mola</name><trkseg>
    <trkpt lat="38.6552887" lon="0.0471603"></trkpt>
    <trkpt lat="38.6551804" lon="0.0471076"></trkpt>
    <trkpt lat="38.6550347" lon="0.0470517"></trkpt>
    <trkpt lat="38.6548899" lon="0.047016"></trkpt>
    <trkpt lat="38.6547726" lon="0.0469972"></trkpt>
    <trkpt lat="38.6546636" lon="0.0469905"></trkpt>
    <trkpt lat="38.6545045" lon="0.0469811"></trkpt>
    <trkpt lat="38.6543845" lon="0.046977"></trkpt>
    <trkpt lat="38.6542882" lon="0.0469689"></trkpt>
    <trkpt lat="38.6542054" lon="0.0469485"></trkpt>
    <trkpt lat="38.6541437" lon="0.0469235"></trkpt>
    <trkpt lat="38.6540855" lon="0.0468632"></trkpt>
    <trkpt lat="38.6540406" lon="0.046791"></trkpt>
    <trkpt lat="38.653992" lon="0.046707"></trkpt>
    <trkpt lat="38.6539271" lon="0.0465747"></trkpt>
    <trkpt lat="38.653888" lon="0.0465007"></trkpt>
    <trkpt lat="38.6538425" lon="0.0464621"></trkpt>
    <trkpt lat="38.6538403" lon="0.0464256"></trkpt>
    <trkpt lat="38.6538357" lon="0.0463552"></trkpt>
    <trkpt lat="38.6538468" lon="0.0462898"></trkpt>
    <trkpt lat="38.6538666" lon="0.0462395"></trkpt>
    <trkpt lat="38.6539045" lon="0.0461604"></trkpt>
    <trkpt lat="38.6539548" lon="0.0460899"></trkpt>
    <trkpt lat="38.6540253" lon="0.0460222"></trkpt>
    <trkpt lat="38.6540633" lon="0.0459969"></trkpt>
    <trkpt lat="38.6541333" lon="0.045967"></trkpt>
    <trkpt lat="38.6541888" lon="0.0459514"></trkpt>
    <trkpt lat="38.6542576" lon="0.0459315"></trkpt>
    <trkpt lat="38.6542965" lon="0.0459137"></trkpt>
    <trkpt lat="38.6543433" lon="0.0458871"></trkpt>
    <trkpt lat="38.654397" lon="0.045875"></trkpt>
    <trkpt lat="38.6544621" lon="0.0458722"></trkpt>
    <trkpt lat="38.6545162" lon="0.0458793"></trkpt>
    <trkpt lat="38.6545677" lon="0.0458864"></trkpt>
    <trkpt lat="38.6546276" lon="0.0458767"></trkpt>
    <trkpt lat="38.6546944" lon="0.0458496"></trkpt>
    <trkpt lat="38.6547984" lon="0.045795"></trkpt>
    <trkpt lat="38.6548584" lon="0.045758"></trkpt>
    <trkpt lat="38.6549327" lon="0.0457083"></trkpt>
    <trkpt lat="38.6550049" lon="0.0456471"></trkpt>
    <trkpt lat="38.6551046" lon="0.0455569"></trkpt>
    <trkpt lat="38.6551705" lon="0.0454885"></trkpt>
    <trkpt lat="38.6552282" lon="0.0454247"></trkpt>
    <trkpt lat="38.6552795" lon="0.0453544"></trkpt>
    <trkpt lat="38.6553138" lon="0.0452827"></trkpt>
    <trkpt lat="38.655334" lon="0.0452137"></trkpt>
    <trkpt lat="38.6553439" lon="0.0451484"></trkpt>
    <trkpt lat="38.655352" lon="0.04508"></trkpt>
    <trkpt lat="38.6553395" lon="0.0450228"></trkpt>
    <trkpt lat="38.6553114" lon="0.0449689"></trkpt>
    <trkpt lat="38.6552692" lon="0.0449433"></trkpt>
    <trkpt lat="38.6551959" lon="0.0448964"></trkpt>
    <trkpt lat="38.655112" lon="0.0448345"></trkpt>
    <trkpt lat="38.655086" lon="0.0447899"></trkpt>
    <trkpt lat="38.6550638" lon="0.0447425"></trkpt>
    <trkpt lat="38.655038" lon="0.0446941"></trkpt>
    <trkpt lat="38.6550151" lon="0.0446419"></trkpt>
    <trkpt lat="38.6549616" lon="0.044555"></trkpt>
    <trkpt lat="38.6549091" lon="0.0444639"></trkpt>
    <trkpt lat="38.6548875" lon="0.044407"></trkpt>
    <trkpt lat="38.654883" lon="0.0443599"></trkpt>
    <trkpt lat="38.6548963" lon="0.0443238"></trkpt>
    <trkpt lat="38.6549173" lon="0.0442804"></trkpt>
    <trkpt lat="38.6550782" lon="0.0440063"></trkpt>
    <trkpt lat="38.6552498" lon="0.0437126"></trkpt>
    <trkpt lat="38.6552803" lon="0.0436551"></trkpt>
    <trkpt lat="38.6552958" lon="0.0436013"></trkpt>
    <trkpt lat="38.6553053" lon="0.0435382"></trkpt>
    <trkpt lat="38.6552966" lon="0.0434536"></trkpt>
    <trkpt lat="38.6552791" lon="0.04329"></trkpt>
    <trkpt lat="38.6552635" lon="0.0431666"></trkpt>
    <trkpt lat="38.6552503" lon="0.0430736"></trkpt>
    <trkpt lat="38.6552286" lon="0.042984"></trkpt>
    <trkpt lat="38.6551953" lon="0.0428926"></trkpt>
    <trkpt lat="38.6553182" lon="0.0424696"></trkpt>
    <trkpt lat="38.6558183" lon="0.0421871"></trkpt>
    <trkpt lat="38.6559675" lon="0.0421156"></trkpt>
    <trkpt lat="38.656023" lon="0.0420673"></trkpt>
    <trkpt lat="38.6560503" lon="0.0420405"></trkpt>
    <trkpt lat="38.6560676" lon="0.0420322"></trkpt>
    <trkpt lat="38.6562642" lon="0.0417788"></trkpt>
    <trkpt lat="38.6563216" lon="0.0417204"></trkpt>
    <trkpt lat="38.6567213" lon="0.0412387"></trkpt>
    <trkpt lat="38.6568963" lon="0.0410124"></trkpt>
    <trkpt lat="38.6570701" lon="0.0407953"></trkpt>
    <trkpt lat="38.6571058" lon="0.0407373"></trkpt>
    <trkpt lat="38.6571339" lon="0.0406823"></trkpt>
    <trkpt lat="38.6571803" lon="0.0405915"></trkpt>
    <trkpt lat="38.6572542" lon="0.0404539"></trkpt>
    <trkpt lat="38.6573993" lon="0.0401634"></trkpt>
    <trkpt lat="38.6574418" lon="0.0400711"></trkpt>
    <trkpt lat="38.6574742" lon="0.0399747"></trkpt>
    <trkpt lat="38.6575159" lon="0.0398821"></trkpt>
    <trkpt lat="38.6575435" lon="0.0398255"></trkpt>
    <trkpt lat="38.6575826" lon="0.039751"></trkpt>
    <trkpt lat="38.6576092" lon="0.0396902"></trkpt>
    <trkpt lat="38.6576332" lon="0.0396254"></trkpt>
    <trkpt lat="38.6576521" lon="0.0395691"></trkpt>
    <trkpt lat="38.6576625" lon="0.0395137"></trkpt>
    <trkpt lat="38.657689" lon="0.0394115"></trkpt>
    <trkpt lat="38.6577082" lon="0.039355"></trkpt>
    <trkpt lat="38.6577196" lon="0.0392763"></trkpt>
    <trkpt lat="38.6577291" lon="0.0392118"></trkpt>
    <trkpt lat="38.657728" lon="0.0391565"></trkpt>
    <trkpt lat="38.6577099" lon="0.0390928"></trkpt>
    <trkpt lat="38.6576932" lon="0.0390184"></trkpt>
    <trkpt lat="38.6576775" lon="0.0389189"></trkpt>
    <trkpt lat="38.6576769" lon="0.0388836"></trkpt>
    <trkpt lat="38.6576775" lon="0.038854"></trkpt>
    <trkpt lat="38.657702" lon="0.0387478"></trkpt>
    <trkpt lat="38.6577452" lon="0.0386814"></trkpt>
    <trkpt lat="38.6577893" lon="0.0386012"></trkpt>
    <trkpt lat="38.6578156" lon="0.0385772"></trkpt>
    <trkpt lat="38.6578528" lon="0.0385926"></trkpt>
    <trkpt lat="38.6579084" lon="0.0386358"></trkpt>
    <trkpt lat="38.6581329" lon="0.0387788"></trkpt>
    <trkpt lat="38.6581673" lon="0.0388056"></trkpt>
    <trkpt lat="38.6581968" lon="0.0388117"></trkpt>
    <trkpt lat="38.6582184" lon="0.0387927"></trkpt>
    <trkpt lat="38.6582319" lon="0.0387766"></trkpt>
    <trkpt lat="38.6582368" lon="0.0387328"></trkpt>
    <trkpt lat="38.6582302" lon="0.0386383"></trkpt>
    <trkpt lat="38.6582352" lon="0.0385289"></trkpt>
    <trkpt lat="38.6582665" lon="0.0382598"></trkpt>
    <trkpt lat="38.6582749" lon="0.0382025"></trkpt>
    <trkpt lat="38.6583084" lon="0.0380684"></trkpt>
    <trkpt lat="38.658455" lon="0.0379236"></trkpt>
    <trkpt lat="38.6586058" lon="0.0378163"></trkpt>
    <trkpt lat="38.6588362" lon="0.0377519"></trkpt>
    <trkpt lat="38.6590917" lon="0.0377305"></trkpt>
    <trkpt lat="38.6593999" lon="0.0376917"></trkpt>
    <trkpt lat="38.6595584" lon="0.0376296"></trkpt>
    <trkpt lat="38.6597817" lon="0.03749"></trkpt>
    <trkpt lat="38.6600144" lon="0.0373147"></trkpt>
    <trkpt lat="38.660375" lon="0.0371103"></trkpt>
    <trkpt lat="38.6604668" lon="0.0370152"></trkpt>
    <trkpt lat="38.6604911" lon="0.0368644"></trkpt>
    <trkpt lat="38.6604741" lon="0.0367273"></trkpt>
    <trkpt lat="38.6604565" lon="0.0365694"></trkpt>
    <trkpt lat="38.660433" lon="0.036283"></trkpt>
    <trkpt lat="38.6604071" lon="0.0359143"></trkpt>
    <trkpt lat="38.6601728" lon="0.0351663"></trkpt>
    <trkpt lat="38.6602667" lon="0.0349571"></trkpt>
    <trkpt lat="38.6603762" lon="0.034808"></trkpt>
    <trkpt lat="38.6604742" lon="0.0347224"></trkpt>
    <trkpt lat="38.6605519" lon="0.0346725"></trkpt>
    <trkpt lat="38.6605618" lon="0.0341451"></trkpt>
    <trkpt lat="38.6605673" lon="0.034082"></trkpt>
    <trkpt lat="38.6606126" lon="0.034044"></trkpt>
    <trkpt lat="38.66067" lon="0.03402"></trkpt>
    <trkpt lat="38.660749" lon="0.033997"></trkpt>
    <trkpt lat="38.661585" lon="0.033986"></trkpt>
    <trkpt lat="38.6616577" lon="0.0339643"></trkpt>
    <trkpt lat="38.6617665" lon="0.0338406"></trkpt>
    <trkpt lat="38.661782" lon="0.033807"></trkpt>
    <trkpt lat="38.6619243" lon="0.0332889"></trkpt>
    <trkpt lat="38.662007" lon="0.033082"></trkpt>
    <trkpt lat="38.662197" lon="0.032778"></trkpt>
    <trkpt lat="38.662238" lon="0.032677"></trkpt>
    <trkpt lat="38.66227" lon="0.032535"></trkpt>
    <trkpt lat="38.6622758" lon="0.0323888"></trkpt>
    <trkpt lat="38.6622541" lon="0.0322316"></trkpt>
    <trkpt lat="38.662334" lon="0.032134"></trkpt>
    <trkpt lat="38.662403" lon="0.032113"></trkpt>
    <trkpt lat="38.662548" lon="0.032132"></trkpt>
    <trkpt lat="38.662766" lon="0.032197"></trkpt>
    <trkpt lat="38.662873" lon="0.032171"></trkpt>
    <trkpt lat="38.662917" lon="0.032108"></trkpt>
    <trkpt lat="38.662919" lon="0.032003"></trkpt>
    <trkpt lat="38.662885" lon="0.031923"></trkpt>
    <trkpt lat="38.662716" lon="0.03167"></trkpt>
    <trkpt lat="38.66267" lon="0.031539"></trkpt>
    <trkpt lat="38.662641" lon="0.031324"></trkpt>
    <trkpt lat="38.6626109" lon="0.0311189"></trkpt>
    <trkpt lat="38.6626954" lon="0.0311241"></trkpt>
    <trkpt lat="38.6627608" lon="0.0311391"></trkpt>
    <trkpt lat="38.6628176" lon="0.0310742"></trkpt>
    <trkpt lat="38.6628875" lon="0.0311307"></trkpt>
    <trkpt lat="38.6629433" lon="0.0311179"></trkpt>
    <trkpt lat="38.6630074" lon="0.0308447"></trkpt>
    <trkpt lat="38.6629466" lon="0.0307013"></trkpt>
    <trkpt lat="38.6629319" lon="0.0306039"></trkpt>
    <trkpt lat="38.6629418" lon="0.0305912"></trkpt>
    <trkpt lat="38.6630144" lon="0.0306058"></trkpt>
    <trkpt lat="38.6630245" lon="0.0305288"></trkpt>
    <trkpt lat="38.6629859" lon="0.0303906"></trkpt>
    <trkpt lat="38.6630262" lon="0.0303441"></trkpt>
    <trkpt lat="38.6630119" lon="0.0302799"></trkpt>
    <trkpt lat="38.6629203" lon="0.0297993"></trkpt>
    <trkpt lat="38.6629342" lon="0.0297302"></trkpt>
    <trkpt lat="38.6629661" lon="0.0296866"></trkpt>
    <trkpt lat="38.6629519" lon="0.0296185"></trkpt>
    <trkpt lat="38.6628086" lon="0.0295299"></trkpt>
    <trkpt lat="38.662704" lon="0.0294949"></trkpt>
    <trkpt lat="38.6624161" lon="0.0292655"></trkpt>
    <trkpt lat="38.6623755" lon="0.0291921"></trkpt>
    <trkpt lat="38.6623373" lon="0.0291187"></trkpt>
    <trkpt lat="38.6622744" lon="0.0289923"></trkpt>
    <trkpt lat="38.6621279" lon="0.0288241"></trkpt>
    <trkpt lat="38.6618539" lon="0.0290816"></trkpt>
    <trkpt lat="38.661824" lon="0.0293722"></trkpt>
    <trkpt lat="38.6618005" lon="0.0296005"></trkpt>
    <trkpt lat="38.6617413" lon="0.0296877"></trkpt>
    <trkpt lat="38.6615556" lon="0.0299216"></trkpt>
    <trkpt lat="38.6614921" lon="0.0299777"></trkpt>
    <trkpt lat="38.661368" lon="0.030128"></trkpt>
    <trkpt lat="38.6613471" lon="0.0300393"></trkpt>
    <trkpt lat="38.6614142" lon="0.0297934"></trkpt>
    <trkpt lat="38.661341" lon="0.0297505"></trkpt>
    <trkpt lat="38.6613228" lon="0.0296451"></trkpt>
    <trkpt lat="38.6612252" lon="0.0296802"></trkpt>
    <trkpt lat="38.6611186" lon="0.0296646"></trkpt>
    <trkpt lat="38.661042" lon="0.0296906"></trkpt>
    <trkpt lat="38.6609048" lon="0.0297317"></trkpt>
    <trkpt lat="38.6608565" lon="0.029688"></trkpt>
    <trkpt lat="38.6608047" lon="0.0296373"></trkpt>
    <trkpt lat="38.6608352" lon="0.0295046"></trkpt>
    <trkpt lat="38.6607955" lon="0.029368"></trkpt>
    <trkpt lat="38.6608291" lon="0.0292392"></trkpt>
    <trkpt lat="38.6607255" lon="0.0291338"></trkpt>
    <trkpt lat="38.6607128" lon="0.029012"></trkpt>
    <trkpt lat="38.6605462" lon="0.0289483"></trkpt>
    <trkpt lat="38.6605282" lon="0.0288951"></trkpt>
    <trkpt lat="38.660609" lon="0.0288671"></trkpt>
    <trkpt lat="38.6605869" lon="0.0287325"></trkpt>
    <trkpt lat="38.660552" lon="0.0286011"></trkpt>
    <trkpt lat="38.6605424" lon="0.028383"></trkpt>
    <trkpt lat="38.6605284" lon="0.0280578"></trkpt>
    <trkpt lat="38.6604052" lon="0.0277026"></trkpt>
    <trkpt lat="38.6603442" lon="0.0274891"></trkpt>
    <trkpt lat="38.660155" lon="0.0272332"></trkpt>
    <trkpt lat="38.6597713" lon="0.0270499"></trkpt>
    <trkpt lat="38.6596717" lon="0.0270768"></trkpt>
    <trkpt lat="38.6596397" lon="0.0269333"></trkpt>
    <trkpt lat="38.6595425" lon="0.0268722"></trkpt>
    <trkpt lat="38.6594543" lon="0.0265781"></trkpt>
    <trkpt lat="38.659432" lon="0.0263999"></trkpt>
    <trkpt lat="38.6593908" lon="0.026339"></trkpt>
    <trkpt lat="38.6593127" lon="0.0263217"></trkpt>
    <trkpt lat="38.6590854" lon="0.026308"></trkpt>
  </trkseg></trk>
  <trk><name>SV-02 - Senda Magenta - Llebeig</name><trkseg>
    <trkpt lat="38.655346" lon="0.047137"></trkpt>
    <trkpt lat="38.655168" lon="0.047052"></trkpt>
    <trkpt lat="38.654857" lon="0.046963"></trkpt>
    <trkpt lat="38.654325" lon="0.046923"></trkpt>
    <trkpt lat="38.654217" lon="0.046889"></trkpt>
    <trkpt lat="38.654087" lon="0.046804"></trkpt>
    <trkpt lat="38.654035" lon="0.046701"></trkpt>
    <trkpt lat="38.653971" lon="0.04657"></trkpt>
    <trkpt lat="38.653891" lon="0.046413"></trkpt>
    <trkpt lat="38.653873" lon="0.046295"></trkpt>
    <trkpt lat="38.653886" lon="0.046221"></trkpt>
    <trkpt lat="38.65392" lon="0.046135"></trkpt>
    <trkpt lat="38.654011" lon="0.046024"></trkpt>
    <trkpt lat="38.654127" lon="0.045939"></trkpt>
    <trkpt lat="38.654277" lon="0.045887"></trkpt>
    <trkpt lat="38.654427" lon="0.045811"></trkpt>
    <trkpt lat="38.654611" lon="0.045849"></trkpt>
    <trkpt lat="38.654796" lon="0.045769"></trkpt>
    <trkpt lat="38.654988" lon="0.045642"></trkpt>
    <trkpt lat="38.65513" lon="0.04552"></trkpt>
    <trkpt lat="38.655247" lon="0.045396"></trkpt>
    <trkpt lat="38.655321" lon="0.045281"></trkpt>
    <trkpt lat="38.655351" lon="0.045195"></trkpt>
    <trkpt lat="38.655374" lon="0.045043"></trkpt>
    <trkpt lat="38.655347" lon="0.044947"></trkpt>
    <trkpt lat="38.655195" lon="0.044836"></trkpt>
    <trkpt lat="38.655107" lon="0.044752"></trkpt>
    <trkpt lat="38.655024" lon="0.044574"></trkpt>
    <trkpt lat="38.654921" lon="0.044407"></trkpt>
    <trkpt lat="38.654912" lon="0.044347"></trkpt>
    <trkpt lat="38.65492" lon="0.044279"></trkpt>
    <trkpt lat="38.654962" lon="0.044209"></trkpt>
    <trkpt lat="38.655207" lon="0.043791"></trkpt>
    <trkpt lat="38.655315" lon="0.043592"></trkpt>
    <trkpt lat="38.65533" lon="0.043496"></trkpt>
    <trkpt lat="38.655276" lon="0.043034"></trkpt>
    <trkpt lat="38.655245" lon="0.042912"></trkpt>
    <trkpt lat="38.65519" lon="0.042797"></trkpt>
    <trkpt lat="38.655112" lon="0.042696"></trkpt>
    <trkpt lat="38.654998" lon="0.042584"></trkpt>
    <trkpt lat="38.654905" lon="0.042522"></trkpt>
    <trkpt lat="38.655084" lon="0.04249"></trkpt>
    <trkpt lat="38.655213" lon="0.04247"></trkpt>
    <trkpt lat="38.655433" lon="0.042364"></trkpt>
    <trkpt lat="38.655729" lon="0.042204"></trkpt>
    <trkpt lat="38.656036" lon="0.042034"></trkpt>
    <trkpt lat="38.656136" lon="0.041991"></trkpt>
    <trkpt lat="38.656205" lon="0.041927"></trkpt>
    <trkpt lat="38.656263" lon="0.041867"></trkpt>
    <trkpt lat="38.656331" lon="0.041832"></trkpt>
    <trkpt lat="38.656512" lon="0.041769"></trkpt>
    <trkpt lat="38.656603" lon="0.041756"></trkpt>
    <trkpt lat="38.656667" lon="0.041792"></trkpt>
    <trkpt lat="38.656793" lon="0.041921"></trkpt>
    <trkpt lat="38.656848" lon="0.041938"></trkpt>
    <trkpt lat="38.656914" lon="0.041901"></trkpt>
    <trkpt lat="38.65716" lon="0.041729"></trkpt>
    <trkpt lat="38.657273" lon="0.041666"></trkpt>
    <trkpt lat="38.657405" lon="0.041546"></trkpt>
    <trkpt lat="38.657505" lon="0.041481"></trkpt>
    <trkpt lat="38.657631" lon="0.041342"></trkpt>
    <trkpt lat="38.657739" lon="0.041304"></trkpt>
    <trkpt lat="38.657848" lon="0.041232"></trkpt>
    <trkpt lat="38.65795" lon="0.041201"></trkpt>
    <trkpt lat="38.65824" lon="0.041121"></trkpt>
    <trkpt lat="38.658297" lon="0.041092"></trkpt>
    <trkpt lat="38.659426" lon="0.040913"></trkpt>
    <trkpt lat="38.659564" lon="0.040852"></trkpt>
    <trkpt lat="38.659788" lon="0.040988"></trkpt>
    <trkpt lat="38.659982" lon="0.041285"></trkpt>
    <trkpt lat="38.659999" lon="0.041494"></trkpt>
    <trkpt lat="38.65988" lon="0.041858"></trkpt>
    <trkpt lat="38.660017" lon="0.042033"></trkpt>
    <trkpt lat="38.660335" lon="0.042175"></trkpt>
    <trkpt lat="38.66046" lon="0.042435"></trkpt>
    <trkpt lat="38.660493" lon="0.042504"></trkpt>
    <trkpt lat="38.660539" lon="0.042604"></trkpt>
    <trkpt lat="38.660578" lon="0.042689"></trkpt>
    <trkpt lat="38.6606" lon="0.042736"></trkpt>
    <trkpt lat="38.660648" lon="0.042839"></trkpt>
    <trkpt lat="38.66071" lon="0.042973"></trkpt>
    <trkpt lat="38.660784" lon="0.043067"></trkpt>
    <trkpt lat="38.660803" lon="0.043168"></trkpt>
    <trkpt lat="38.660898" lon="0.04328"></trkpt>
    <trkpt lat="38.660974" lon="0.043436"></trkpt>
    <trkpt lat="38.661134" lon="0.043587"></trkpt>
    <trkpt lat="38.661396" lon="0.043928"></trkpt>
    <trkpt lat="38.661589" lon="0.044083"></trkpt>
    <trkpt lat="38.661639" lon="0.044231"></trkpt>
    <trkpt lat="38.661948" lon="0.044592"></trkpt>
    <trkpt lat="38.661856" lon="0.045043"></trkpt>
    <trkpt lat="38.661772" lon="0.045168"></trkpt>
    <trkpt lat="38.661745" lon="0.045422"></trkpt>
    <trkpt lat="38.661738" lon="0.045575"></trkpt>
    <trkpt lat="38.661684" lon="0.045728"></trkpt>
    <trkpt lat="38.661672" lon="0.04584"></trkpt>
    <trkpt lat="38.661669" lon="0.0462"></trkpt>
    <trkpt lat="38.661754" lon="0.046313"></trkpt>
    <trkpt lat="38.661908" lon="0.046514"></trkpt>
    <trkpt lat="38.661852" lon="0.046798"></trkpt>
    <trkpt lat="38.661822" lon="0.047286"></trkpt>
    <trkpt lat="38.661752" lon="0.047548"></trkpt>
    <trkpt lat="38.661728" lon="0.047639"></trkpt>
    <trkpt lat="38.661751" lon="0.047714"></trkpt>
    <trkpt lat="38.66183" lon="0.047844"></trkpt>
    <trkpt lat="38.661906" lon="0.047968"></trkpt>
    <trkpt lat="38.66216" lon="0.048305"></trkpt>
    <trkpt lat="38.662359" lon="0.048531"></trkpt>
    <trkpt lat="38.663374" lon="0.049771"></trkpt>
    <trkpt lat="38.663504" lon="0.050383"></trkpt>
    <trkpt lat="38.663654" lon="0.05046"></trkpt>
    <trkpt lat="38.66386" lon="0.050532"></trkpt>
    <trkpt lat="38.664094" lon="0.050566"></trkpt>
    <trkpt lat="38.664177" lon="0.050604"></trkpt>
    <trkpt lat="38.664202" lon="0.05062"></trkpt>
    <trkpt lat="38.664387" lon="0.050683"></trkpt>
    <trkpt lat="38.664534" lon="0.050699"></trkpt>
    <trkpt lat="38.665035" lon="0.050424"></trkpt>
    <trkpt lat="38.665336" lon="0.050246"></trkpt>
    <trkpt lat="38.665548" lon="0.050192"></trkpt>
    <trkpt lat="38.665832" lon="0.050324"></trkpt>
    <trkpt lat="38.666012" lon="0.050474"></trkpt>
    <trkpt lat="38.666212" lon="0.050559"></trkpt>
    <trkpt lat="38.666341" lon="0.050605"></trkpt>
    <trkpt lat="38.666413" lon="0.050329"></trkpt>
    <trkpt lat="38.666587" lon="0.050305"></trkpt>
    <trkpt lat="38.66668" lon="0.050401"></trkpt>
    <trkpt lat="38.666729" lon="0.050555"></trkpt>
    <trkpt lat="38.666862" lon="0.050618"></trkpt>
    <trkpt lat="38.666938" lon="0.050736"></trkpt>
    <trkpt lat="38.667026" lon="0.050925"></trkpt>
    <trkpt lat="38.667086" lon="0.050572"></trkpt>
    <trkpt lat="38.667153" lon="0.050419"></trkpt>
    <trkpt lat="38.667359" lon="0.050036"></trkpt>
    <trkpt lat="38.667527" lon="0.050025"></trkpt>
    <trkpt lat="38.667736" lon="0.050077"></trkpt>
    <trkpt lat="38.667873" lon="0.050123"></trkpt>
    <trkpt lat="38.668009" lon="0.050144"></trkpt>
    <trkpt lat="38.668315" lon="0.05018"></trkpt>
    <trkpt lat="38.66837" lon="0.050219"></trkpt>
    <trkpt lat="38.668409" lon="0.050288"></trkpt>
    <trkpt lat="38.668492" lon="0.050367"></trkpt>
    <trkpt lat="38.668552" lon="0.050409"></trkpt>
    <trkpt lat="38.668738" lon="0.050547"></trkpt>
    <trkpt lat="38.669094" lon="0.050183"></trkpt>
    <trkpt lat="38.669375" lon="0.049887"></trkpt>
    <trkpt lat="38.669484" lon="0.049814"></trkpt>
    <trkpt lat="38.6696" lon="0.049746"></trkpt>
    <trkpt lat="38.669721" lon="0.049684"></trkpt>
    <trkpt lat="38.669845" lon="0.049629"></trkpt>
    <trkpt lat="38.669971" lon="0.04958"></trkpt>
    <trkpt lat="38.670097" lon="0.049537"></trkpt>
    <trkpt lat="38.670222" lon="0.049502"></trkpt>
    <trkpt lat="38.670343" lon="0.049474"></trkpt>
    <trkpt lat="38.670453" lon="0.049494"></trkpt>
    <trkpt lat="38.670735" lon="0.049356"></trkpt>
    <trkpt lat="38.670915" lon="0.049276"></trkpt>
    <trkpt lat="38.671472" lon="0.049025"></trkpt>
    <trkpt lat="38.671889" lon="0.04884"></trkpt>
    <trkpt lat="38.671777" lon="0.049589"></trkpt>
    <trkpt lat="38.671708" lon="0.050005"></trkpt>
    <trkpt lat="38.671621" lon="0.050222"></trkpt>
    <trkpt lat="38.671568" lon="0.050387"></trkpt>
    <trkpt lat="38.671643" lon="0.050768"></trkpt>
    <trkpt lat="38.671753" lon="0.050907"></trkpt>
    <trkpt lat="38.672445" lon="0.051599"></trkpt>
    <trkpt lat="38.672381" lon="0.052628"></trkpt>
    <trkpt lat="38.672297" lon="0.052677"></trkpt>
    <trkpt lat="38.671968" lon="0.052895"></trkpt>
    <trkpt lat="38.671913" lon="0.052919"></trkpt>
    <trkpt lat="38.671777" lon="0.052878"></trkpt>
    <trkpt lat="38.671605" lon="0.052802"></trkpt>
    <trkpt lat="38.671499" lon="0.052743"></trkpt>
    <trkpt lat="38.671418" lon="0.052725"></trkpt>
    <trkpt lat="38.671171" lon="0.052752"></trkpt>
    <trkpt lat="38.671057" lon="0.052778"></trkpt>
    <trkpt lat="38.670982" lon="0.052822"></trkpt>
    <trkpt lat="38.670857" lon="0.052878"></trkpt>
    <trkpt lat="38.670698" lon="0.052914"></trkpt>
    <trkpt lat="38.670524" lon="0.052977"></trkpt>
    <trkpt lat="38.670152" lon="0.053143"></trkpt>
    <trkpt lat="38.669958" lon="0.053245"></trkpt>
    <trkpt lat="38.669881" lon="0.053302"></trkpt>
    <trkpt lat="38.669809" lon="0.053409"></trkpt>
    <trkpt lat="38.66968" lon="0.053733"></trkpt>
    <trkpt lat="38.66956" lon="0.053966"></trkpt>
    <trkpt lat="38.669491" lon="0.054059"></trkpt>
    <trkpt lat="38.669421" lon="0.054081"></trkpt>
    <trkpt lat="38.669316" lon="0.054054"></trkpt>
    <trkpt lat="38.669188" lon="0.054003"></trkpt>
    <trkpt lat="38.669108" lon="0.053933"></trkpt>
    <trkpt lat="38.669079" lon="0.053888"></trkpt>
    <trkpt lat="38.669055" lon="0.053938"></trkpt>
    <trkpt lat="38.669028" lon="0.054002"></trkpt>
    <trkpt lat="38.668967" lon="0.054068"></trkpt>
    <trkpt lat="38.668895" lon="0.054173"></trkpt>
    <trkpt lat="38.668833" lon="0.054297"></trkpt>
    <trkpt lat="38.668771" lon="0.054423"></trkpt>
    <trkpt lat="38.66862" lon="0.054721"></trkpt>
    <trkpt lat="38.668576" lon="0.054801"></trkpt>
    <trkpt lat="38.668464" lon="0.054963"></trkpt>
    <trkpt lat="38.668397" lon="0.055046"></trkpt>
    <trkpt lat="38.668361" lon="0.055103"></trkpt>
    <trkpt lat="38.668328" lon="0.055168"></trkpt>
    <trkpt lat="38.668313" lon="0.055254"></trkpt>
    <trkpt lat="38.668343" lon="0.055408"></trkpt>
    <trkpt lat="38.66841" lon="0.055622"></trkpt>
    <trkpt lat="38.668499" lon="0.055832"></trkpt>
    <trkpt lat="38.668562" lon="0.055973"></trkpt>
    <trkpt lat="38.668579" lon="0.056072"></trkpt>
    <trkpt lat="38.668611" lon="0.056209"></trkpt>
    <trkpt lat="38.66866" lon="0.056336"></trkpt>
    <trkpt lat="38.668727" lon="0.056418"></trkpt>
    <trkpt lat="38.668748" lon="0.05643"></trkpt>
    <trkpt lat="38.668727" lon="0.056467"></trkpt>
    <trkpt lat="38.668668" lon="0.056501"></trkpt>
    <trkpt lat="38.668608" lon="0.056552"></trkpt>
    <trkpt lat="38.668568" lon="0.056622"></trkpt>
    <trkpt lat="38.668445" lon="0.05696"></trkpt>
    <trkpt lat="38.668285" lon="0.057447"></trkpt>
    <trkpt lat="38.668165" lon="0.057831"></trkpt>
    <trkpt lat="38.668088" lon="0.058046"></trkpt>
    <trkpt lat="38.66799" lon="0.058393"></trkpt>
    <trkpt lat="38.667976" lon="0.058671"></trkpt>
    <trkpt lat="38.66794" lon="0.059221"></trkpt>
    <trkpt lat="38.667905" lon="0.059602"></trkpt>
    <trkpt lat="38.667873" lon="0.059674"></trkpt>
    <trkpt lat="38.668058" lon="0.059922"></trkpt>
    <trkpt lat="38.668044" lon="0.059966"></trkpt>
    <trkpt lat="38.668036" lon="0.060783"></trkpt>
    <trkpt lat="38.66795" lon="0.061265"></trkpt>
    <trkpt lat="38.667937" lon="0.061409"></trkpt>
    <trkpt lat="38.667927" lon="0.062312"></trkpt>
    <trkpt lat="38.667919" lon="0.062453"></trkpt>
    <trkpt lat="38.667869" lon="0.062608"></trkpt>
    <trkpt lat="38.667774" lon="0.062836"></trkpt>
    <trkpt lat="38.667743" lon="0.062912"></trkpt>
    <trkpt lat="38.667781" lon="0.063042"></trkpt>
    <trkpt lat="38.667781" lon="0.063042"></trkpt>
    <trkpt lat="38.667837" lon="0.063147"></trkpt>
    <trkpt lat="38.667942" lon="0.063225"></trkpt>
    <trkpt lat="38.668105" lon="0.063133"></trkpt>
    <trkpt lat="38.668217" lon="0.063185"></trkpt>
  </trkseg></trk>
  <trk><name>SV-03 - Senda Morada - Morro de Toix</name><trkseg>
    <trkpt lat="38.640976" lon="0.015154"></trkpt>
    <trkpt lat="38.64104" lon="0.014889"></trkpt>
    <trkpt lat="38.641096" lon="0.014583"></trkpt>
    <trkpt lat="38.641157" lon="0.013603"></trkpt>
    <trkpt lat="38.6409" lon="0.013468"></trkpt>
    <trkpt lat="38.640603" lon="0.013412"></trkpt>
    <trkpt lat="38.640258" lon="0.01336"></trkpt>
    <trkpt lat="38.639708" lon="0.013649"></trkpt>
    <trkpt lat="38.639487" lon="0.013408"></trkpt>
    <trkpt lat="38.639566" lon="0.013135"></trkpt>
    <trkpt lat="38.639612" lon="0.012936"></trkpt>
    <trkpt lat="38.63963" lon="0.012739"></trkpt>
    <trkpt lat="38.63959" lon="0.012645"></trkpt>
    <trkpt lat="38.639507" lon="0.012605"></trkpt>
    <trkpt lat="38.63942" lon="0.012652"></trkpt>
    <trkpt lat="38.639353" lon="0.012721"></trkpt>
    <trkpt lat="38.639162" lon="0.012867"></trkpt>
    <trkpt lat="38.63903" lon="0.012982"></trkpt>
    <trkpt lat="38.638916" lon="0.013078"></trkpt>
    <trkpt lat="38.63886" lon="0.013054"></trkpt>
    <trkpt lat="38.63889" lon="0.012985"></trkpt>
    <trkpt lat="38.639032" lon="0.012838"></trkpt>
    <trkpt lat="38.63914" lon="0.012646"></trkpt>
    <trkpt lat="38.639213" lon="0.012473"></trkpt>
    <trkpt lat="38.639228" lon="0.012307"></trkpt>
    <trkpt lat="38.639198" lon="0.012148"></trkpt>
    <trkpt lat="38.639174" lon="0.012096"></trkpt>
    <trkpt lat="38.639186" lon="0.011993"></trkpt>
    <trkpt lat="38.639169" lon="0.011836"></trkpt>
    <trkpt lat="38.639114" lon="0.011629"></trkpt>
    <trkpt lat="38.639052" lon="0.011595"></trkpt>
    <trkpt lat="38.638983" lon="0.011646"></trkpt>
    <trkpt lat="38.638962" lon="0.011718"></trkpt>
    <trkpt lat="38.638929" lon="0.011831"></trkpt>
    <trkpt lat="38.638826" lon="0.012168"></trkpt>
    <trkpt lat="38.638715" lon="0.012207"></trkpt>
    <trkpt lat="38.638611" lon="0.01225"></trkpt>
    <trkpt lat="38.638567" lon="0.012166"></trkpt>
    <trkpt lat="38.638478" lon="0.01183"></trkpt>
    <trkpt lat="38.638447" lon="0.011644"></trkpt>
    <trkpt lat="38.638413" lon="0.011601"></trkpt>
    <trkpt lat="38.638373" lon="0.011571"></trkpt>
    <trkpt lat="38.638284" lon="0.011533"></trkpt>
    <trkpt lat="38.638198" lon="0.011474"></trkpt>
    <trkpt lat="38.638115" lon="0.011431"></trkpt>
    <trkpt lat="38.637863" lon="0.011205"></trkpt>
    <trkpt lat="38.637822" lon="0.011148"></trkpt>
    <trkpt lat="38.637848" lon="0.011038"></trkpt>
    <trkpt lat="38.637869" lon="0.010959"></trkpt>
    <trkpt lat="38.637766" lon="0.010976"></trkpt>
    <trkpt lat="38.637735" lon="0.010943"></trkpt>
    <trkpt lat="38.637767" lon="0.010854"></trkpt>
    <trkpt lat="38.637802" lon="0.010741"></trkpt>
    <trkpt lat="38.637828" lon="0.010684"></trkpt>
    <trkpt lat="38.637872" lon="0.010629"></trkpt>
    <trkpt lat="38.63792" lon="0.010498"></trkpt>
    <trkpt lat="38.637943" lon="0.010407"></trkpt>
    <trkpt lat="38.637905" lon="0.010338"></trkpt>
    <trkpt lat="38.637759" lon="0.010373"></trkpt>
    <trkpt lat="38.637648" lon="0.010363"></trkpt>
    <trkpt lat="38.637623" lon="0.010284"></trkpt>
    <trkpt lat="38.637604" lon="0.010199"></trkpt>
    <trkpt lat="38.637553" lon="0.010131"></trkpt>
    <trkpt lat="38.637487" lon="0.010022"></trkpt>
    <trkpt lat="38.637521" lon="0.009794"></trkpt>
    <trkpt lat="38.637692" lon="0.009603"></trkpt>
    <trkpt lat="38.637784" lon="0.009458"></trkpt>
    <trkpt lat="38.637672" lon="0.009402"></trkpt>
    <trkpt lat="38.637714" lon="0.009317"></trkpt>
    <trkpt lat="38.637911" lon="0.009365"></trkpt>
  </trkseg></trk>
  <trk><name>SV-04 - Senda Naranja - Sella d'Olta</name><trkseg>
    <trkpt lat="38.66819" lon="0.063096"></trkpt>
    <trkpt lat="38.668576" lon="0.062881"></trkpt>
    <trkpt lat="38.66973" lon="0.063024"></trkpt>
    <trkpt lat="38.66997" lon="0.063146"></trkpt>
    <trkpt lat="38.670008" lon="0.063134"></trkpt>
    <trkpt lat="38.670072" lon="0.063105"></trkpt>
    <trkpt lat="38.670107" lon="0.063126"></trkpt>
    <trkpt lat="38.670219" lon="0.06316"></trkpt>
    <trkpt lat="38.670296" lon="0.06321"></trkpt>
    <trkpt lat="38.670496" lon="0.063336"></trkpt>
    <trkpt lat="38.670841" lon="0.063546"></trkpt>
    <trkpt lat="38.671005" lon="0.063646"></trkpt>
    <trkpt lat="38.670973" lon="0.063808"></trkpt>
    <trkpt lat="38.670871" lon="0.064065"></trkpt>
    <trkpt lat="38.670846" lon="0.064238"></trkpt>
    <trkpt lat="38.670889" lon="0.064424"></trkpt>
    <trkpt lat="38.67095" lon="0.064509"></trkpt>
    <trkpt lat="38.671056" lon="0.064527"></trkpt>
    <trkpt lat="38.671147" lon="0.064494"></trkpt>
    <trkpt lat="38.671193" lon="0.064526"></trkpt>
    <trkpt lat="38.671413" lon="0.065074"></trkpt>
    <trkpt lat="38.671548" lon="0.065384"></trkpt>
    <trkpt lat="38.671687" lon="0.065585"></trkpt>
    <trkpt lat="38.672102" lon="0.066016"></trkpt>
    <trkpt lat="38.672325" lon="0.066236"></trkpt>
    <trkpt lat="38.672359" lon="0.066524"></trkpt>
    <trkpt lat="38.672413" lon="0.066709"></trkpt>
    <trkpt lat="38.672504" lon="0.066836"></trkpt>
    <trkpt lat="38.67261" lon="0.066953"></trkpt>
    <trkpt lat="38.672698" lon="0.06703"></trkpt>
    <trkpt lat="38.672711" lon="0.067095"></trkpt>
    <trkpt lat="38.672658" lon="0.067199"></trkpt>
    <trkpt lat="38.672597" lon="0.067345"></trkpt>
    <trkpt lat="38.672515" lon="0.067497"></trkpt>
    <trkpt lat="38.672424" lon="0.067668"></trkpt>
    <trkpt lat="38.672329" lon="0.067852"></trkpt>
    <trkpt lat="38.672198" lon="0.067976"></trkpt>
    <trkpt lat="38.672089" lon="0.068122"></trkpt>
    <trkpt lat="38.671929" lon="0.068371"></trkpt>
    <trkpt lat="38.6718" lon="0.068214"></trkpt>
    <trkpt lat="38.671728" lon="0.06808"></trkpt>
    <trkpt lat="38.671677" lon="0.067978"></trkpt>
    <trkpt lat="38.671622" lon="0.067895"></trkpt>
    <trkpt lat="38.671527" lon="0.067824"></trkpt>
    <trkpt lat="38.671428" lon="0.067769"></trkpt>
    <trkpt lat="38.6712" lon="0.067805"></trkpt>
    <trkpt lat="38.67114" lon="0.067759"></trkpt>
    <trkpt lat="38.67105" lon="0.067529"></trkpt>
    <trkpt lat="38.670902" lon="0.067246"></trkpt>
    <trkpt lat="38.670536" lon="0.066884"></trkpt>
    <trkpt lat="38.670423" lon="0.06681"></trkpt>
    <trkpt lat="38.670306" lon="0.066771"></trkpt>
    <trkpt lat="38.670226" lon="0.066847"></trkpt>
    <trkpt lat="38.67025" lon="0.066956"></trkpt>
    <trkpt lat="38.669803" lon="0.06633"></trkpt>
    <trkpt lat="38.669709" lon="0.066017"></trkpt>
    <trkpt lat="38.669572" lon="0.065724"></trkpt>
    <trkpt lat="38.669477" lon="0.065587"></trkpt>
    <trkpt lat="38.669658" lon="0.065263"></trkpt>
    <trkpt lat="38.669734" lon="0.064944"></trkpt>
    <trkpt lat="38.669873" lon="0.064479"></trkpt>
    <trkpt lat="38.669933" lon="0.063954"></trkpt>
    <trkpt lat="38.669787" lon="0.063834"></trkpt>
    <trkpt lat="38.669413" lon="0.063542"></trkpt>
    <trkpt lat="38.669128" lon="0.063369"></trkpt>
  </trkseg></trk>
  <trk><name>SV-05 - Senda Azul - Les Salines</name><trkseg>
    <trkpt lat="38.655341" lon="0.047177"></trkpt>
    <trkpt lat="38.65614" lon="0.0474"></trkpt>
    <trkpt lat="38.656729" lon="0.047519"></trkpt>
    <trkpt lat="38.657037" lon="0.047787"></trkpt>
    <trkpt lat="38.657227" lon="0.047964"></trkpt>
    <trkpt lat="38.657354" lon="0.04827"></trkpt>
    <trkpt lat="38.657517" lon="0.048528"></trkpt>
    <trkpt lat="38.657726" lon="0.048709"></trkpt>
    <trkpt lat="38.657886" lon="0.048842"></trkpt>
    <trkpt lat="38.658051" lon="0.0489"></trkpt>
    <trkpt lat="38.658231" lon="0.048971"></trkpt>
    <trkpt lat="38.658553" lon="0.048963"></trkpt>
    <trkpt lat="38.65885" lon="0.048932"></trkpt>
    <trkpt lat="38.659044" lon="0.048895"></trkpt>
    <trkpt lat="38.659371" lon="0.048864"></trkpt>
    <trkpt lat="38.659511" lon="0.04882"></trkpt>
    <trkpt lat="38.659734" lon="0.048801"></trkpt>
    <trkpt lat="38.659956" lon="0.048763"></trkpt>
    <trkpt lat="38.660083" lon="0.048739"></trkpt>
    <trkpt lat="38.660177" lon="0.04873"></trkpt>
    <trkpt lat="38.660294" lon="0.048669"></trkpt>
    <trkpt lat="38.660424" lon="0.048635"></trkpt>
    <trkpt lat="38.660555" lon="0.048581"></trkpt>
    <trkpt lat="38.660642" lon="0.048471"></trkpt>
    <trkpt lat="38.660732" lon="0.048484"></trkpt>
    <trkpt lat="38.660826" lon="0.048651"></trkpt>
    <trkpt lat="38.660921" lon="0.048722"></trkpt>
    <trkpt lat="38.661" lon="0.048838"></trkpt>
    <trkpt lat="38.661144" lon="0.049279"></trkpt>
    <trkpt lat="38.661302" lon="0.049562"></trkpt>
    <trkpt lat="38.661459" lon="0.049736"></trkpt>
    <trkpt lat="38.66255" lon="0.049921"></trkpt>
    <trkpt lat="38.662797" lon="0.050195"></trkpt>
    <trkpt lat="38.662928" lon="0.050411"></trkpt>
    <trkpt lat="38.663037" lon="0.050589"></trkpt>
    <trkpt lat="38.663305" lon="0.050853"></trkpt>
    <trkpt lat="38.663338" lon="0.05031"></trkpt>
    <trkpt lat="38.663468" lon="0.050418"></trkpt>
    <trkpt lat="38.663504" lon="0.050383"></trkpt>
    <trkpt lat="38.663654" lon="0.05046"></trkpt>
    <trkpt lat="38.66386" lon="0.050532"></trkpt>
    <trkpt lat="38.664094" lon="0.050566"></trkpt>
    <trkpt lat="38.664177" lon="0.050604"></trkpt>
    <trkpt lat="38.664202" lon="0.05062"></trkpt>
    <trkpt lat="38.664387" lon="0.050683"></trkpt>
    <trkpt lat="38.664534" lon="0.050699"></trkpt>
    <trkpt lat="38.665035" lon="0.050424"></trkpt>
    <trkpt lat="38.665336" lon="0.050246"></trkpt>
    <trkpt lat="38.665548" lon="0.050192"></trkpt>
    <trkpt lat="38.665832" lon="0.050324"></trkpt>
    <trkpt lat="38.666012" lon="0.050474"></trkpt>
    <trkpt lat="38.666212" lon="0.050559"></trkpt>
    <trkpt lat="38.666341" lon="0.050605"></trkpt>
    <trkpt lat="38.666413" lon="0.050329"></trkpt>
    <trkpt lat="38.666587" lon="0.050305"></trkpt>
    <trkpt lat="38.66668" lon="0.050401"></trkpt>
    <trkpt lat="38.666729" lon="0.050555"></trkpt>
    <trkpt lat="38.666862" lon="0.050618"></trkpt>
    <trkpt lat="38.666938" lon="0.050736"></trkpt>
    <trkpt lat="38.667026" lon="0.050925"></trkpt>
    <trkpt lat="38.667086" lon="0.050572"></trkpt>
    <trkpt lat="38.667153" lon="0.050419"></trkpt>
    <trkpt lat="38.667359" lon="0.050036"></trkpt>
    <trkpt lat="38.667527" lon="0.050025"></trkpt>
    <trkpt lat="38.667736" lon="0.050077"></trkpt>
    <trkpt lat="38.667873" lon="0.050123"></trkpt>
    <trkpt lat="38.668009" lon="0.050144"></trkpt>
    <trkpt lat="38.668315" lon="0.05018"></trkpt>
    <trkpt lat="38.66837" lon="0.050219"></trkpt>
    <trkpt lat="38.668409" lon="0.050288"></trkpt>
    <trkpt lat="38.668492" lon="0.050367"></trkpt>
    <trkpt lat="38.668552" lon="0.050409"></trkpt>
    <trkpt lat="38.668738" lon="0.050547"></trkpt>
    <trkpt lat="38.669094" lon="0.050183"></trkpt>
    <trkpt lat="38.669375" lon="0.049887"></trkpt>
    <trkpt lat="38.669484" lon="0.049814"></trkpt>
    <trkpt lat="38.6696" lon="0.049746"></trkpt>
    <trkpt lat="38.669721" lon="0.049684"></trkpt>
    <trkpt lat="38.669845" lon="0.049629"></trkpt>
    <trkpt lat="38.669971" lon="0.04958"></trkpt>
    <trkpt lat="38.670097" lon="0.049537"></trkpt>
    <trkpt lat="38.670222" lon="0.049502"></trkpt>
    <trkpt lat="38.670343" lon="0.049474"></trkpt>
    <trkpt lat="38.670453" lon="0.049494"></trkpt>
    <trkpt lat="38.670735" lon="0.049356"></trkpt>
    <trkpt lat="38.670915" lon="0.049276"></trkpt>
    <trkpt lat="38.671472" lon="0.049025"></trkpt>
    <trkpt lat="38.671889" lon="0.04884"></trkpt>
    <trkpt lat="38.671777" lon="0.049589"></trkpt>
    <trkpt lat="38.671708" lon="0.050005"></trkpt>
    <trkpt lat="38.671621" lon="0.050222"></trkpt>
    <trkpt lat="38.671568" lon="0.050387"></trkpt>
    <trkpt lat="38.671643" lon="0.050768"></trkpt>
    <trkpt lat="38.671753" lon="0.050907"></trkpt>
    <trkpt lat="38.672445" lon="0.051599"></trkpt>
    <trkpt lat="38.672381" lon="0.052628"></trkpt>
    <trkpt lat="38.672297" lon="0.052677"></trkpt>
    <trkpt lat="38.671968" lon="0.052895"></trkpt>
    <trkpt lat="38.671913" lon="0.052919"></trkpt>
    <trkpt lat="38.671777" lon="0.052878"></trkpt>
    <trkpt lat="38.671605" lon="0.052802"></trkpt>
    <trkpt lat="38.671499" lon="0.052743"></trkpt>
    <trkpt lat="38.671418" lon="0.052725"></trkpt>
    <trkpt lat="38.671171" lon="0.052752"></trkpt>
    <trkpt lat="38.671057" lon="0.052778"></trkpt>
    <trkpt lat="38.670982" lon="0.052822"></trkpt>
    <trkpt lat="38.670857" lon="0.052878"></trkpt>
    <trkpt lat="38.670698" lon="0.052914"></trkpt>
    <trkpt lat="38.670524" lon="0.052977"></trkpt>
    <trkpt lat="38.670152" lon="0.053143"></trkpt>
    <trkpt lat="38.669958" lon="0.053245"></trkpt>
    <trkpt lat="38.669881" lon="0.053302"></trkpt>
    <trkpt lat="38.669809" lon="0.053409"></trkpt>
    <trkpt lat="38.66968" lon="0.053733"></trkpt>
    <trkpt lat="38.66956" lon="0.053966"></trkpt>
    <trkpt lat="38.669491" lon="0.054059"></trkpt>
    <trkpt lat="38.669421" lon="0.054081"></trkpt>
    <trkpt lat="38.669316" lon="0.054054"></trkpt>
    <trkpt lat="38.669188" lon="0.054003"></trkpt>
    <trkpt lat="38.669108" lon="0.053933"></trkpt>
    <trkpt lat="38.669079" lon="0.053888"></trkpt>
    <trkpt lat="38.669055" lon="0.053938"></trkpt>
    <trkpt lat="38.669028" lon="0.054002"></trkpt>
    <trkpt lat="38.668967" lon="0.054068"></trkpt>
    <trkpt lat="38.668895" lon="0.054173"></trkpt>
    <trkpt lat="38.668833" lon="0.054297"></trkpt>
    <trkpt lat="38.668771" lon="0.054423"></trkpt>
    <trkpt lat="38.66862" lon="0.054721"></trkpt>
    <trkpt lat="38.668576" lon="0.054801"></trkpt>
    <trkpt lat="38.668464" lon="0.054963"></trkpt>
    <trkpt lat="38.668397" lon="0.055046"></trkpt>
    <trkpt lat="38.668361" lon="0.055103"></trkpt>
    <trkpt lat="38.668328" lon="0.055168"></trkpt>
    <trkpt lat="38.668313" lon="0.055254"></trkpt>
    <trkpt lat="38.668343" lon="0.055408"></trkpt>
    <trkpt lat="38.66841" lon="0.055622"></trkpt>
    <trkpt lat="38.668499" lon="0.055832"></trkpt>
    <trkpt lat="38.668562" lon="0.055973"></trkpt>
    <trkpt lat="38.668579" lon="0.056072"></trkpt>
    <trkpt lat="38.668611" lon="0.056209"></trkpt>
    <trkpt lat="38.66866" lon="0.056336"></trkpt>
    <trkpt lat="38.668727" lon="0.056418"></trkpt>
    <trkpt lat="38.668748" lon="0.05643"></trkpt>
    <trkpt lat="38.668727" lon="0.056467"></trkpt>
    <trkpt lat="38.668668" lon="0.056501"></trkpt>
    <trkpt lat="38.668608" lon="0.056552"></trkpt>
    <trkpt lat="38.668568" lon="0.056622"></trkpt>
    <trkpt lat="38.668445" lon="0.05696"></trkpt>
    <trkpt lat="38.668285" lon="0.057447"></trkpt>
    <trkpt lat="38.668165" lon="0.057831"></trkpt>
    <trkpt lat="38.668088" lon="0.058046"></trkpt>
    <trkpt lat="38.66799" lon="0.058393"></trkpt>
    <trkpt lat="38.667976" lon="0.058671"></trkpt>
    <trkpt lat="38.66794" lon="0.059221"></trkpt>
    <trkpt lat="38.667905" lon="0.059602"></trkpt>
    <trkpt lat="38.667873" lon="0.059674"></trkpt>
    <trkpt lat="38.668058" lon="0.059922"></trkpt>
    <trkpt lat="38.668044" lon="0.059966"></trkpt>
    <trkpt lat="38.668036" lon="0.060783"></trkpt>
    <trkpt lat="38.66795" lon="0.061265"></trkpt>
    <trkpt lat="38.667937" lon="0.061409"></trkpt>
    <trkpt lat="38.667927" lon="0.062312"></trkpt>
    <trkpt lat="38.667919" lon="0.062453"></trkpt>
    <trkpt lat="38.667869" lon="0.062608"></trkpt>
    <trkpt lat="38.667774" lon="0.062836"></trkpt>
    <trkpt lat="38.667743" lon="0.062912"></trkpt>
    <trkpt lat="38.667781" lon="0.063042"></trkpt>
    <trkpt lat="38.667781" lon="0.063042"></trkpt>
    <trkpt lat="38.667837" lon="0.063147"></trkpt>
    <trkpt lat="38.667942" lon="0.063225"></trkpt>
    <trkpt lat="38.668105" lon="0.063133"></trkpt>
    <trkpt lat="38.668217" lon="0.063185"></trkpt>
  </trkseg></trk>
  <trk><name>SV-06 - Senda Verde - Cap Blanc</name><trkseg>
    <trkpt lat="38.670035" lon="0.063085"></trkpt>
    <trkpt lat="38.670194" lon="0.062726"></trkpt>
    <trkpt lat="38.670304" lon="0.062462"></trkpt>
    <trkpt lat="38.670459" lon="0.062307"></trkpt>
    <trkpt lat="38.670641" lon="0.062173"></trkpt>
    <trkpt lat="38.670727" lon="0.062131"></trkpt>
    <trkpt lat="38.671647" lon="0.061985"></trkpt>
    <trkpt lat="38.672053" lon="0.062027"></trkpt>
    <trkpt lat="38.672103" lon="0.06236"></trkpt>
    <trkpt lat="38.672159" lon="0.062448"></trkpt>
    <trkpt lat="38.672315" lon="0.0625"></trkpt>
    <trkpt lat="38.672411" lon="0.062554"></trkpt>
    <trkpt lat="38.672441" lon="0.062643"></trkpt>
    <trkpt lat="38.672475" lon="0.062742"></trkpt>
    <trkpt lat="38.672513" lon="0.062846"></trkpt>
    <trkpt lat="38.672555" lon="0.062951"></trkpt>
    <trkpt lat="38.672601" lon="0.063053"></trkpt>
    <trkpt lat="38.67265" lon="0.063146"></trkpt>
    <trkpt lat="38.672703" lon="0.063227"></trkpt>
    <trkpt lat="38.672758" lon="0.063292"></trkpt>
    <trkpt lat="38.672886" lon="0.063362"></trkpt>
    <trkpt lat="38.672997" lon="0.063406"></trkpt>
    <trkpt lat="38.673227" lon="0.06336"></trkpt>
    <trkpt lat="38.673308" lon="0.063318"></trkpt>
    <trkpt lat="38.673397" lon="0.063366"></trkpt>
    <trkpt lat="38.673375" lon="0.063568"></trkpt>
    <trkpt lat="38.673257" lon="0.063704"></trkpt>
    <trkpt lat="38.673137" lon="0.063809"></trkpt>
    <trkpt lat="38.67295" lon="0.063862"></trkpt>
    <trkpt lat="38.67288" lon="0.063909"></trkpt>
    <trkpt lat="38.67276" lon="0.064065"></trkpt>
    <trkpt lat="38.672726" lon="0.064166"></trkpt>
    <trkpt lat="38.672553" lon="0.064355"></trkpt>
    <trkpt lat="38.67248" lon="0.064402"></trkpt>
    <trkpt lat="38.672534" lon="0.064645"></trkpt>
    <trkpt lat="38.672608" lon="0.064795"></trkpt>
    <trkpt lat="38.67271" lon="0.064966"></trkpt>
    <trkpt lat="38.672779" lon="0.065015"></trkpt>
    <trkpt lat="38.672791" lon="0.065004"></trkpt>
    <trkpt lat="38.672861" lon="0.064916"></trkpt>
    <trkpt lat="38.672919" lon="0.064885"></trkpt>
    <trkpt lat="38.673019" lon="0.064912"></trkpt>
    <trkpt lat="38.673065" lon="0.064986"></trkpt>
    <trkpt lat="38.673124" lon="0.06512"></trkpt>
    <trkpt lat="38.673265" lon="0.065272"></trkpt>
    <trkpt lat="38.67333" lon="0.065284"></trkpt>
    <trkpt lat="38.6734" lon="0.065259"></trkpt>
    <trkpt lat="38.673471" lon="0.065213"></trkpt>
    <trkpt lat="38.673778" lon="0.064969"></trkpt>
    <trkpt lat="38.674104" lon="0.064623"></trkpt>
    <trkpt lat="38.674292" lon="0.064431"></trkpt>
    <trkpt lat="38.674459" lon="0.064292"></trkpt>
    <trkpt lat="38.674623" lon="0.06417"></trkpt>
    <trkpt lat="38.674786" lon="0.064064"></trkpt>
    <trkpt lat="38.674951" lon="0.063971"></trkpt>
    <trkpt lat="38.675119" lon="0.063889"></trkpt>
    <trkpt lat="38.675293" lon="0.063815"></trkpt>
    <trkpt lat="38.675474" lon="0.063747"></trkpt>
    <trkpt lat="38.675664" lon="0.063683"></trkpt>
    <trkpt lat="38.675841" lon="0.063724"></trkpt>
    <trkpt lat="38.676018" lon="0.063765"></trkpt>
    <trkpt lat="38.676195" lon="0.063807"></trkpt>
    <trkpt lat="38.676371" lon="0.063853"></trkpt>
    <trkpt lat="38.676546" lon="0.063904"></trkpt>
    <trkpt lat="38.676719" lon="0.063962"></trkpt>
    <trkpt lat="38.676891" lon="0.06403"></trkpt>
    <trkpt lat="38.67706" lon="0.064108"></trkpt>
    <trkpt lat="38.677248" lon="0.064144"></trkpt>
    <trkpt lat="38.677546" lon="0.064222"></trkpt>
    <trkpt lat="38.67777" lon="0.064272"></trkpt>
    <trkpt lat="38.677979" lon="0.064307"></trkpt>
    <trkpt lat="38.67827" lon="0.064402"></trkpt>
    <trkpt lat="38.67843" lon="0.064496"></trkpt>
    <trkpt lat="38.678376" lon="0.064991"></trkpt>
    <trkpt lat="38.678265" lon="0.065292"></trkpt>
    <trkpt lat="38.678185" lon="0.065517"></trkpt>
    <trkpt lat="38.678042" lon="0.065678"></trkpt>
    <trkpt lat="38.678347" lon="0.065817"></trkpt>
    <trkpt lat="38.678463" lon="0.066031"></trkpt>
    <trkpt lat="38.678236" lon="0.066336"></trkpt>
    <trkpt lat="38.678011" lon="0.066676"></trkpt>
    <trkpt lat="38.677797" lon="0.066952"></trkpt>
    <trkpt lat="38.677605" lon="0.06713"></trkpt>
    <trkpt lat="38.677544" lon="0.067305"></trkpt>
    <trkpt lat="38.677505" lon="0.067608"></trkpt>
    <trkpt lat="38.677501" lon="0.067759"></trkpt>
    <trkpt lat="38.677523" lon="0.068118"></trkpt>
    <trkpt lat="38.677625" lon="0.068454"></trkpt>
    <trkpt lat="38.677786" lon="0.06871"></trkpt>
    <trkpt lat="38.678002" lon="0.070066"></trkpt>
    <trkpt lat="38.678294" lon="0.071478"></trkpt>
    <trkpt lat="38.679058" lon="0.073334"></trkpt>
    <trkpt lat="38.678664" lon="0.073317"></trkpt>
    <trkpt lat="38.67714" lon="0.072207"></trkpt>
    <trkpt lat="38.676424" lon="0.071902"></trkpt>
    <trkpt lat="38.67597" lon="0.071619"></trkpt>
    <trkpt lat="38.675572" lon="0.07125"></trkpt>
    <trkpt lat="38.675349" lon="0.071018"></trkpt>
    <trkpt lat="38.675218" lon="0.070815"></trkpt>
    <trkpt lat="38.675048" lon="0.070651"></trkpt>
    <trkpt lat="38.674919" lon="0.070405"></trkpt>
    <trkpt lat="38.674859" lon="0.070323"></trkpt>
    <trkpt lat="38.674794" lon="0.07007"></trkpt>
    <trkpt lat="38.674873" lon="0.069882"></trkpt>
    <trkpt lat="38.675159" lon="0.069948"></trkpt>
    <trkpt lat="38.675327" lon="0.070032"></trkpt>
    <trkpt lat="38.675494" lon="0.070061"></trkpt>
    <trkpt lat="38.675608" lon="0.069964"></trkpt>
    <trkpt lat="38.675636" lon="0.069781"></trkpt>
    <trkpt lat="38.675583" lon="0.069253"></trkpt>
    <trkpt lat="38.675478" lon="0.069024"></trkpt>
    <trkpt lat="38.674968" lon="0.06823"></trkpt>
    <trkpt lat="38.674633" lon="0.067592"></trkpt>
    <trkpt lat="38.674097" lon="0.066653"></trkpt>
    <trkpt lat="38.673676" lon="0.065912"></trkpt>
    <trkpt lat="38.67356" lon="0.065717"></trkpt>
    <trkpt lat="38.673098" lon="0.065634"></trkpt>
    <trkpt lat="38.672877" lon="0.065711"></trkpt>
    <trkpt lat="38.67277" lon="0.065926"></trkpt>
    <trkpt lat="38.672812" lon="0.066238"></trkpt>
    <trkpt lat="38.672781" lon="0.066317"></trkpt>
    <trkpt lat="38.672696" lon="0.066437"></trkpt>
    <trkpt lat="38.672611" lon="0.066472"></trkpt>
    <trkpt lat="38.672489" lon="0.066438"></trkpt>
    <trkpt lat="38.672389" lon="0.066255"></trkpt>
  </trkseg></trk>
  <trk><name>SV-07 - Senda Lima - Canaret</name><trkseg>
    <trkpt lat="38.655384" lon="0.047228"></trkpt>
    <trkpt lat="38.655326" lon="0.047114"></trkpt>
    <trkpt lat="38.655152" lon="0.047045"></trkpt>
    <trkpt lat="38.654903" lon="0.046973"></trkpt>
    <trkpt lat="38.654398" lon="0.046927"></trkpt>
    <trkpt lat="38.654097" lon="0.046803"></trkpt>
    <trkpt lat="38.654031" lon="0.046682"></trkpt>
    <trkpt lat="38.653963" lon="0.046544"></trkpt>
    <trkpt lat="38.653891" lon="0.046406"></trkpt>
    <trkpt lat="38.653917" lon="0.046145"></trkpt>
    <trkpt lat="38.653966" lon="0.04607"></trkpt>
    <trkpt lat="38.654069" lon="0.045971"></trkpt>
    <trkpt lat="38.654224" lon="0.045901"></trkpt>
    <trkpt lat="38.654338" lon="0.045846"></trkpt>
    <trkpt lat="38.654416" lon="0.045808"></trkpt>
    <trkpt lat="38.654535" lon="0.045843"></trkpt>
    <trkpt lat="38.654934" lon="0.045693"></trkpt>
    <trkpt lat="38.655122" lon="0.045525"></trkpt>
    <trkpt lat="38.655229" lon="0.045421"></trkpt>
    <trkpt lat="38.655339" lon="0.045258"></trkpt>
    <trkpt lat="38.655365" lon="0.045133"></trkpt>
    <trkpt lat="38.655296" lon="0.044888"></trkpt>
    <trkpt lat="38.655191" lon="0.044839"></trkpt>
    <trkpt lat="38.655127" lon="0.044776"></trkpt>
    <trkpt lat="38.655065" lon="0.044659"></trkpt>
    <trkpt lat="38.654993" lon="0.044519"></trkpt>
    <trkpt lat="38.654917" lon="0.044403"></trkpt>
    <trkpt lat="38.654951" lon="0.044221"></trkpt>
    <trkpt lat="38.655317" lon="0.043599"></trkpt>
    <trkpt lat="38.655295" lon="0.043162"></trkpt>
    <trkpt lat="38.655253" lon="0.042928"></trkpt>
    <trkpt lat="38.655185" lon="0.04279"></trkpt>
    <trkpt lat="38.655059" lon="0.042632"></trkpt>
    <trkpt lat="38.654911" lon="0.042524"></trkpt>
    <trkpt lat="38.654689" lon="0.042577"></trkpt>
    <trkpt lat="38.654573" lon="0.042615"></trkpt>
    <trkpt lat="38.654051" lon="0.042697"></trkpt>
    <trkpt lat="38.653799" lon="0.042799"></trkpt>
    <trkpt lat="38.65335" lon="0.043005"></trkpt>
    <trkpt lat="38.653065" lon="0.043104"></trkpt>
    <trkpt lat="38.652685" lon="0.043274"></trkpt>
    <trkpt lat="38.652395" lon="0.043427"></trkpt>
    <trkpt lat="38.651993" lon="0.043511"></trkpt>
    <trkpt lat="38.651651" lon="0.043566"></trkpt>
    <trkpt lat="38.650976" lon="0.04353"></trkpt>
    <trkpt lat="38.650737" lon="0.043572"></trkpt>
    <trkpt lat="38.650443" lon="0.043666"></trkpt>
    <trkpt lat="38.650187" lon="0.04372"></trkpt>
    <trkpt lat="38.649288" lon="0.04372"></trkpt>
    <trkpt lat="38.649135" lon="0.043621"></trkpt>
    <trkpt lat="38.648583" lon="0.043544"></trkpt>
    <trkpt lat="38.648307" lon="0.043329"></trkpt>
    <trkpt lat="38.647906" lon="0.042385"></trkpt>
    <trkpt lat="38.647808" lon="0.042459"></trkpt>
    <trkpt lat="38.647718" lon="0.042725"></trkpt>
    <trkpt lat="38.647528" lon="0.042684"></trkpt>
    <trkpt lat="38.647332" lon="0.042639"></trkpt>
    <trkpt lat="38.647181" lon="0.042545"></trkpt>
    <trkpt lat="38.647079" lon="0.042287"></trkpt>
    <trkpt lat="38.647131" lon="0.041978"></trkpt>
    <trkpt lat="38.647161" lon="0.041836"></trkpt>
    <trkpt lat="38.647285" lon="0.041583"></trkpt>
    <trkpt lat="38.647575" lon="0.041105"></trkpt>
    <trkpt lat="38.647722" lon="0.040875"></trkpt>
    <trkpt lat="38.647829" lon="0.040647"></trkpt>
    <trkpt lat="38.647884" lon="0.040407"></trkpt>
    <trkpt lat="38.647929" lon="0.040176"></trkpt>
    <trkpt lat="38.648" lon="0.039481"></trkpt>
    <trkpt lat="38.648017" lon="0.038996"></trkpt>
    <trkpt lat="38.648122" lon="0.038533"></trkpt>
    <trkpt lat="38.648156" lon="0.038247"></trkpt>
    <trkpt lat="38.648218" lon="0.038106"></trkpt>
    <trkpt lat="38.648019" lon="0.038002"></trkpt>
    <trkpt lat="38.647992" lon="0.037845"></trkpt>
    <trkpt lat="38.648065" lon="0.037645"></trkpt>
    <trkpt lat="38.648159" lon="0.037253"></trkpt>
    <trkpt lat="38.648526" lon="0.037002"></trkpt>
    <trkpt lat="38.648642" lon="0.037031"></trkpt>
    <trkpt lat="38.648786" lon="0.03694"></trkpt>
    <trkpt lat="38.648903" lon="0.03686"></trkpt>
    <trkpt lat="38.649018" lon="0.036727"></trkpt>
    <trkpt lat="38.649084" lon="0.036617"></trkpt>
    <trkpt lat="38.649019" lon="0.036253"></trkpt>
    <trkpt lat="38.649006" lon="0.036161"></trkpt>
    <trkpt lat="38.649024" lon="0.036058"></trkpt>
    <trkpt lat="38.649081" lon="0.035961"></trkpt>
    <trkpt lat="38.649114" lon="0.035829"></trkpt>
    <trkpt lat="38.64918" lon="0.035663"></trkpt>
    <trkpt lat="38.649237" lon="0.035495"></trkpt>
    <trkpt lat="38.649267" lon="0.035334"></trkpt>
    <trkpt lat="38.649308" lon="0.035211"></trkpt>
    <trkpt lat="38.649386" lon="0.035178"></trkpt>
    <trkpt lat="38.649258" lon="0.034965"></trkpt>
    <trkpt lat="38.649101" lon="0.035027"></trkpt>
    <trkpt lat="38.648996" lon="0.035075"></trkpt>
    <trkpt lat="38.648819" lon="0.035109"></trkpt>
    <trkpt lat="38.648673" lon="0.035061"></trkpt>
    <trkpt lat="38.648423" lon="0.034906"></trkpt>
    <trkpt lat="38.648012" lon="0.034587"></trkpt>
    <trkpt lat="38.647742" lon="0.034299"></trkpt>
    <trkpt lat="38.647502" lon="0.033795"></trkpt>
    <trkpt lat="38.647163" lon="0.033209"></trkpt>
    <trkpt lat="38.646819" lon="0.032564"></trkpt>
    <trkpt lat="38.646674" lon="0.032256"></trkpt>
    <trkpt lat="38.646462" lon="0.031917"></trkpt>
    <trkpt lat="38.646306" lon="0.031777"></trkpt>
    <trkpt lat="38.646201" lon="0.031657"></trkpt>
    <trkpt lat="38.646136" lon="0.031395"></trkpt>
    <trkpt lat="38.64598" lon="0.031136"></trkpt>
    <trkpt lat="38.645756" lon="0.030856"></trkpt>
    <trkpt lat="38.645148" lon="0.030363"></trkpt>
    <trkpt lat="38.645019" lon="0.030089"></trkpt>
    <trkpt lat="38.644884" lon="0.029827"></trkpt>
    <trkpt lat="38.644744" lon="0.029573"></trkpt>
    <trkpt lat="38.6446" lon="0.029326"></trkpt>
    <trkpt lat="38.644454" lon="0.029081"></trkpt>
    <trkpt lat="38.644306" lon="0.028835"></trkpt>
    <trkpt lat="38.644156" lon="0.028586"></trkpt>
    <trkpt lat="38.644007" lon="0.02833"></trkpt>
    <trkpt lat="38.644085" lon="0.027945"></trkpt>
    <trkpt lat="38.644159" lon="0.027777"></trkpt>
    <trkpt lat="38.644336" lon="0.0276"></trkpt>
    <trkpt lat="38.64442" lon="0.027302"></trkpt>
    <trkpt lat="38.644534" lon="0.027135"></trkpt>
    <trkpt lat="38.644636" lon="0.027082"></trkpt>
    <trkpt lat="38.644756" lon="0.027148"></trkpt>
    <trkpt lat="38.644885" lon="0.026829"></trkpt>
    <trkpt lat="38.644812" lon="0.02671"></trkpt>
    <trkpt lat="38.644568" lon="0.026564"></trkpt>
    <trkpt lat="38.644464" lon="0.026384"></trkpt>
    <trkpt lat="38.644294" lon="0.026289"></trkpt>
    <trkpt lat="38.644208" lon="0.026207"></trkpt>
    <trkpt lat="38.644242" lon="0.025724"></trkpt>
    <trkpt lat="38.64429" lon="0.025"></trkpt>
    <trkpt lat="38.644149" lon="0.024814"></trkpt>
    <trkpt lat="38.643895" lon="0.024754"></trkpt>
    <trkpt lat="38.643574" lon="0.024662"></trkpt>
    <trkpt lat="38.643499" lon="0.024616"></trkpt>
    <trkpt lat="38.643433" lon="0.024597"></trkpt>
    <trkpt lat="38.643372" lon="0.024534"></trkpt>
    <trkpt lat="38.643335" lon="0.024469"></trkpt>
    <trkpt lat="38.643314" lon="0.024402"></trkpt>
    <trkpt lat="38.6433" lon="0.024337"></trkpt>
    <trkpt lat="38.643283" lon="0.024275"></trkpt>
    <trkpt lat="38.643255" lon="0.024218"></trkpt>
    <trkpt lat="38.643207" lon="0.024167"></trkpt>
    <trkpt lat="38.64313" lon="0.024126"></trkpt>
    <trkpt lat="38.642998" lon="0.023876"></trkpt>
    <trkpt lat="38.64295" lon="0.023746"></trkpt>
    <trkpt lat="38.642871" lon="0.023548"></trkpt>
    <trkpt lat="38.64276" lon="0.023438"></trkpt>
    <trkpt lat="38.642585" lon="0.023163"></trkpt>
    <trkpt lat="38.642486" lon="0.023038"></trkpt>
    <trkpt lat="38.642253" lon="0.0227"></trkpt>
    <trkpt lat="38.642156" lon="0.022577"></trkpt>
    <trkpt lat="38.641957" lon="0.022614"></trkpt>
    <trkpt lat="38.641799" lon="0.022541"></trkpt>
    <trkpt lat="38.641725" lon="0.022335"></trkpt>
    <trkpt lat="38.641644" lon="0.022158"></trkpt>
    <trkpt lat="38.64163" lon="0.021894"></trkpt>
    <trkpt lat="38.6416" lon="0.021841"></trkpt>
    <trkpt lat="38.641468" lon="0.021834"></trkpt>
    <trkpt lat="38.641348" lon="0.021774"></trkpt>
    <trkpt lat="38.641256" lon="0.021668"></trkpt>
    <trkpt lat="38.641205" lon="0.021599"></trkpt>
    <trkpt lat="38.641146" lon="0.021446"></trkpt>
    <trkpt lat="38.641096" lon="0.02128"></trkpt>
    <trkpt lat="38.641032" lon="0.021023"></trkpt>
    <trkpt lat="38.641008" lon="0.020905"></trkpt>
    <trkpt lat="38.641017" lon="0.020788"></trkpt>
    <trkpt lat="38.641036" lon="0.020639"></trkpt>
    <trkpt lat="38.641024" lon="0.020566"></trkpt>
    <trkpt lat="38.640991" lon="0.020468"></trkpt>
    <trkpt lat="38.640948" lon="0.020406"></trkpt>
    <trkpt lat="38.640753" lon="0.02046"></trkpt>
    <trkpt lat="38.640569" lon="0.020665"></trkpt>
    <trkpt lat="38.640496" lon="0.020726"></trkpt>
    <trkpt lat="38.640527" lon="0.020452"></trkpt>
    <trkpt lat="38.640561" lon="0.020206"></trkpt>
    <trkpt lat="38.640512" lon="0.019996"></trkpt>
    <trkpt lat="38.640582" lon="0.019492"></trkpt>
    <trkpt lat="38.640712" lon="0.019181"></trkpt>
    <trkpt lat="38.640778" lon="0.018631"></trkpt>
    <trkpt lat="38.64091" lon="0.018346"></trkpt>
    <trkpt lat="38.641086" lon="0.01804"></trkpt>
    <trkpt lat="38.640898" lon="0.017251"></trkpt>
    <trkpt lat="38.640754" lon="0.016734"></trkpt>
    <trkpt lat="38.640868" lon="0.015494"></trkpt>
    <trkpt lat="38.640985" lon="0.0152"></trkpt>
    <trkpt lat="38.641404" lon="0.014989"></trkpt>
    <trkpt lat="38.641655" lon="0.014831"></trkpt>
    <trkpt lat="38.641761" lon="0.014695"></trkpt>
    <trkpt lat="38.641998" lon="0.014491"></trkpt>
    <trkpt lat="38.642071" lon="0.014199"></trkpt>
    <trkpt lat="38.642632" lon="0.013586"></trkpt>
    <trkpt lat="38.642741" lon="0.013292"></trkpt>
    <trkpt lat="38.642818" lon="0.013067"></trkpt>
    <trkpt lat="38.642934" lon="0.012817"></trkpt>
    <trkpt lat="38.643024" lon="0.012673"></trkpt>
    <trkpt lat="38.64348" lon="0.012518"></trkpt>
    <trkpt lat="38.643548" lon="0.01236"></trkpt>
    <trkpt lat="38.64362" lon="0.01225"></trkpt>
    <trkpt lat="38.643669" lon="0.012161"></trkpt>
    <trkpt lat="38.643633" lon="0.011999"></trkpt>
    <trkpt lat="38.643567" lon="0.011875"></trkpt>
    <trkpt lat="38.643425" lon="0.011684"></trkpt>
    <trkpt lat="38.643337" lon="0.011608"></trkpt>
    <trkpt lat="38.643352" lon="0.011374"></trkpt>
    <trkpt lat="38.64341" lon="0.011257"></trkpt>
    <trkpt lat="38.6435" lon="0.011183"></trkpt>
    <trkpt lat="38.643677" lon="0.011076"></trkpt>
    <trkpt lat="38.643677" lon="0.011076"></trkpt>
    <trkpt lat="38.644001" lon="0.01136"></trkpt>
    <trkpt lat="38.64451" lon="0.011439"></trkpt>
    <trkpt lat="38.644657" lon="0.011649"></trkpt>
    <trkpt lat="38.644992" lon="0.011563"></trkpt>
    <trkpt lat="38.645064" lon="0.011222"></trkpt>
    <trkpt lat="38.645139" lon="0.011005"></trkpt>
    <trkpt lat="38.645226" lon="0.010537"></trkpt>
    <trkpt lat="38.645434" lon="0.009997"></trkpt>
    <trkpt lat="38.645515" lon="0.009804"></trkpt>
    <trkpt lat="38.645623" lon="0.00968"></trkpt>
    <trkpt lat="38.645795" lon="0.009827"></trkpt>
    <trkpt lat="38.645921" lon="0.010065"></trkpt>
    <trkpt lat="38.646489" lon="0.010224"></trkpt>
    <trkpt lat="38.646883" lon="0.009929"></trkpt>
    <trkpt lat="38.647036" lon="0.009721"></trkpt>
    <trkpt lat="38.64713" lon="0.009574"></trkpt>
    <trkpt lat="38.647222" lon="0.009281"></trkpt>
    <trkpt lat="38.647278" lon="0.008143"></trkpt>
    <trkpt lat="38.6472" lon="0.008034"></trkpt>
    <trkpt lat="38.646942" lon="0.007906"></trkpt>
    <trkpt lat="38.646683" lon="0.007788"></trkpt>
    <trkpt lat="38.64615" lon="0.007695"></trkpt>
    <trkpt lat="38.645925" lon="0.007558"></trkpt>
    <trkpt lat="38.645635" lon="0.007404"></trkpt>
    <trkpt lat="38.645788" lon="0.007024"></trkpt>
    <trkpt lat="38.645853" lon="0.006628"></trkpt>
    <trkpt lat="38.645901" lon="0.006502"></trkpt>
    <trkpt lat="38.645979" lon="0.006394"></trkpt>
    <trkpt lat="38.646065" lon="0.006266"></trkpt>
    <trkpt lat="38.646127" lon="0.005994"></trkpt>
    <trkpt lat="38.646054" lon="0.005795"></trkpt>
    <trkpt lat="38.645958" lon="0.005719"></trkpt>
    <trkpt lat="38.645998" lon="0.005649"></trkpt>
    <trkpt lat="38.646748" lon="0.0054"></trkpt>
    <trkpt lat="38.64689" lon="0.005302"></trkpt>
    <trkpt lat="38.647066" lon="0.005234"></trkpt>
    <trkpt lat="38.647374" lon="0.005173"></trkpt>
    <trkpt lat="38.647516" lon="0.005049"></trkpt>
    <trkpt lat="38.647776" lon="0.004912"></trkpt>
    <trkpt lat="38.647947" lon="0.004796"></trkpt>
    <trkpt lat="38.648047" lon="0.004595"></trkpt>
    <trkpt lat="38.648135" lon="0.004387"></trkpt>
    <trkpt lat="38.648293" lon="0.003617"></trkpt>
    <trkpt lat="38.648392" lon="0.003227"></trkpt>
    <trkpt lat="38.648481" lon="0.002786"></trkpt>
    <trkpt lat="38.64843" lon="0.00235"></trkpt>
    <trkpt lat="38.648454" lon="0.002082"></trkpt>
    <trkpt lat="38.648487" lon="0.001813"></trkpt>
    <trkpt lat="38.648373" lon="0.00137"></trkpt>
    <trkpt lat="38.648231" lon="0.001162"></trkpt>
    <trkpt lat="38.648107" lon="0.001038"></trkpt>
    <trkpt lat="38.648059" lon="0.00095"></trkpt>
    <trkpt lat="38.648094" lon="0.00082"></trkpt>
    <trkpt lat="38.648145" lon="0.000789"></trkpt>
    <trkpt lat="38.648375" lon="0.000845"></trkpt>
    <trkpt lat="38.64844" lon="0.000915"></trkpt>
    <trkpt lat="38.64849" lon="0.000979"></trkpt>
    <trkpt lat="38.64853" lon="0.001039"></trkpt>
    <trkpt lat="38.648568" lon="0.001094"></trkpt>
    <trkpt lat="38.64861" lon="0.001146"></trkpt>
    <trkpt lat="38.648661" lon="0.001195"></trkpt>
    <trkpt lat="38.648728" lon="0.001242"></trkpt>
    <trkpt lat="38.648818" lon="0.001287"></trkpt>
    <trkpt lat="38.64899" lon="0.001246"></trkpt>
    <trkpt lat="38.649047" lon="0.001149"></trkpt>
    <trkpt lat="38.649107" lon="0.000959"></trkpt>
    <trkpt lat="38.649126" lon="0.000778"></trkpt>
    <trkpt lat="38.649146" lon="0.000223"></trkpt>
    <trkpt lat="38.649084" lon="-0.000273"></trkpt>
    <trkpt lat="38.649041" lon="-0.000397"></trkpt>
    <trkpt lat="38.64893" lon="-0.000427"></trkpt>
    <trkpt lat="38.648836" lon="-0.000498"></trkpt>
    <trkpt lat="38.648671" lon="-0.000708"></trkpt>
    <trkpt lat="38.648591" lon="-0.000785"></trkpt>
    <trkpt lat="38.648472" lon="-0.000885"></trkpt>
    <trkpt lat="38.64833" lon="-0.00093"></trkpt>
    <trkpt lat="38.647947" lon="-0.000949"></trkpt>
    <trkpt lat="38.647874" lon="-0.000999"></trkpt>
    <trkpt lat="38.647777" lon="-0.001059"></trkpt>
    <trkpt lat="38.647727" lon="-0.001071"></trkpt>
    <trkpt lat="38.647657" lon="-0.001258"></trkpt>
    <trkpt lat="38.647514" lon="-0.001104"></trkpt>
    <trkpt lat="38.647356" lon="-0.001017"></trkpt>
    <trkpt lat="38.647069" lon="-0.000882"></trkpt>
    <trkpt lat="38.646822" lon="-0.00102"></trkpt>
    <trkpt lat="38.646617" lon="-0.001185"></trkpt>
    <trkpt lat="38.646539" lon="-0.001483"></trkpt>
    <trkpt lat="38.646147" lon="-0.003079"></trkpt>
    <trkpt lat="38.645662" lon="-0.003254"></trkpt>
    <trkpt lat="38.645469" lon="-0.003484"></trkpt>
    <trkpt lat="38.645298" lon="-0.003762"></trkpt>
    <trkpt lat="38.645136" lon="-0.004198"></trkpt>
    <trkpt lat="38.645015" lon="-0.00423"></trkpt>
    <trkpt lat="38.644932" lon="-0.004348"></trkpt>
    <trkpt lat="38.644797" lon="-0.004508"></trkpt>
    <trkpt lat="38.644669" lon="-0.004643"></trkpt>
    <trkpt lat="38.644483" lon="-0.004767"></trkpt>
    <trkpt lat="38.644393" lon="-0.004844"></trkpt>
    <trkpt lat="38.644306" lon="-0.004984"></trkpt>
    <trkpt lat="38.644049" lon="-0.005333"></trkpt>
    <trkpt lat="38.642936" lon="-0.00499"></trkpt>
    <trkpt lat="38.64245" lon="-0.004502"></trkpt>
    <trkpt lat="38.642288" lon="-0.003087"></trkpt>
    <trkpt lat="38.641858" lon="-0.00333"></trkpt>
    <trkpt lat="38.64169" lon="-0.004192"></trkpt>
    <trkpt lat="38.641324" lon="-0.005028"></trkpt>
  </trkseg></trk>
  <trk><name>SV-08 - Senda Amarilla - El Cantal</name><trkseg>
    <trkpt lat="38.65539" lon="0.047245"></trkpt>
    <trkpt lat="38.655459" lon="0.047322"></trkpt>
    <trkpt lat="38.655411" lon="0.047541"></trkpt>
    <trkpt lat="38.655317" lon="0.047673"></trkpt>
    <trkpt lat="38.655234" lon="0.04772"></trkpt>
    <trkpt lat="38.65514" lon="0.047766"></trkpt>
    <trkpt lat="38.655082" lon="0.047807"></trkpt>
    <trkpt lat="38.655064" lon="0.047953"></trkpt>
    <trkpt lat="38.655124" lon="0.048298"></trkpt>
    <trkpt lat="38.655188" lon="0.048626"></trkpt>
    <trkpt lat="38.655256" lon="0.048941"></trkpt>
    <trkpt lat="38.655329" lon="0.049243"></trkpt>
    <trkpt lat="38.655406" lon="0.049535"></trkpt>
    <trkpt lat="38.655487" lon="0.049819"></trkpt>
    <trkpt lat="38.655571" lon="0.050098"></trkpt>
    <trkpt lat="38.655659" lon="0.050373"></trkpt>
    <trkpt lat="38.655723" lon="0.050681"></trkpt>
    <trkpt lat="38.655626" lon="0.05139"></trkpt>
    <trkpt lat="38.655558" lon="0.051694"></trkpt>
    <trkpt lat="38.655474" lon="0.051953"></trkpt>
    <trkpt lat="38.655405" lon="0.05207"></trkpt>
    <trkpt lat="38.655257" lon="0.052363"></trkpt>
    <trkpt lat="38.655121" lon="0.052565"></trkpt>
    <trkpt lat="38.654956" lon="0.052893"></trkpt>
    <trkpt lat="38.65504" lon="0.053144"></trkpt>
    <trkpt lat="38.654891" lon="0.053683"></trkpt>
    <trkpt lat="38.654814" lon="0.053948"></trkpt>
    <trkpt lat="38.654791" lon="0.055144"></trkpt>
    <trkpt lat="38.654625" lon="0.055646"></trkpt>
    <trkpt lat="38.6548" lon="0.056786"></trkpt>
    <trkpt lat="38.654925" lon="0.056968"></trkpt>
    <trkpt lat="38.655779" lon="0.057262"></trkpt>
    <trkpt lat="38.656144" lon="0.057517"></trkpt>
    <trkpt lat="38.656527" lon="0.057781"></trkpt>
    <trkpt lat="38.657257" lon="0.057905"></trkpt>
    <trkpt lat="38.657429" lon="0.058134"></trkpt>
    <trkpt lat="38.657534" lon="0.058222"></trkpt>
    <trkpt lat="38.65781" lon="0.058651"></trkpt>
    <trkpt lat="38.657909" lon="0.058795"></trkpt>
    <trkpt lat="38.657992" lon="0.05905"></trkpt>
    <trkpt lat="38.65805" lon="0.059164"></trkpt>
    <trkpt lat="38.658119" lon="0.059327"></trkpt>
    <trkpt lat="38.658209" lon="0.059437"></trkpt>
    <trkpt lat="38.658344" lon="0.059629"></trkpt>
    <trkpt lat="38.658392" lon="0.059746"></trkpt>
    <trkpt lat="38.658438" lon="0.05981"></trkpt>
    <trkpt lat="38.658494" lon="0.059863"></trkpt>
    <trkpt lat="38.658629" lon="0.059987"></trkpt>
    <trkpt lat="38.658724" lon="0.060027"></trkpt>
    <trkpt lat="38.658889" lon="0.060088"></trkpt>
    <trkpt lat="38.659416" lon="0.060162"></trkpt>
    <trkpt lat="38.659515" lon="0.060304"></trkpt>
    <trkpt lat="38.659685" lon="0.060618"></trkpt>
    <trkpt lat="38.659764" lon="0.060897"></trkpt>
    <trkpt lat="38.659825" lon="0.061101"></trkpt>
    <trkpt lat="38.659975" lon="0.061221"></trkpt>
    <trkpt lat="38.660161" lon="0.061262"></trkpt>
    <trkpt lat="38.660531" lon="0.061345"></trkpt>
    <trkpt lat="38.660651" lon="0.061559"></trkpt>
    <trkpt lat="38.660775" lon="0.061712"></trkpt>
    <trkpt lat="38.660939" lon="0.061875"></trkpt>
    <trkpt lat="38.661235" lon="0.061798"></trkpt>
    <trkpt lat="38.661287" lon="0.061528"></trkpt>
    <trkpt lat="38.661323" lon="0.061437"></trkpt>
    <trkpt lat="38.661269" lon="0.061249"></trkpt>
    <trkpt lat="38.661306" lon="0.061107"></trkpt>
    <trkpt lat="38.661369" lon="0.060988"></trkpt>
    <trkpt lat="38.661628" lon="0.060562"></trkpt>
    <trkpt lat="38.661837" lon="0.060206"></trkpt>
    <trkpt lat="38.661934" lon="0.059993"></trkpt>
    <trkpt lat="38.662023" lon="0.05986"></trkpt>
    <trkpt lat="38.662063" lon="0.059776"></trkpt>
    <trkpt lat="38.662087" lon="0.05969"></trkpt>
    <trkpt lat="38.662109" lon="0.05957"></trkpt>
    <trkpt lat="38.662151" lon="0.059427"></trkpt>
    <trkpt lat="38.662207" lon="0.059367"></trkpt>
    <trkpt lat="38.662303" lon="0.059146"></trkpt>
    <trkpt lat="38.662398" lon="0.058967"></trkpt>
    <trkpt lat="38.662566" lon="0.058681"></trkpt>
    <trkpt lat="38.662764" lon="0.058435"></trkpt>
    <trkpt lat="38.662886" lon="0.058255"></trkpt>
    <trkpt lat="38.662987" lon="0.058125"></trkpt>
    <trkpt lat="38.663268" lon="0.057975"></trkpt>
    <trkpt lat="38.663484" lon="0.057832"></trkpt>
    <trkpt lat="38.663548" lon="0.057703"></trkpt>
    <trkpt lat="38.663812" lon="0.057301"></trkpt>
    <trkpt lat="38.66386" lon="0.057051"></trkpt>
    <trkpt lat="38.663885" lon="0.056934"></trkpt>
    <trkpt lat="38.663978" lon="0.056748"></trkpt>
    <trkpt lat="38.664097" lon="0.056524"></trkpt>
    <trkpt lat="38.664225" lon="0.056325"></trkpt>
    <trkpt lat="38.664367" lon="0.056178"></trkpt>
    <trkpt lat="38.664485" lon="0.056124"></trkpt>
    <trkpt lat="38.664689" lon="0.056019"></trkpt>
    <trkpt lat="38.664856" lon="0.055908"></trkpt>
    <trkpt lat="38.664981" lon="0.055793"></trkpt>
    <trkpt lat="38.665181" lon="0.055683"></trkpt>
    <trkpt lat="38.665321" lon="0.055573"></trkpt>
    <trkpt lat="38.665457" lon="0.055454"></trkpt>
    <trkpt lat="38.665591" lon="0.055331"></trkpt>
    <trkpt lat="38.665725" lon="0.055206"></trkpt>
    <trkpt lat="38.665859" lon="0.055083"></trkpt>
    <trkpt lat="38.665996" lon="0.054966"></trkpt>
    <trkpt lat="38.666137" lon="0.054856"></trkpt>
    <trkpt lat="38.666284" lon="0.054759"></trkpt>
    <trkpt lat="38.666436" lon="0.054722"></trkpt>
    <trkpt lat="38.666587" lon="0.054683"></trkpt>
    <trkpt lat="38.666739" lon="0.054643"></trkpt>
    <trkpt lat="38.666892" lon="0.054604"></trkpt>
    <trkpt lat="38.667044" lon="0.05457"></trkpt>
    <trkpt lat="38.667198" lon="0.054542"></trkpt>
    <trkpt lat="38.667352" lon="0.054523"></trkpt>
    <trkpt lat="38.667507" lon="0.054515"></trkpt>
    <trkpt lat="38.667741" lon="0.054341"></trkpt>
    <trkpt lat="38.667926" lon="0.054192"></trkpt>
    <trkpt lat="38.668287" lon="0.053888"></trkpt>
    <trkpt lat="38.668554" lon="0.053732"></trkpt>
    <trkpt lat="38.668715" lon="0.053626"></trkpt>
    <trkpt lat="38.668917" lon="0.053656"></trkpt>
    <trkpt lat="38.668987" lon="0.053714"></trkpt>
    <trkpt lat="38.669068" lon="0.053859"></trkpt>
  </trkseg></trk>
</gpx>