<?xml version='1.0' encoding='UTF-8'?>
<gpx version="1.1" creator="Sendas Tradicionales de Calp" xmlns="http://www.topografix.com/GPX/1/1"><metadata><name>SV-01 - Senda Roja - La Mola</name></metadata><trk><name>SV-01 - Senda Roja - La Mola</name><trkseg><trkpt lat="38.6552887" lon="0.0471603" /><trkpt lat="38.6551804" lon="0.0471076" /><trkpt lat="38.6550347" lon="0.0470517" /><trkpt lat="38.6548899" lon="0.047016" /><trkpt lat="38.6547726" lon="0.0469972" /><trkpt lat="38.6546636" lon="0.0469905" /><trkpt lat="38.6545045" lon="0.0469811" /><trkpt lat="38.6543845" lon="0.046977" /><trkpt lat="38.6542882" lon="0.0469689" /><trkpt lat="38.6542054" lon="0.0469485" /><trkpt lat="38.6541437" lon="0.0469235" /><trkpt lat="38.6540855" lon="0.0468632" /><trkpt lat="38.6540406" lon="0.046791" /><trkpt lat="38.653992" lon="0.046707" /><trkpt lat="38.6539271" lon="0.0465747" /><trkpt lat="38.653888" lon="0.0465007" /><trkpt lat="38.6538425" lon="0.0464621" /><trkpt lat="38.6538403" lon="0.0464256" /><trkpt lat="38.6538357" lon="0.0463552" /><trkpt lat="38.6538468" lon="0.0462898" /><trkpt lat="38.6538666" lon="0.0462395" /><trkpt lat="38.6539045" lon="0.0461604" /><trkpt lat="38.6539548" lon="0.0460899" /><trkpt lat="38.6540253" lon="0.0460222" /><trkpt lat="38.6540633" lon="0.0459969" /><trkpt lat="38.6541333" lon="0.045967" /><trkpt lat="38.6541888" lon="0.0459514" /><trkpt lat="38.6542576" lon="0.0459315" /><trkpt lat="38.6542965" lon="0.0459137" /><trkpt lat="38.6543433" lon="0.0458871" /><trkpt lat="38.654397" lon="0.045875" /><trkpt lat="38.6544621" lon="0.0458722" /><trkpt lat="38.6545162" lon="0.0458793" /><trkpt lat="38.6545677" lon="0.0458864" /><trkpt lat="38.6546276" lon="0.0458767" /><trkpt lat="38.6546944" lon="0.0458496" /><trkpt lat="38.6547984" lon="0.045795" /><trkpt lat="38.6548584" lon="0.045758" /><trkpt lat="38.6549327" lon="0.0457083" /><trkpt lat="38.6550049" lon="0.0456471" /><trkpt lat="38.6551046" lon="0.0455569" /><trkpt lat="38.6551705" lon="0.0454885" /><trkpt lat="38.6552282" lon="0.0454247" /><trkpt lat="38.6552795" lon="0.0453544" /><trkpt lat="38.6553138" lon="0.0452827" /><trkpt lat="38.655334" lon="0.0452137" /><trkpt lat="38.6553439" lon="0.0451484" /><trkpt lat="38.655352" lon="0.04508" /><trkpt lat="38.6553395" lon="0.0450228" /><trkpt lat="38.6553114" lon="0.0449689" /><trkpt lat="38.6552692" lon="0.0449433" /><trkpt lat="38.6551959" lon="0.0448964" /><trkpt lat="38.655112" lon="0.0448345" /><trkpt lat="38.655086" lon="0.0447899" /><trkpt lat="38.6550638" lon="0.0447425" /><trkpt lat="38.655038" lon="0.0446941" /><trkpt lat="38.6550151" lon="0.0446419" /><trkpt lat="38.6549616" lon="0.044555" /><trkpt lat="38.6549091" lon="0.0444639" /><trkpt lat="38.6548875" lon="0.044407" /><trkpt lat="38.654883" lon="0.0443599" /><trkpt lat="38.6548963" lon="0.0443238" /><trkpt lat="38.6549173" lon="0.0442804" /><trkpt lat="38.6550782" lon="0.0440063" /><trkpt lat="38.6552498" lon="0.0437126" /><trkpt lat="38.6552803" lon="0.0436551" /><trkpt lat="38.6552958" lon="0.0436013" /><trkpt lat="38.6553053" lon="0.0435382" /><trkpt lat="38.6552966" lon="0.0434536" /><trkpt lat="38.6552791" lon="0.04329" /><trkpt lat="38.6552635" lon="0.0431666" /><trkpt lat="38.6552503" lon="0.0430736" /><trkpt lat="38.6552286" lon="0.042984" /><trkpt lat="38.6551953" lon="0.0428926" /><trkpt lat="38.6553182" lon="0.0424696" /><trkpt lat="38.6558183" lon="0.0421871" /><trkpt lat="38.6559675" lon="0.0421156" /><trkpt lat="38.656023" lon="0.0420673" /><trkpt lat="38.6560503" lon="0.0420405" /><trkpt lat="38.6560676" lon="0.0420322" /><trkpt lat="38.6562642" lon="0.0417788" /><trkpt lat="38.6563216" lon="0.0417204" /><trkpt lat="38.6567213" lon="0.0412387" /><trkpt lat="38.6568963" lon="0.0410124" /><trkpt lat="38.6570701" lon="0.0407953" /><trkpt lat="38.6571058" lon="0.0407373" /><trkpt lat="38.6571339" lon="0.0406823" /><trkpt lat="38.6571803" lon="0.0405915" /><trkpt lat="38.6572542" lon="0.0404539" /><trkpt lat="38.6573993" lon="0.0401634" /><trkpt lat="38.6574418" lon="0.0400711" /><trkpt lat="38.6574742" lon="0.0399747" /><trkpt lat="38.6575159" lon="0.0398821" /><trkpt lat="38.6575435" lon="0.0398255" /><trkpt lat="38.6575826" lon="0.039751" /><trkpt lat="38.6576092" lon="0.0396902" /><trkpt lat="38.6576332" lon="0.0396254" /><trkpt lat="38.6576521" lon="0.0395691" /><trkpt lat="38.6576625" lon="0.0395137" /><trkpt lat="38.657689" lon="0.0394115" /><trkpt lat="38.6577082" lon="0.039355" /><trkpt lat="38.6577196" lon="0.0392763" /><trkpt lat="38.6577291" lon="0.0392118" /><trkpt lat="38.657728" lon="0.0391565" /><trkpt lat="38.6577099" lon="0.0390928" /><trkpt lat="38.6576932" lon="0.0390184" /><trkpt lat="38.6576775" lon="0.0389189" /><trkpt lat="38.6576769" lon="0.0388836" /><trkpt lat="38.6576775" lon="0.038854" /><trkpt lat="38.657702" lon="0.0387478" /><trkpt lat="38.6577452" lon="0.0386814" /><trkpt lat="38.6577893" lon="0.0386012" /><trkpt lat="38.6578156" lon="0.0385772" /><trkpt lat="38.6578528" lon="0.0385926" /><trkpt lat="38.6579084" lon="0.0386358" /><trkpt lat="38.6581329" lon="0.0387788" /><trkpt lat="38.6581673" lon="0.0388056" /><trkpt lat="38.6581968" lon="0.0388117" /><trkpt lat="38.6582184" lon="0.0387927" /><trkpt lat="38.6582319" lon="0.0387766" /><trkpt lat="38.6582368" lon="0.0387328" /><trkpt lat="38.6582302" lon="0.0386383" /><trkpt lat="38.6582352" lon="0.0385289" /><trkpt lat="38.6582665" lon="0.0382598" /><trkpt lat="38.6582749" lon="0.0382025" /><trkpt lat="38.6583084" lon="0.0380684" /><trkpt lat="38.658455" lon="0.0379236" /><trkpt lat="38.6586058" lon="0.0378163" /><trkpt lat="38.6588362" lon="0.0377519" /><trkpt lat="38.6590917" lon="0.0377305" /><trkpt lat="38.6593999" lon="0.0376917" /><trkpt lat="38.6595584" lon="0.0376296" /><trkpt lat="38.6597817" lon="0.03749" /><trkpt lat="38.6600144" lon="0.0373147" /><trkpt lat="38.660375" lon="0.0371103" /><trkpt lat="38.6604668" lon="0.0370152" /><trkpt lat="38.6604911" lon="0.0368644" /><trkpt lat="38.6604741" lon="0.0367273" /><trkpt lat="38.6604565" lon="0.0365694" /><trkpt lat="38.660433" lon="0.036283" /><trkpt lat="38.6604071" lon="0.0359143" /><trkpt lat="38.6601728" lon="0.0351663" /><trkpt lat="38.6602667" lon="0.0349571" /><trkpt lat="38.6603762" lon="0.034808" /><trkpt lat="38.6604742" lon="0.0347224" /><trkpt lat="38.6605519" lon="0.0346725" /><trkpt lat="38.6605618" lon="0.0341451" /><trkpt lat="38.6605673" lon="0.034082" /><trkpt lat="38.6606126" lon="0.034044" /><trkpt lat="38.66067" lon="0.03402" /><trkpt lat="38.660749" lon="0.033997" /><trkpt lat="38.661585" lon="0.033986" /><trkpt lat="38.6616577" lon="0.0339643" /><trkpt lat="38.6617665" lon="0.0338406" /><trkpt lat="38.661782" lon="0.033807" /><trkpt lat="38.6619243" lon="0.0332889" /><trkpt lat="38.662007" lon="0.033082" /><trkpt lat="38.662197" lon="0.032778" /><trkpt lat="38.662238" lon="0.032677" /><trkpt lat="38.66227" lon="0.032535" /><trkpt lat="38.6622758" lon="0.0323888" /><trkpt lat="38.6622541" lon="0.0322316" /><trkpt lat="38.662334" lon="0.032134" /><trkpt lat="38.662403" lon="0.032113" /><trkpt lat="38.662548" lon="0.032132" /><trkpt lat="38.662766" lon="0.032197" /><trkpt lat="38.662873" lon="0.032171" /><trkpt lat="38.662917" lon="0.032108" /><trkpt lat="38.662919" lon="0.032003" /><trkpt lat="38.662885" lon="0.031923" /><trkpt lat="38.662716" lon="0.03167" /><trkpt lat="38.66267" lon="0.031539" /><trkpt lat="38.662641" lon="0.031324" /><trkpt lat="38.6626109" lon="0.0311189" /><trkpt lat="38.6626954" lon="0.0311241" /><trkpt lat="38.6627608" lon="0.0311391" /><trkpt lat="38.6628176" lon="0.0310742" /><trkpt lat="38.6628875" lon="0.0311307" /><trkpt lat="38.6629433" lon="0.0311179" /><trkpt lat="38.6630074" lon="0.0308447" /><trkpt lat="38.6629466" lon="0.0307013" /><trkpt lat="38.6629319" lon="0.0306039" /><trkpt lat="38.6629418" lon="0.0305912" /><trkpt lat="38.6630144" lon="0.0306058" /><trkpt lat="38.6630245" lon="0.0305288" /><trkpt lat="38.6629859" lon="0.0303906" /><trkpt lat="38.6630262" lon="0.0303441" /><trkpt lat="38.6630119" lon="0.0302799" /><trkpt lat="38.6629203" lon="0.0297993" /><trkpt lat="38.6629342" lon="0.0297302" /><trkpt lat="38.6629661" lon="0.0296866" /><trkpt lat="38.6629519" lon="0.0296185" /><trkpt lat="38.6628086" lon="0.0295299" /><trkpt lat="38.662704" lon="0.0294949" /><trkpt lat="38.6624161" lon="0.0292655" /><trkpt lat="38.6623755" lon="0.0291921" /><trkpt lat="38.6623373" lon="0.0291187" /><trkpt lat="38.6622744" lon="0.0289923" /><trkpt lat="38.6621279" lon="0.0288241" /><trkpt lat="38.6618539" lon="0.0290816" /><trkpt lat="38.661824" lon="0.0293722" /><trkpt lat="38.6618005" lon="0.0296005" /><trkpt lat="38.6617413" lon="0.0296877" /><trkpt lat="38.6615556" lon="0.0299216" /><trkpt lat="38.6614921" lon="0.0299777" /><trkpt lat="38.661368" lon="0.030128" /><trkpt lat="38.6613471" lon="0.0300393" /><trkpt lat="38.6614142" lon="0.0297934" /><trkpt lat="38.661341" lon="0.0297505" /><trkpt lat="38.6613228" lon="0.0296451" /><trkpt lat="38.6612252" lon="0.0296802" /><trkpt lat="38.6611186" lon="0.0296646" /><trkpt lat="38.661042" lon="0.0296906" /><trkpt lat="38.6609048" lon="0.0297317" /><trkpt lat="38.6608565" lon="0.029688" /><trkpt lat="38.6608047" lon="0.0296373" /><trkpt lat="38.6608352" lon="0.0295046" /><trkpt lat="38.6607955" lon="0.029368" /><trkpt lat="38.6608291" lon="0.0292392" /><trkpt lat="38.6607255" lon="0.0291338" /><trkpt lat="38.6607128" lon="0.029012" /><trkpt lat="38.6605462" lon="0.0289483" /><trkpt lat="38.6605282" lon="0.0288951" /><trkpt lat="38.660609" lon="0.0288671" /><trkpt lat="38.6605869" lon="0.0287325" /><trkpt lat="38.660552" lon="0.0286011" /><trkpt lat="38.6605424" lon="0.028383" /><trkpt lat="38.6605284" lon="0.0280578" /><trkpt lat="38.6604052" lon="0.0277026" /><trkpt lat="38.6603442" lon="0.0274891" /><trkpt lat="38.660155" lon="0.0272332" /><trkpt lat="38.6597713" lon="0.0270499" /><trkpt lat="38.6596717" lon="0.0270768" /><trkpt lat="38.6596397" lon="0.0269333" /><trkpt lat="38.6595425" lon="0.0268722" /><trkpt lat="38.6594543" lon="0.0265781" /><trkpt lat="38.659432" lon="0.0263999" /><trkpt lat="38.6593908" lon="0.026339" /><trkpt lat="38.6593127" lon="0.0263217" /><trkpt lat="38.6590854" lon="0.026308" /></trkseg></trk></gpx>