<?xml version='1.0' encoding='UTF-8'?>
<gpx version="1.1" creator="Sendas Tradicionales de Calp" xmlns="http://www.topografix.com/GPX/1/1"><metadata><name>SV-05 - Senda Azul - Les Salines</name></metadata><trk><name>SV-05 - Senda Azul - Les Salines</name><trkseg><trkpt lat="38.655341" lon="0.047177" /><trkpt lat="38.65614" lon="0.0474" /><trkpt lat="38.656729" lon="0.047519" /><trkpt lat="38.657037" lon="0.047787" /><trkpt lat="38.657227" lon="0.047964" /><trkpt lat="38.657354" lon="0.04827" /><trkpt lat="38.657517" lon="0.048528" /><trkpt lat="38.657726" lon="0.048709" /><trkpt lat="38.657886" lon="0.048842" /><trkpt lat="38.658051" lon="0.0489" /><trkpt lat="38.658231" lon="0.048971" /><trkpt lat="38.658553" lon="0.048963" /><trkpt lat="38.65885" lon="0.048932" /><trkpt lat="38.659044" lon="0.048895" /><trkpt lat="38.659371" lon="0.048864" /><trkpt lat="38.659511" lon="0.04882" /><trkpt lat="38.659734" lon="0.048801" /><trkpt lat="38.659956" lon="0.048763" /><trkpt lat="38.660083" lon="0.048739" /><trkpt lat="38.660177" lon="0.04873" /><trkpt lat="38.660294" lon="0.048669" /><trkpt lat="38.660424" lon="0.048635" /><trkpt lat="38.660555" lon="0.048581" /><trkpt lat="38.660642" lon="0.048471" /><trkpt lat="38.660732" lon="0.048484" /><trkpt lat="38.660826" lon="0.048651" /><trkpt lat="38.660921" lon="0.048722" /><trkpt lat="38.661" lon="0.048838" /><trkpt lat="38.661144" lon="0.049279" /><trkpt lat="38.661302" lon="0.049562" /><trkpt lat="38.661459" lon="0.049736" /><trkpt lat="38.66255" lon="0.049921" /><trkpt lat="38.662797" lon="0.050195" /><trkpt lat="38.662928" lon="0.050411" /><trkpt lat="38.663037" lon="0.050589" /><trkpt lat="38.663305" lon="0.050853" /><trkpt lat="38.663338" lon="0.05031" /><trkpt lat="38.663468" lon="0.050418" /><trkpt lat="38.663504" lon="0.050383" /><trkpt lat="38.663654" lon="0.05046" /><trkpt lat="38.66386" lon="0.050532" /><trkpt lat="38.664094" lon="0.050566" /><trkpt lat="38.664177" lon="0.050604" /><trkpt lat="38.664202" lon="0.05062" /><trkpt lat="38.664387" lon="0.050683" /><trkpt lat="38.664534" lon="0.050699" /><trkpt lat="38.665035" lon="0.050424" /><trkpt lat="38.665336" lon="0.050246" /><trkpt lat="38.665548" lon="0.050192" /><trkpt lat="38.665832" lon="0.050324" /><trkpt lat="38.666012" lon="0.050474" /><trkpt lat="38.666212" lon="0.050559" /><trkpt lat="38.666341" lon="0.050605" /><trkpt lat="38.666413" lon="0.050329" /><trkpt lat="38.666587" lon="0.050305" /><trkpt lat="38.66668" lon="0.050401" /><trkpt lat="38.666729" lon="0.050555" /><trkpt lat="38.666862" lon="0.050618" /><trkpt lat="38.666938" lon="0.050736" /><trkpt lat="38.667026" lon="0.050925" /><trkpt lat="38.667086" lon="0.050572" /><trkpt lat="38.667153" lon="0.050419" /><trkpt lat="38.667359" lon="0.050036" /><trkpt lat="38.667527" lon="0.050025" /><trkpt lat="38.667736" lon="0.050077" /><trkpt lat="38.667873" lon="0.050123" /><trkpt lat="38.668009" lon="0.050144" /><trkpt lat="38.668315" lon="0.05018" /><trkpt lat="38.66837" lon="0.050219" /><trkpt lat="38.668409" lon="0.050288" /><trkpt lat="38.668492" lon="0.050367" /><trkpt lat="38.668552" lon="0.050409" /><trkpt lat="38.668738" lon="0.050547" /><trkpt lat="38.669094" lon="0.050183" /><trkpt lat="38.669375" lon="0.049887" /><trkpt lat="38.669484" lon="0.049814" /><trkpt lat="38.6696" lon="0.049746" /><trkpt lat="38.669721" lon="0.049684" /><trkpt lat="38.669845" lon="0.049629" /><trkpt lat="38.669971" lon="0.04958" /><trkpt lat="38.670097" lon="0.049537" /><trkpt lat="38.670222" lon="0.049502" /><trkpt lat="38.670343" lon="0.049474" /><trkpt lat="38.670453" lon="0.049494" /><trkpt lat="38.670735" lon="0.049356" /><trkpt lat="38.670915" lon="0.049276" /><trkpt lat="38.671472" lon="0.049025" /><trkpt lat="38.671889" lon="0.04884" /><trkpt lat="38.671777" lon="0.049589" /><trkpt lat="38.671708" lon="0.050005" /><trkpt lat="38.671621" lon="0.050222" /><trkpt lat="38.671568" lon="0.050387" /><trkpt lat="38.671643" lon="0.050768" /><trkpt lat="38.671753" lon="0.050907" /><trkpt lat="38.672445" lon="0.051599" /><trkpt lat="38.672381" lon="0.052628" /><trkpt lat="38.672297" lon="0.052677" /><trkpt lat="38.671968" lon="0.052895" /><trkpt lat="38.671913" lon="0.052919" /><trkpt lat="38.671777" lon="0.052878" /><trkpt lat="38.671605" lon="0.052802" /><trkpt lat="38.671499" lon="0.052743" /><trkpt lat="38.671418" lon="0.052725" /><trkpt lat="38.671171" lon="0.052752" /><trkpt lat="38.671057" lon="0.052778" /><trkpt lat="38.670982" lon="0.052822" /><trkpt lat="38.670857" lon="0.052878" /><trkpt lat="38.670698" lon="0.052914" /><trkpt lat="38.670524" lon="0.052977" /><trkpt lat="38.670152" lon="0.053143" /><trkpt lat="38.669958" lon="0.053245" /><trkpt lat="38.669881" lon="0.053302" /><trkpt lat="38.669809" lon="0.053409" /><trkpt lat="38.66968" lon="0.053733" /><trkpt lat="38.66956" lon="0.053966" /><trkpt lat="38.669491" lon="0.054059" /><trkpt lat="38.669421" lon="0.054081" /><trkpt lat="38.669316" lon="0.054054" /><trkpt lat="38.669188" lon="0.054003" /><trkpt lat="38.669108" lon="0.053933" /><trkpt lat="38.669079" lon="0.053888" /><trkpt lat="38.669055" lon="0.053938" /><trkpt lat="38.669028" lon="0.054002" /><trkpt lat="38.668967" lon="0.054068" /><trkpt lat="38.668895" lon="0.054173" /><trkpt lat="38.668833" lon="0.054297" /><trkpt lat="38.668771" lon="0.054423" /><trkpt lat="38.66862" lon="0.054721" /><trkpt lat="38.668576" lon="0.054801" /><trkpt lat="38.668464" lon="0.054963" /><trkpt lat="38.668397" lon="0.055046" /><trkpt lat="38.668361" lon="0.055103" /><trkpt lat="38.668328" lon="0.055168" /><trkpt lat="38.668313" lon="0.055254" /><trkpt lat="38.668343" lon="0.055408" /><trkpt lat="38.66841" lon="0.055622" /><trkpt lat="38.668499" lon="0.055832" /><trkpt lat="38.668562" lon="0.055973" /><trkpt lat="38.668579" lon="0.056072" /><trkpt lat="38.668611" lon="0.056209" /><trkpt lat="38.66866" lon="0.056336" /><trkpt lat="38.668727" lon="0.056418" /><trkpt lat="38.668748" lon="0.05643" /><trkpt lat="38.668727" lon="0.056467" /><trkpt lat="38.668668" lon="0.056501" /><trkpt lat="38.668608" lon="0.056552" /><trkpt lat="38.668568" lon="0.056622" /><trkpt lat="38.668445" lon="0.05696" /><trkpt lat="38.668285" lon="0.057447" /><trkpt lat="38.668165" lon="0.057831" /><trkpt lat="38.668088" lon="0.058046" /><trkpt lat="38.66799" lon="0.058393" /><trkpt lat="38.667976" lon="0.058671" /><trkpt lat="38.66794" lon="0.059221" /><trkpt lat="38.667905" lon="0.059602" /><trkpt lat="38.667873" lon="0.059674" /><trkpt lat="38.668058" lon="0.059922" /><trkpt lat="38.668044" lon="0.059966" /><trkpt lat="38.668036" lon="0.060783" /><trkpt lat="38.66795" lon="0.061265" /><trkpt lat="38.667937" lon="0.061409" /><trkpt lat="38.667927" lon="0.062312" /><trkpt lat="38.667919" lon="0.062453" /><trkpt lat="38.667869" lon="0.062608" /><trkpt lat="38.667774" lon="0.062836" /><trkpt lat="38.667743" lon="0.062912" /><trkpt lat="38.667781" lon="0.063042" /><trkpt lat="38.667781" lon="0.063042" /><trkpt lat="38.667837" lon="0.063147" /><trkpt lat="38.667942" lon="0.063225" /><trkpt lat="38.668105" lon="0.063133" /><trkpt lat="38.668217" lon="0.063185" /></trkseg></trk></gpx>