<?xml version='1.0' encoding='UTF-8'?>
<gpx version="1.1" creator="Sendas Tradicionales de Calp" xmlns="http://www.topografix.com/GPX/1/1"><metadata><name>SV-04 - Senda Naranja - Sella d'Olta</name></metadata><trk><name>SV-04 - Senda Naranja - Sella d'Olta</name><trkseg><trkpt lat="38.66819" lon="0.063096" /><trkpt lat="38.668576" lon="0.062881" /><trkpt lat="38.66973" lon="0.063024" /><trkpt lat="38.66997" lon="0.063146" /><trkpt lat="38.670008" lon="0.063134" /><trkpt lat="38.670072" lon="0.063105" /><trkpt lat="38.670107" lon="0.063126" /><trkpt lat="38.670219" lon="0.06316" /><trkpt lat="38.670296" lon="0.06321" /><trkpt lat="38.670496" lon="0.063336" /><trkpt lat="38.670841" lon="0.063546" /><trkpt lat="38.671005" lon="0.063646" /><trkpt lat="38.670973" lon="0.063808" /><trkpt lat="38.670871" lon="0.064065" /><trkpt lat="38.670846" lon="0.064238" /><trkpt lat="38.670889" lon="0.064424" /><trkpt lat="38.67095" lon="0.064509" /><trkpt lat="38.671056" lon="0.064527" /><trkpt lat="38.671147" lon="0.064494" /><trkpt lat="38.671193" lon="0.064526" /><trkpt lat="38.671413" lon="0.065074" /><trkpt lat="38.671548" lon="0.065384" /><trkpt lat="38.671687" lon="0.065585" /><trkpt lat="38.672102" lon="0.066016" /><trkpt lat="38.672325" lon="0.066236" /><trkpt lat="38.672359" lon="0.066524" /><trkpt lat="38.672413" lon="0.066709" /><trkpt lat="38.672504" lon="0.066836" /><trkpt lat="38.67261" lon="0.066953" /><trkpt lat="38.672698" lon="0.06703" /><trkpt lat="38.672711" lon="0.067095" /><trkpt lat="38.672658" lon="0.067199" /><trkpt lat="38.672597" lon="0.067345" /><trkpt lat="38.672515" lon="0.067497" /><trkpt lat="38.672424" lon="0.067668" /><trkpt lat="38.672329" lon="0.067852" /><trkpt lat="38.672198" lon="0.067976" /><trkpt lat="38.672089" lon="0.068122" /><trkpt lat="38.671929" lon="0.068371" /><trkpt lat="38.6718" lon="0.068214" /><trkpt lat="38.671728" lon="0.06808" /><trkpt lat="38.671677" lon="0.067978" /><trkpt lat="38.671622" lon="0.067895" /><trkpt lat="38.671527" lon="0.067824" /><trkpt lat="38.671428" lon="0.067769" /><trkpt lat="38.6712" lon="0.067805" /><trkpt lat="38.67114" lon="0.067759" /><trkpt lat="38.67105" lon="0.067529" /><trkpt lat="38.670902" lon="0.067246" /><trkpt lat="38.670536" lon="0.066884" /><trkpt lat="38.670423" lon="0.06681" /><trkpt lat="38.670306" lon="0.066771" /><trkpt lat="38.670226" lon="0.066847" /><trkpt lat="38.67025" lon="0.066956" /><trkpt lat="38.669803" lon="0.06633" /><trkpt lat="38.669709" lon="0.066017" /><trkpt lat="38.669572" lon="0.065724" /><trkpt lat="38.669477" lon="0.065587" /><trkpt lat="38.669658" lon="0.065263" /><trkpt lat="38.669734" lon="0.064944" /><trkpt lat="38.669873" lon="0.064479" /><trkpt lat="38.669933" lon="0.063954" /><trkpt lat="38.669787" lon="0.063834" /><trkpt lat="38.669413" lon="0.063542" /><trkpt lat="38.669128" lon="0.063369" /></trkseg></trk></gpx>