<?xml version='1.0' encoding='UTF-8'?>
<gpx version="1.1" creator="Sendas Tradicionales de Calp" xmlns="http://www.topografix.com/GPX/1/1"><metadata><name>SV-02 - Senda Magenta - Llebeig</name></metadata><trk><name>SV-02 - Senda Magenta - Llebeig</name><trkseg><trkpt lat="38.655346" lon="0.047137" /><trkpt lat="38.655168" lon="0.047052" /><trkpt lat="38.654857" lon="0.046963" /><trkpt lat="38.654325" lon="0.046923" /><trkpt lat="38.654217" lon="0.046889" /><trkpt lat="38.654087" lon="0.046804" /><trkpt lat="38.654035" lon="0.046701" /><trkpt lat="38.653971" lon="0.04657" /><trkpt lat="38.653891" lon="0.046413" /><trkpt lat="38.653873" lon="0.046295" /><trkpt lat="38.653886" lon="0.046221" /><trkpt lat="38.65392" lon="0.046135" /><trkpt lat="38.654011" lon="0.046024" /><trkpt lat="38.654127" lon="0.045939" /><trkpt lat="38.654277" lon="0.045887" /><trkpt lat="38.654427" lon="0.045811" /><trkpt lat="38.654611" lon="0.045849" /><trkpt lat="38.654796" lon="0.045769" /><trkpt lat="38.654988" lon="0.045642" /><trkpt lat="38.65513" lon="0.04552" /><trkpt lat="38.655247" lon="0.045396" /><trkpt lat="38.655321" lon="0.045281" /><trkpt lat="38.655351" lon="0.045195" /><trkpt lat="38.655374" lon="0.045043" /><trkpt lat="38.655347" lon="0.044947" /><trkpt lat="38.655195" lon="0.044836" /><trkpt lat="38.655107" lon="0.044752" /><trkpt lat="38.655024" lon="0.044574" /><trkpt lat="38.654921" lon="0.044407" /><trkpt lat="38.654912" lon="0.044347" /><trkpt lat="38.65492" lon="0.044279" /><trkpt lat="38.654962" lon="0.044209" /><trkpt lat="38.655207" lon="0.043791" /><trkpt lat="38.655315" lon="0.043592" /><trkpt lat="38.65533" lon="0.043496" /><trkpt lat="38.655276" lon="0.043034" /><trkpt lat="38.655245" lon="0.042912" /><trkpt lat="38.65519" lon="0.042797" /><trkpt lat="38.655112" lon="0.042696" /><trkpt lat="38.654998" lon="0.042584" /><trkpt lat="38.654905" lon="0.042522" /><trkpt lat="38.655084" lon="0.04249" /><trkpt lat="38.655213" lon="0.04247" /><trkpt lat="38.655433" lon="0.042364" /><trkpt lat="38.655729" lon="0.042204" /><trkpt lat="38.656036" lon="0.042034" /><trkpt lat="38.656136" lon="0.041991" /><trkpt lat="38.656205" lon="0.041927" /><trkpt lat="38.656263" lon="0.041867" /><trkpt lat="38.656331" lon="0.041832" /><trkpt lat="38.656512" lon="0.041769" /><trkpt lat="38.656603" lon="0.041756" /><trkpt lat="38.656667" lon="0.041792" /><trkpt lat="38.656793" lon="0.041921" /><trkpt lat="38.656848" lon="0.041938" /><trkpt lat="38.656914" lon="0.041901" /><trkpt lat="38.65716" lon="0.041729" /><trkpt lat="38.657273" lon="0.041666" /><trkpt lat="38.657405" lon="0.041546" /><trkpt lat="38.657505" lon="0.041481" /><trkpt lat="38.657631" lon="0.041342" /><trkpt lat="38.657739" lon="0.041304" /><trkpt lat="38.657848" lon="0.041232" /><trkpt lat="38.65795" lon="0.041201" /><trkpt lat="38.65824" lon="0.041121" /><trkpt lat="38.658297" lon="0.041092" /><trkpt lat="38.659426" lon="0.040913" /><trkpt lat="38.659564" lon="0.040852" /><trkpt lat="38.659788" lon="0.040988" /><trkpt lat="38.659982" lon="0.041285" /><trkpt lat="38.659999" lon="0.041494" /><trkpt lat="38.65988" lon="0.041858" /><trkpt lat="38.660017" lon="0.042033" /><trkpt lat="38.660335" lon="0.042175" /><trkpt lat="38.66046" lon="0.042435" /><trkpt lat="38.660493" lon="0.042504" /><trkpt lat="38.660539" lon="0.042604" /><trkpt lat="38.660578" lon="0.042689" /><trkpt lat="38.6606" lon="0.042736" /><trkpt lat="38.660648" lon="0.042839" /><trkpt lat="38.66071" lon="0.042973" /><trkpt lat="38.660784" lon="0.043067" /><trkpt lat="38.660803" lon="0.043168" /><trkpt lat="38.660898" lon="0.04328" /><trkpt lat="38.660974" lon="0.043436" /><trkpt lat="38.661134" lon="0.043587" /><trkpt lat="38.661396" lon="0.043928" /><trkpt lat="38.661589" lon="0.044083" /><trkpt lat="38.661639" lon="0.044231" /><trkpt lat="38.661948" lon="0.044592" /><trkpt lat="38.661856" lon="0.045043" /><trkpt lat="38.661772" lon="0.045168" /><trkpt lat="38.661745" lon="0.045422" /><trkpt lat="38.661738" lon="0.045575" /><trkpt lat="38.661684" lon="0.045728" /><trkpt lat="38.661672" lon="0.04584" /><trkpt lat="38.661669" lon="0.0462" /><trkpt lat="38.661754" lon="0.046313" /><trkpt lat="38.661908" lon="0.046514" /><trkpt lat="38.661852" lon="0.046798" /><trkpt lat="38.661822" lon="0.047286" /><trkpt lat="38.661752" lon="0.047548" /><trkpt lat="38.661728" lon="0.047639" /><trkpt lat="38.661751" lon="0.047714" /><trkpt lat="38.66183" lon="0.047844" /><trkpt lat="38.661906" lon="0.047968" /><trkpt lat="38.66216" lon="0.048305" /><trkpt lat="38.662359" lon="0.048531" /><trkpt lat="38.663374" lon="0.049771" /><trkpt lat="38.663504" lon="0.050383" /><trkpt lat="38.663654" lon="0.05046" /><trkpt lat="38.66386" lon="0.050532" /><trkpt lat="38.664094" lon="0.050566" /><trkpt lat="38.664177" lon="0.050604" /><trkpt lat="38.664202" lon="0.05062" /><trkpt lat="38.664387" lon="0.050683" /><trkpt lat="38.664534" lon="0.050699" /><trkpt lat="38.665035" lon="0.050424" /><trkpt lat="38.665336" lon="0.050246" /><trkpt lat="38.665548" lon="0.050192" /><trkpt lat="38.665832" lon="0.050324" /><trkpt lat="38.666012" lon="0.050474" /><trkpt lat="38.666212" lon="0.050559" /><trkpt lat="38.666341" lon="0.050605" /><trkpt lat="38.666413" lon="0.050329" /><trkpt lat="38.666587" lon="0.050305" /><trkpt lat="38.66668" lon="0.050401" /><trkpt lat="38.666729" lon="0.050555" /><trkpt lat="38.666862" lon="0.050618" /><trkpt lat="38.666938" lon="0.050736" /><trkpt lat="38.667026" lon="0.050925" /><trkpt lat="38.667086" lon="0.050572" /><trkpt lat="38.667153" lon="0.050419" /><trkpt lat="38.667359" lon="0.050036" /><trkpt lat="38.667527" lon="0.050025" /><trkpt lat="38.667736" lon="0.050077" /><trkpt lat="38.667873" lon="0.050123" /><trkpt lat="38.668009" lon="0.050144" /><trkpt lat="38.668315" lon="0.05018" /><trkpt lat="38.66837" lon="0.050219" /><trkpt lat="38.668409" lon="0.050288" /><trkpt lat="38.668492" lon="0.050367" /><trkpt lat="38.668552" lon="0.050409" /><trkpt lat="38.668738" lon="0.050547" /><trkpt lat="38.669094" lon="0.050183" /><trkpt lat="38.669375" lon="0.049887" /><trkpt lat="38.669484" lon="0.049814" /><trkpt lat="38.6696" lon="0.049746" /><trkpt lat="38.669721" lon="0.049684" /><trkpt lat="38.669845" lon="0.049629" /><trkpt lat="38.669971" lon="0.04958" /><trkpt lat="38.670097" lon="0.049537" /><trkpt lat="38.670222" lon="0.049502" /><trkpt lat="38.670343" lon="0.049474" /><trkpt lat="38.670453" lon="0.049494" /><trkpt lat="38.670735" lon="0.049356" /><trkpt lat="38.670915" lon="0.049276" /><trkpt lat="38.671472" lon="0.049025" /><trkpt lat="38.671889" lon="0.04884" /><trkpt lat="38.671777" lon="0.049589" /><trkpt lat="38.671708" lon="0.050005" /><trkpt lat="38.671621" lon="0.050222" /><trkpt lat="38.671568" lon="0.050387" /><trkpt lat="38.671643" lon="0.050768" /><trkpt lat="38.671753" lon="0.050907" /><trkpt lat="38.672445" lon="0.051599" /><trkpt lat="38.672381" lon="0.052628" /><trkpt lat="38.672297" lon="0.052677" /><trkpt lat="38.671968" lon="0.052895" /><trkpt lat="38.671913" lon="0.052919" /><trkpt lat="38.671777" lon="0.052878" /><trkpt lat="38.671605" lon="0.052802" /><trkpt lat="38.671499" lon="0.052743" /><trkpt lat="38.671418" lon="0.052725" /><trkpt lat="38.671171" lon="0.052752" /><trkpt lat="38.671057" lon="0.052778" /><trkpt lat="38.670982" lon="0.052822" /><trkpt lat="38.670857" lon="0.052878" /><trkpt lat="38.670698" lon="0.052914" /><trkpt lat="38.670524" lon="0.052977" /><trkpt lat="38.670152" lon="0.053143" /><trkpt lat="38.669958" lon="0.053245" /><trkpt lat="38.669881" lon="0.053302" /><trkpt lat="38.669809" lon="0.053409" /><trkpt lat="38.66968" lon="0.053733" /><trkpt lat="38.66956" lon="0.053966" /><trkpt lat="38.669491" lon="0.054059" /><trkpt lat="38.669421" lon="0.054081" /><trkpt lat="38.669316" lon="0.054054" /><trkpt lat="38.669188" lon="0.054003" /><trkpt lat="38.669108" lon="0.053933" /><trkpt lat="38.669079" lon="0.053888" /><trkpt lat="38.669055" lon="0.053938" /><trkpt lat="38.669028" lon="0.054002" /><trkpt lat="38.668967" lon="0.054068" /><trkpt lat="38.668895" lon="0.054173" /><trkpt lat="38.668833" lon="0.054297" /><trkpt lat="38.668771" lon="0.054423" /><trkpt lat="38.66862" lon="0.054721" /><trkpt lat="38.668576" lon="0.054801" /><trkpt lat="38.668464" lon="0.054963" /><trkpt lat="38.668397" lon="0.055046" /><trkpt lat="38.668361" lon="0.055103" /><trkpt lat="38.668328" lon="0.055168" /><trkpt lat="38.668313" lon="0.055254" /><trkpt lat="38.668343" lon="0.055408" /><trkpt lat="38.66841" lon="0.055622" /><trkpt lat="38.668499" lon="0.055832" /><trkpt lat="38.668562" lon="0.055973" /><trkpt lat="38.668579" lon="0.056072" /><trkpt lat="38.668611" lon="0.056209" /><trkpt lat="38.66866" lon="0.056336" /><trkpt lat="38.668727" lon="0.056418" /><trkpt lat="38.668748" lon="0.05643" /><trkpt lat="38.668727" lon="0.056467" /><trkpt lat="38.668668" lon="0.056501" /><trkpt lat="38.668608" lon="0.056552" /><trkpt lat="38.668568" lon="0.056622" /><trkpt lat="38.668445" lon="0.05696" /><trkpt lat="38.668285" lon="0.057447" /><trkpt lat="38.668165" lon="0.057831" /><trkpt lat="38.668088" lon="0.058046" /><trkpt lat="38.66799" lon="0.058393" /><trkpt lat="38.667976" lon="0.058671" /><trkpt lat="38.66794" lon="0.059221" /><trkpt lat="38.667905" lon="0.059602" /><trkpt lat="38.667873" lon="0.059674" /><trkpt lat="38.668058" lon="0.059922" /><trkpt lat="38.668044" lon="0.059966" /><trkpt lat="38.668036" lon="0.060783" /><trkpt lat="38.66795" lon="0.061265" /><trkpt lat="38.667937" lon="0.061409" /><trkpt lat="38.667927" lon="0.062312" /><trkpt lat="38.667919" lon="0.062453" /><trkpt lat="38.667869" lon="0.062608" /><trkpt lat="38.667774" lon="0.062836" /><trkpt lat="38.667743" lon="0.062912" /><trkpt lat="38.667781" lon="0.063042" /><trkpt lat="38.667781" lon="0.063042" /><trkpt lat="38.667837" lon="0.063147" /><trkpt lat="38.667942" lon="0.063225" /><trkpt lat="38.668105" lon="0.063133" /><trkpt lat="38.668217" lon="0.063185" /></trkseg></trk></gpx>