<?xml version='1.0' encoding='UTF-8'?>
<gpx version="1.1" creator="Sendas Tradicionales de Calp" xmlns="http://www.topografix.com/GPX/1/1"><metadata><name>SV-03 - Senda Morada - Morro de Toix</name></metadata><trk><name>SV-03 - Senda Morada - Morro de Toix</name><trkseg><trkpt lat="38.640976" lon="0.015154" /><trkpt lat="38.64104" lon="0.014889" /><trkpt lat="38.641096" lon="0.014583" /><trkpt lat="38.641157" lon="0.013603" /><trkpt lat="38.6409" lon="0.013468" /><trkpt lat="38.640603" lon="0.013412" /><trkpt lat="38.640258" lon="0.01336" /><trkpt lat="38.639708" lon="0.013649" /><trkpt lat="38.639487" lon="0.013408" /><trkpt lat="38.639566" lon="0.013135" /><trkpt lat="38.639612" lon="0.012936" /><trkpt lat="38.63963" lon="0.012739" /><trkpt lat="38.63959" lon="0.012645" /><trkpt lat="38.639507" lon="0.012605" /><trkpt lat="38.63942" lon="0.012652" /><trkpt lat="38.639353" lon="0.012721" /><trkpt lat="38.639162" lon="0.012867" /><trkpt lat="38.63903" lon="0.012982" /><trkpt lat="38.638916" lon="0.013078" /><trkpt lat="38.63886" lon="0.013054" /><trkpt lat="38.63889" lon="0.012985" /><trkpt lat="38.639032" lon="0.012838" /><trkpt lat="38.63914" lon="0.012646" /><trkpt lat="38.639213" lon="0.012473" /><trkpt lat="38.639228" lon="0.012307" /><trkpt lat="38.639198" lon="0.012148" /><trkpt lat="38.639174" lon="0.012096" /><trkpt lat="38.639186" lon="0.011993" /><trkpt lat="38.639169" lon="0.011836" /><trkpt lat="38.639114" lon="0.011629" /><trkpt lat="38.639052" lon="0.011595" /><trkpt lat="38.638983" lon="0.011646" /><trkpt lat="38.638962" lon="0.011718" /><trkpt lat="38.638929" lon="0.011831" /><trkpt lat="38.638826" lon="0.012168" /><trkpt lat="38.638715" lon="0.012207" /><trkpt lat="38.638611" lon="0.01225" /><trkpt lat="38.638567" lon="0.012166" /><trkpt lat="38.638478" lon="0.01183" /><trkpt lat="38.638447" lon="0.011644" /><trkpt lat="38.638413" lon="0.011601" /><trkpt lat="38.638373" lon="0.011571" /><trkpt lat="38.638284" lon="0.011533" /><trkpt lat="38.638198" lon="0.011474" /><trkpt lat="38.638115" lon="0.011431" /><trkpt lat="38.637863" lon="0.011205" /><trkpt lat="38.637822" lon="0.011148" /><trkpt lat="38.637848" lon="0.011038" /><trkpt lat="38.637869" lon="0.010959" /><trkpt lat="38.637766" lon="0.010976" /><trkpt lat="38.637735" lon="0.010943" /><trkpt lat="38.637767" lon="0.010854" /><trkpt lat="38.637802" lon="0.010741" /><trkpt lat="38.637828" lon="0.010684" /><trkpt lat="38.637872" lon="0.010629" /><trkpt lat="38.63792" lon="0.010498" /><trkpt lat="38.637943" lon="0.010407" /><trkpt lat="38.637905" lon="0.010338" /><trkpt lat="38.637759" lon="0.010373" /><trkpt lat="38.637648" lon="0.010363" /><trkpt lat="38.637623" lon="0.010284" /><trkpt lat="38.637604" lon="0.010199" /><trkpt lat="38.637553" lon="0.010131" /><trkpt lat="38.637487" lon="0.010022" /><trkpt lat="38.637521" lon="0.009794" /><trkpt lat="38.637692" lon="0.009603" /><trkpt lat="38.637784" lon="0.009458" /><trkpt lat="38.637672" lon="0.009402" /><trkpt lat="38.637714" lon="0.009317" /><trkpt lat="38.637911" lon="0.009365" /></trkseg></trk></gpx>