<?xml version='1.0' encoding='UTF-8'?>
<gpx version="1.1" creator="Sendas Tradicionales de Calp" xmlns="http://www.topografix.com/GPX/1/1"><metadata><name>SV-07 - Senda Lima - Canaret</name></metadata><trk><name>SV-07 - Senda Lima - Canaret</name><trkseg><trkpt lat="38.655384" lon="0.047228" /><trkpt lat="38.655326" lon="0.047114" /><trkpt lat="38.655152" lon="0.047045" /><trkpt lat="38.654903" lon="0.046973" /><trkpt lat="38.654398" lon="0.046927" /><trkpt lat="38.654097" lon="0.046803" /><trkpt lat="38.654031" lon="0.046682" /><trkpt lat="38.653963" lon="0.046544" /><trkpt lat="38.653891" lon="0.046406" /><trkpt lat="38.653917" lon="0.046145" /><trkpt lat="38.653966" lon="0.04607" /><trkpt lat="38.654069" lon="0.045971" /><trkpt lat="38.654224" lon="0.045901" /><trkpt lat="38.654338" lon="0.045846" /><trkpt lat="38.654416" lon="0.045808" /><trkpt lat="38.654535" lon="0.045843" /><trkpt lat="38.654934" lon="0.045693" /><trkpt lat="38.655122" lon="0.045525" /><trkpt lat="38.655229" lon="0.045421" /><trkpt lat="38.655339" lon="0.045258" /><trkpt lat="38.655365" lon="0.045133" /><trkpt lat="38.655296" lon="0.044888" /><trkpt lat="38.655191" lon="0.044839" /><trkpt lat="38.655127" lon="0.044776" /><trkpt lat="38.655065" lon="0.044659" /><trkpt lat="38.654993" lon="0.044519" /><trkpt lat="38.654917" lon="0.044403" /><trkpt lat="38.654951" lon="0.044221" /><trkpt lat="38.655317" lon="0.043599" /><trkpt lat="38.655295" lon="0.043162" /><trkpt lat="38.655253" lon="0.042928" /><trkpt lat="38.655185" lon="0.04279" /><trkpt lat="38.655059" lon="0.042632" /><trkpt lat="38.654911" lon="0.042524" /><trkpt lat="38.654689" lon="0.042577" /><trkpt lat="38.654573" lon="0.042615" /><trkpt lat="38.654051" lon="0.042697" /><trkpt lat="38.653799" lon="0.042799" /><trkpt lat="38.65335" lon="0.043005" /><trkpt lat="38.653065" lon="0.043104" /><trkpt lat="38.652685" lon="0.043274" /><trkpt lat="38.652395" lon="0.043427" /><trkpt lat="38.651993" lon="0.043511" /><trkpt lat="38.651651" lon="0.043566" /><trkpt lat="38.650976" lon="0.04353" /><trkpt lat="38.650737" lon="0.043572" /><trkpt lat="38.650443" lon="0.043666" /><trkpt lat="38.650187" lon="0.04372" /><trkpt lat="38.649288" lon="0.04372" /><trkpt lat="38.649135" lon="0.043621" /><trkpt lat="38.648583" lon="0.043544" /><trkpt lat="38.648307" lon="0.043329" /><trkpt lat="38.647906" lon="0.042385" /><trkpt lat="38.647808" lon="0.042459" /><trkpt lat="38.647718" lon="0.042725" /><trkpt lat="38.647528" lon="0.042684" /><trkpt lat="38.647332" lon="0.042639" /><trkpt lat="38.647181" lon="0.042545" /><trkpt lat="38.647079" lon="0.042287" /><trkpt lat="38.647131" lon="0.041978" /><trkpt lat="38.647161" lon="0.041836" /><trkpt lat="38.647285" lon="0.041583" /><trkpt lat="38.647575" lon="0.041105" /><trkpt lat="38.647722" lon="0.040875" /><trkpt lat="38.647829" lon="0.040647" /><trkpt lat="38.647884" lon="0.040407" /><trkpt lat="38.647929" lon="0.040176" /><trkpt lat="38.648" lon="0.039481" /><trkpt lat="38.648017" lon="0.038996" /><trkpt lat="38.648122" lon="0.038533" /><trkpt lat="38.648156" lon="0.038247" /><trkpt lat="38.648218" lon="0.038106" /><trkpt lat="38.648019" lon="0.038002" /><trkpt lat="38.647992" lon="0.037845" /><trkpt lat="38.648065" lon="0.037645" /><trkpt lat="38.648159" lon="0.037253" /><trkpt lat="38.648526" lon="0.037002" /><trkpt lat="38.648642" lon="0.037031" /><trkpt lat="38.648786" lon="0.03694" /><trkpt lat="38.648903" lon="0.03686" /><trkpt lat="38.649018" lon="0.036727" /><trkpt lat="38.649084" lon="0.036617" /><trkpt lat="38.649019" lon="0.036253" /><trkpt lat="38.649006" lon="0.036161" /><trkpt lat="38.649024" lon="0.036058" /><trkpt lat="38.649081" lon="0.035961" /><trkpt lat="38.649114" lon="0.035829" /><trkpt lat="38.64918" lon="0.035663" /><trkpt lat="38.649237" lon="0.035495" /><trkpt lat="38.649267" lon="0.035334" /><trkpt lat="38.649308" lon="0.035211" /><trkpt lat="38.649386" lon="0.035178" /><trkpt lat="38.649258" lon="0.034965" /><trkpt lat="38.649101" lon="0.035027" /><trkpt lat="38.648996" lon="0.035075" /><trkpt lat="38.648819" lon="0.035109" /><trkpt lat="38.648673" lon="0.035061" /><trkpt lat="38.648423" lon="0.034906" /><trkpt lat="38.648012" lon="0.034587" /><trkpt lat="38.647742" lon="0.034299" /><trkpt lat="38.647502" lon="0.033795" /><trkpt lat="38.647163" lon="0.033209" /><trkpt lat="38.646819" lon="0.032564" /><trkpt lat="38.646674" lon="0.032256" /><trkpt lat="38.646462" lon="0.031917" /><trkpt lat="38.646306" lon="0.031777" /><trkpt lat="38.646201" lon="0.031657" /><trkpt lat="38.646136" lon="0.031395" /><trkpt lat="38.64598" lon="0.031136" /><trkpt lat="38.645756" lon="0.030856" /><trkpt lat="38.645148" lon="0.030363" /><trkpt lat="38.645019" lon="0.030089" /><trkpt lat="38.644884" lon="0.029827" /><trkpt lat="38.644744" lon="0.029573" /><trkpt lat="38.6446" lon="0.029326" /><trkpt lat="38.644454" lon="0.029081" /><trkpt lat="38.644306" lon="0.028835" /><trkpt lat="38.644156" lon="0.028586" /><trkpt lat="38.644007" lon="0.02833" /><trkpt lat="38.644085" lon="0.027945" /><trkpt lat="38.644159" lon="0.027777" /><trkpt lat="38.644336" lon="0.0276" /><trkpt lat="38.64442" lon="0.027302" /><trkpt lat="38.644534" lon="0.027135" /><trkpt lat="38.644636" lon="0.027082" /><trkpt lat="38.644756" lon="0.027148" /><trkpt lat="38.644885" lon="0.026829" /><trkpt lat="38.644812" lon="0.02671" /><trkpt lat="38.644568" lon="0.026564" /><trkpt lat="38.644464" lon="0.026384" /><trkpt lat="38.644294" lon="0.026289" /><trkpt lat="38.644208" lon="0.026207" /><trkpt lat="38.644242" lon="0.025724" /><trkpt lat="38.64429" lon="0.025" /><trkpt lat="38.644149" lon="0.024814" /><trkpt lat="38.643895" lon="0.024754" /><trkpt lat="38.643574" lon="0.024662" /><trkpt lat="38.643499" lon="0.024616" /><trkpt lat="38.643433" lon="0.024597" /><trkpt lat="38.643372" lon="0.024534" /><trkpt lat="38.643335" lon="0.024469" /><trkpt lat="38.643314" lon="0.024402" /><trkpt lat="38.6433" lon="0.024337" /><trkpt lat="38.643283" lon="0.024275" /><trkpt lat="38.643255" lon="0.024218" /><trkpt lat="38.643207" lon="0.024167" /><trkpt lat="38.64313" lon="0.024126" /><trkpt lat="38.642998" lon="0.023876" /><trkpt lat="38.64295" lon="0.023746" /><trkpt lat="38.642871" lon="0.023548" /><trkpt lat="38.64276" lon="0.023438" /><trkpt lat="38.642585" lon="0.023163" /><trkpt lat="38.642486" lon="0.023038" /><trkpt lat="38.642253" lon="0.0227" /><trkpt lat="38.642156" lon="0.022577" /><trkpt lat="38.641957" lon="0.022614" /><trkpt lat="38.641799" lon="0.022541" /><trkpt lat="38.641725" lon="0.022335" /><trkpt lat="38.641644" lon="0.022158" /><trkpt lat="38.64163" lon="0.021894" /><trkpt lat="38.6416" lon="0.021841" /><trkpt lat="38.641468" lon="0.021834" /><trkpt lat="38.641348" lon="0.021774" /><trkpt lat="38.641256" lon="0.021668" /><trkpt lat="38.641205" lon="0.021599" /><trkpt lat="38.641146" lon="0.021446" /><trkpt lat="38.641096" lon="0.02128" /><trkpt lat="38.641032" lon="0.021023" /><trkpt lat="38.641008" lon="0.020905" /><trkpt lat="38.641017" lon="0.020788" /><trkpt lat="38.641036" lon="0.020639" /><trkpt lat="38.641024" lon="0.020566" /><trkpt lat="38.640991" lon="0.020468" /><trkpt lat="38.640948" lon="0.020406" /><trkpt lat="38.640753" lon="0.02046" /><trkpt lat="38.640569" lon="0.020665" /><trkpt lat="38.640496" lon="0.020726" /><trkpt lat="38.640527" lon="0.020452" /><trkpt lat="38.640561" lon="0.020206" /><trkpt lat="38.640512" lon="0.019996" /><trkpt lat="38.640582" lon="0.019492" /><trkpt lat="38.640712" lon="0.019181" /><trkpt lat="38.640778" lon="0.018631" /><trkpt lat="38.64091" lon="0.018346" /><trkpt lat="38.641086" lon="0.01804" /><trkpt lat="38.640898" lon="0.017251" /><trkpt lat="38.640754" lon="0.016734" /><trkpt lat="38.640868" lon="0.015494" /><trkpt lat="38.640985" lon="0.0152" /><trkpt lat="38.641404" lon="0.014989" /><trkpt lat="38.641655" lon="0.014831" /><trkpt lat="38.641761" lon="0.014695" /><trkpt lat="38.641998" lon="0.014491" /><trkpt lat="38.642071" lon="0.014199" /><trkpt lat="38.642632" lon="0.013586" /><trkpt lat="38.642741" lon="0.013292" /><trkpt lat="38.642818" lon="0.013067" /><trkpt lat="38.642934" lon="0.012817" /><trkpt lat="38.643024" lon="0.012673" /><trkpt lat="38.64348" lon="0.012518" /><trkpt lat="38.643548" lon="0.01236" /><trkpt lat="38.64362" lon="0.01225" /><trkpt lat="38.643669" lon="0.012161" /><trkpt lat="38.643633" lon="0.011999" /><trkpt lat="38.643567" lon="0.011875" /><trkpt lat="38.643425" lon="0.011684" /><trkpt lat="38.643337" lon="0.011608" /><trkpt lat="38.643352" lon="0.011374" /><trkpt lat="38.64341" lon="0.011257" /><trkpt lat="38.6435" lon="0.011183" /><trkpt lat="38.643677" lon="0.011076" /><trkpt lat="38.643677" lon="0.011076" /><trkpt lat="38.644001" lon="0.01136" /><trkpt lat="38.64451" lon="0.011439" /><trkpt lat="38.644657" lon="0.011649" /><trkpt lat="38.644992" lon="0.011563" /><trkpt lat="38.645064" lon="0.011222" /><trkpt lat="38.645139" lon="0.011005" /><trkpt lat="38.645226" lon="0.010537" /><trkpt lat="38.645434" lon="0.009997" /><trkpt lat="38.645515" lon="0.009804" /><trkpt lat="38.645623" lon="0.00968" /><trkpt lat="38.645795" lon="0.009827" /><trkpt lat="38.645921" lon="0.010065" /><trkpt lat="38.646489" lon="0.010224" /><trkpt lat="38.646883" lon="0.009929" /><trkpt lat="38.647036" lon="0.009721" /><trkpt lat="38.64713" lon="0.009574" /><trkpt lat="38.647222" lon="0.009281" /><trkpt lat="38.647278" lon="0.008143" /><trkpt lat="38.6472" lon="0.008034" /><trkpt lat="38.646942" lon="0.007906" /><trkpt lat="38.646683" lon="0.007788" /><trkpt lat="38.64615" lon="0.007695" /><trkpt lat="38.645925" lon="0.007558" /><trkpt lat="38.645635" lon="0.007404" /><trkpt lat="38.645788" lon="0.007024" /><trkpt lat="38.645853" lon="0.006628" /><trkpt lat="38.645901" lon="0.006502" /><trkpt lat="38.645979" lon="0.006394" /><trkpt lat="38.646065" lon="0.006266" /><trkpt lat="38.646127" lon="0.005994" /><trkpt lat="38.646054" lon="0.005795" /><trkpt lat="38.645958" lon="0.005719" /><trkpt lat="38.645998" lon="0.005649" /><trkpt lat="38.646748" lon="0.0054" /><trkpt lat="38.64689" lon="0.005302" /><trkpt lat="38.647066" lon="0.005234" /><trkpt lat="38.647374" lon="0.005173" /><trkpt lat="38.647516" lon="0.005049" /><trkpt lat="38.647776" lon="0.004912" /><trkpt lat="38.647947" lon="0.004796" /><trkpt lat="38.648047" lon="0.004595" /><trkpt lat="38.648135" lon="0.004387" /><trkpt lat="38.648293" lon="0.003617" /><trkpt lat="38.648392" lon="0.003227" /><trkpt lat="38.648481" lon="0.002786" /><trkpt lat="38.64843" lon="0.00235" /><trkpt lat="38.648454" lon="0.002082" /><trkpt lat="38.648487" lon="0.001813" /><trkpt lat="38.648373" lon="0.00137" /><trkpt lat="38.648231" lon="0.001162" /><trkpt lat="38.648107" lon="0.001038" /><trkpt lat="38.648059" lon="0.00095" /><trkpt lat="38.648094" lon="0.00082" /><trkpt lat="38.648145" lon="0.000789" /><trkpt lat="38.648375" lon="0.000845" /><trkpt lat="38.64844" lon="0.000915" /><trkpt lat="38.64849" lon="0.000979" /><trkpt lat="38.64853" lon="0.001039" /><trkpt lat="38.648568" lon="0.001094" /><trkpt lat="38.64861" lon="0.001146" /><trkpt lat="38.648661" lon="0.001195" /><trkpt lat="38.648728" lon="0.001242" /><trkpt lat="38.648818" lon="0.001287" /><trkpt lat="38.64899" lon="0.001246" /><trkpt lat="38.649047" lon="0.001149" /><trkpt lat="38.649107" lon="0.000959" /><trkpt lat="38.649126" lon="0.000778" /><trkpt lat="38.649146" lon="0.000223" /><trkpt lat="38.649084" lon="-0.000273" /><trkpt lat="38.649041" lon="-0.000397" /><trkpt lat="38.64893" lon="-0.000427" /><trkpt lat="38.648836" lon="-0.000498" /><trkpt lat="38.648671" lon="-0.000708" /><trkpt lat="38.648591" lon="-0.000785" /><trkpt lat="38.648472" lon="-0.000885" /><trkpt lat="38.64833" lon="-0.00093" /><trkpt lat="38.647947" lon="-0.000949" /><trkpt lat="38.647874" lon="-0.000999" /><trkpt lat="38.647777" lon="-0.001059" /><trkpt lat="38.647727" lon="-0.001071" /><trkpt lat="38.647657" lon="-0.001258" /><trkpt lat="38.647514" lon="-0.001104" /><trkpt lat="38.647356" lon="-0.001017" /><trkpt lat="38.647069" lon="-0.000882" /><trkpt lat="38.646822" lon="-0.00102" /><trkpt lat="38.646617" lon="-0.001185" /><trkpt lat="38.646539" lon="-0.001483" /><trkpt lat="38.646147" lon="-0.003079" /><trkpt lat="38.645662" lon="-0.003254" /><trkpt lat="38.645469" lon="-0.003484" /><trkpt lat="38.645298" lon="-0.003762" /><trkpt lat="38.645136" lon="-0.004198" /><trkpt lat="38.645015" lon="-0.00423" /><trkpt lat="38.644932" lon="-0.004348" /><trkpt lat="38.644797" lon="-0.004508" /><trkpt lat="38.644669" lon="-0.004643" /><trkpt lat="38.644483" lon="-0.004767" /><trkpt lat="38.644393" lon="-0.004844" /><trkpt lat="38.644306" lon="-0.004984" /><trkpt lat="38.644049" lon="-0.005333" /><trkpt lat="38.642936" lon="-0.00499" /><trkpt lat="38.64245" lon="-0.004502" /><trkpt lat="38.642288" lon="-0.003087" /><trkpt lat="38.641858" lon="-0.00333" /><trkpt lat="38.64169" lon="-0.004192" /><trkpt lat="38.641324" lon="-0.005028" /></trkseg></trk></gpx>