<?xml version='1.0' encoding='UTF-8'?>
<gpx version="1.1" creator="Sendas Tradicionales de Calp" xmlns="http://www.topografix.com/GPX/1/1"><metadata><name>SV-06 - Senda Verde - Cap Blanc</name></metadata><trk><name>SV-06 - Senda Verde - Cap Blanc</name><trkseg><trkpt lat="38.670035" lon="0.063085" /><trkpt lat="38.670194" lon="0.062726" /><trkpt lat="38.670304" lon="0.062462" /><trkpt lat="38.670459" lon="0.062307" /><trkpt lat="38.670641" lon="0.062173" /><trkpt lat="38.670727" lon="0.062131" /><trkpt lat="38.671647" lon="0.061985" /><trkpt lat="38.672053" lon="0.062027" /><trkpt lat="38.672103" lon="0.06236" /><trkpt lat="38.672159" lon="0.062448" /><trkpt lat="38.672315" lon="0.0625" /><trkpt lat="38.672411" lon="0.062554" /><trkpt lat="38.672441" lon="0.062643" /><trkpt lat="38.672475" lon="0.062742" /><trkpt lat="38.672513" lon="0.062846" /><trkpt lat="38.672555" lon="0.062951" /><trkpt lat="38.672601" lon="0.063053" /><trkpt lat="38.67265" lon="0.063146" /><trkpt lat="38.672703" lon="0.063227" /><trkpt lat="38.672758" lon="0.063292" /><trkpt lat="38.672886" lon="0.063362" /><trkpt lat="38.672997" lon="0.063406" /><trkpt lat="38.673227" lon="0.06336" /><trkpt lat="38.673308" lon="0.063318" /><trkpt lat="38.673397" lon="0.063366" /><trkpt lat="38.673375" lon="0.063568" /><trkpt lat="38.673257" lon="0.063704" /><trkpt lat="38.673137" lon="0.063809" /><trkpt lat="38.67295" lon="0.063862" /><trkpt lat="38.67288" lon="0.063909" /><trkpt lat="38.67276" lon="0.064065" /><trkpt lat="38.672726" lon="0.064166" /><trkpt lat="38.672553" lon="0.064355" /><trkpt lat="38.67248" lon="0.064402" /><trkpt lat="38.672534" lon="0.064645" /><trkpt lat="38.672608" lon="0.064795" /><trkpt lat="38.67271" lon="0.064966" /><trkpt lat="38.672779" lon="0.065015" /><trkpt lat="38.672791" lon="0.065004" /><trkpt lat="38.672861" lon="0.064916" /><trkpt lat="38.672919" lon="0.064885" /><trkpt lat="38.673019" lon="0.064912" /><trkpt lat="38.673065" lon="0.064986" /><trkpt lat="38.673124" lon="0.06512" /><trkpt lat="38.673265" lon="0.065272" /><trkpt lat="38.67333" lon="0.065284" /><trkpt lat="38.6734" lon="0.065259" /><trkpt lat="38.673471" lon="0.065213" /><trkpt lat="38.673778" lon="0.064969" /><trkpt lat="38.674104" lon="0.064623" /><trkpt lat="38.674292" lon="0.064431" /><trkpt lat="38.674459" lon="0.064292" /><trkpt lat="38.674623" lon="0.06417" /><trkpt lat="38.674786" lon="0.064064" /><trkpt lat="38.674951" lon="0.063971" /><trkpt lat="38.675119" lon="0.063889" /><trkpt lat="38.675293" lon="0.063815" /><trkpt lat="38.675474" lon="0.063747" /><trkpt lat="38.675664" lon="0.063683" /><trkpt lat="38.675841" lon="0.063724" /><trkpt lat="38.676018" lon="0.063765" /><trkpt lat="38.676195" lon="0.063807" /><trkpt lat="38.676371" lon="0.063853" /><trkpt lat="38.676546" lon="0.063904" /><trkpt lat="38.676719" lon="0.063962" /><trkpt lat="38.676891" lon="0.06403" /><trkpt lat="38.67706" lon="0.064108" /><trkpt lat="38.677248" lon="0.064144" /><trkpt lat="38.677546" lon="0.064222" /><trkpt lat="38.67777" lon="0.064272" /><trkpt lat="38.677979" lon="0.064307" /><trkpt lat="38.67827" lon="0.064402" /><trkpt lat="38.67843" lon="0.064496" /><trkpt lat="38.678376" lon="0.064991" /><trkpt lat="38.678265" lon="0.065292" /><trkpt lat="38.678185" lon="0.065517" /><trkpt lat="38.678042" lon="0.065678" /><trkpt lat="38.678347" lon="0.065817" /><trkpt lat="38.678463" lon="0.066031" /><trkpt lat="38.678236" lon="0.066336" /><trkpt lat="38.678011" lon="0.066676" /><trkpt lat="38.677797" lon="0.066952" /><trkpt lat="38.677605" lon="0.06713" /><trkpt lat="38.677544" lon="0.067305" /><trkpt lat="38.677505" lon="0.067608" /><trkpt lat="38.677501" lon="0.067759" /><trkpt lat="38.677523" lon="0.068118" /><trkpt lat="38.677625" lon="0.068454" /><trkpt lat="38.677786" lon="0.06871" /><trkpt lat="38.678002" lon="0.070066" /><trkpt lat="38.678294" lon="0.071478" /><trkpt lat="38.679058" lon="0.073334" /><trkpt lat="38.678664" lon="0.073317" /><trkpt lat="38.67714" lon="0.072207" /><trkpt lat="38.676424" lon="0.071902" /><trkpt lat="38.67597" lon="0.071619" /><trkpt lat="38.675572" lon="0.07125" /><trkpt lat="38.675349" lon="0.071018" /><trkpt lat="38.675218" lon="0.070815" /><trkpt lat="38.675048" lon="0.070651" /><trkpt lat="38.674919" lon="0.070405" /><trkpt lat="38.674859" lon="0.070323" /><trkpt lat="38.674794" lon="0.07007" /><trkpt lat="38.674873" lon="0.069882" /><trkpt lat="38.675159" lon="0.069948" /><trkpt lat="38.675327" lon="0.070032" /><trkpt lat="38.675494" lon="0.070061" /><trkpt lat="38.675608" lon="0.069964" /><trkpt lat="38.675636" lon="0.069781" /><trkpt lat="38.675583" lon="0.069253" /><trkpt lat="38.675478" lon="0.069024" /><trkpt lat="38.674968" lon="0.06823" /><trkpt lat="38.674633" lon="0.067592" /><trkpt lat="38.674097" lon="0.066653" /><trkpt lat="38.673676" lon="0.065912" /><trkpt lat="38.67356" lon="0.065717" /><trkpt lat="38.673098" lon="0.065634" /><trkpt lat="38.672877" lon="0.065711" /><trkpt lat="38.67277" lon="0.065926" /><trkpt lat="38.672812" lon="0.066238" /><trkpt lat="38.672781" lon="0.066317" /><trkpt lat="38.672696" lon="0.066437" /><trkpt lat="38.672611" lon="0.066472" /><trkpt lat="38.672489" lon="0.066438" /><trkpt lat="38.672389" lon="0.066255" /></trkseg></trk></gpx>