<?xml version='1.0' encoding='UTF-8'?>
<gpx version="1.1" creator="Sendas Tradicionales de Calp" xmlns="http://www.topografix.com/GPX/1/1"><metadata><name>SV-08 - Senda Amarilla - El Cantal</name></metadata><trk><name>SV-08 - Senda Amarilla - El Cantal</name><trkseg><trkpt lat="38.65539" lon="0.047245" /><trkpt lat="38.655459" lon="0.047322" /><trkpt lat="38.655411" lon="0.047541" /><trkpt lat="38.655317" lon="0.047673" /><trkpt lat="38.655234" lon="0.04772" /><trkpt lat="38.65514" lon="0.047766" /><trkpt lat="38.655082" lon="0.047807" /><trkpt lat="38.655064" lon="0.047953" /><trkpt lat="38.655124" lon="0.048298" /><trkpt lat="38.655188" lon="0.048626" /><trkpt lat="38.655256" lon="0.048941" /><trkpt lat="38.655329" lon="0.049243" /><trkpt lat="38.655406" lon="0.049535" /><trkpt lat="38.655487" lon="0.049819" /><trkpt lat="38.655571" lon="0.050098" /><trkpt lat="38.655659" lon="0.050373" /><trkpt lat="38.655723" lon="0.050681" /><trkpt lat="38.655626" lon="0.05139" /><trkpt lat="38.655558" lon="0.051694" /><trkpt lat="38.655474" lon="0.051953" /><trkpt lat="38.655405" lon="0.05207" /><trkpt lat="38.655257" lon="0.052363" /><trkpt lat="38.655121" lon="0.052565" /><trkpt lat="38.654956" lon="0.052893" /><trkpt lat="38.65504" lon="0.053144" /><trkpt lat="38.654891" lon="0.053683" /><trkpt lat="38.654814" lon="0.053948" /><trkpt lat="38.654791" lon="0.055144" /><trkpt lat="38.654625" lon="0.055646" /><trkpt lat="38.6548" lon="0.056786" /><trkpt lat="38.654925" lon="0.056968" /><trkpt lat="38.655779" lon="0.057262" /><trkpt lat="38.656144" lon="0.057517" /><trkpt lat="38.656527" lon="0.057781" /><trkpt lat="38.657257" lon="0.057905" /><trkpt lat="38.657429" lon="0.058134" /><trkpt lat="38.657534" lon="0.058222" /><trkpt lat="38.65781" lon="0.058651" /><trkpt lat="38.657909" lon="0.058795" /><trkpt lat="38.657992" lon="0.05905" /><trkpt lat="38.65805" lon="0.059164" /><trkpt lat="38.658119" lon="0.059327" /><trkpt lat="38.658209" lon="0.059437" /><trkpt lat="38.658344" lon="0.059629" /><trkpt lat="38.658392" lon="0.059746" /><trkpt lat="38.658438" lon="0.05981" /><trkpt lat="38.658494" lon="0.059863" /><trkpt lat="38.658629" lon="0.059987" /><trkpt lat="38.658724" lon="0.060027" /><trkpt lat="38.658889" lon="0.060088" /><trkpt lat="38.659416" lon="0.060162" /><trkpt lat="38.659515" lon="0.060304" /><trkpt lat="38.659685" lon="0.060618" /><trkpt lat="38.659764" lon="0.060897" /><trkpt lat="38.659825" lon="0.061101" /><trkpt lat="38.659975" lon="0.061221" /><trkpt lat="38.660161" lon="0.061262" /><trkpt lat="38.660531" lon="0.061345" /><trkpt lat="38.660651" lon="0.061559" /><trkpt lat="38.660775" lon="0.061712" /><trkpt lat="38.660939" lon="0.061875" /><trkpt lat="38.661235" lon="0.061798" /><trkpt lat="38.661287" lon="0.061528" /><trkpt lat="38.661323" lon="0.061437" /><trkpt lat="38.661269" lon="0.061249" /><trkpt lat="38.661306" lon="0.061107" /><trkpt lat="38.661369" lon="0.060988" /><trkpt lat="38.661628" lon="0.060562" /><trkpt lat="38.661837" lon="0.060206" /><trkpt lat="38.661934" lon="0.059993" /><trkpt lat="38.662023" lon="0.05986" /><trkpt lat="38.662063" lon="0.059776" /><trkpt lat="38.662087" lon="0.05969" /><trkpt lat="38.662109" lon="0.05957" /><trkpt lat="38.662151" lon="0.059427" /><trkpt lat="38.662207" lon="0.059367" /><trkpt lat="38.662303" lon="0.059146" /><trkpt lat="38.662398" lon="0.058967" /><trkpt lat="38.662566" lon="0.058681" /><trkpt lat="38.662764" lon="0.058435" /><trkpt lat="38.662886" lon="0.058255" /><trkpt lat="38.662987" lon="0.058125" /><trkpt lat="38.663268" lon="0.057975" /><trkpt lat="38.663484" lon="0.057832" /><trkpt lat="38.663548" lon="0.057703" /><trkpt lat="38.663812" lon="0.057301" /><trkpt lat="38.66386" lon="0.057051" /><trkpt lat="38.663885" lon="0.056934" /><trkpt lat="38.663978" lon="0.056748" /><trkpt lat="38.664097" lon="0.056524" /><trkpt lat="38.664225" lon="0.056325" /><trkpt lat="38.664367" lon="0.056178" /><trkpt lat="38.664485" lon="0.056124" /><trkpt lat="38.664689" lon="0.056019" /><trkpt lat="38.664856" lon="0.055908" /><trkpt lat="38.664981" lon="0.055793" /><trkpt lat="38.665181" lon="0.055683" /><trkpt lat="38.665321" lon="0.055573" /><trkpt lat="38.665457" lon="0.055454" /><trkpt lat="38.665591" lon="0.055331" /><trkpt lat="38.665725" lon="0.055206" /><trkpt lat="38.665859" lon="0.055083" /><trkpt lat="38.665996" lon="0.054966" /><trkpt lat="38.666137" lon="0.054856" /><trkpt lat="38.666284" lon="0.054759" /><trkpt lat="38.666436" lon="0.054722" /><trkpt lat="38.666587" lon="0.054683" /><trkpt lat="38.666739" lon="0.054643" /><trkpt lat="38.666892" lon="0.054604" /><trkpt lat="38.667044" lon="0.05457" /><trkpt lat="38.667198" lon="0.054542" /><trkpt lat="38.667352" lon="0.054523" /><trkpt lat="38.667507" lon="0.054515" /><trkpt lat="38.667741" lon="0.054341" /><trkpt lat="38.667926" lon="0.054192" /><trkpt lat="38.668287" lon="0.053888" /><trkpt lat="38.668554" lon="0.053732" /><trkpt lat="38.668715" lon="0.053626" /><trkpt lat="38.668917" lon="0.053656" /><trkpt lat="38.668987" lon="0.053714" /><trkpt lat="38.669068" lon="0.053859" /></trkseg></trk></gpx>